row_id,name,license_num,licensure_status,care_level,owner,number_of_floors,number_of_suites,size_of_suites,facilities,services,website,source,contact,phone,cell,fax,email,participation,ownership_type,number_of_beds,council_type,county,branch_of,licensed_beds,secured_beds,ombudsman_phone,mail_co_company,mail_co_street_address,mail_co_city,mail_co_province,mail_co_postal_code,street_address,po_box,city,province,postal_code,country,facility_type
USA-CO-72-AssistedLiving-72-AssistedLiving-1,A FEATHERED NEST AT THORNTON,,,,,,,,,,,, MS ANNETTE FARRELL, (303)453-0810,, (303)453-0810,,Medicaid, PROFIT-CORPORATION,,,ADAMS COUNTY,,7,, (303)480-5624,,,,,,11540 MILWAUKEE ST,,THORNTON,CO,80233,USA,Assisted Living
USA-CO-72-AssistedLiving-72-AssistedLiving-2,A LEGACY PERSONAL CARE HOME,,,,,,,,,,,, Mr SCOTT BOYLE, (303)783-4989,, (303)635-6719,,Private, PROFIT-CORPORATION,,,ARAPAHOE COUNTY,,8,, (303)480-5624,,,,,,4050 SOUTH FOX STREET,,ENGLEWOOD,CO,80110,USA,Assisted Living
USA-CO-72-AssistedLiving-72-AssistedLiving-3,A LOVING HAND ASSISTED LIVING INC,,,,,,,,,,,, Ms JANNELLE MOLINA, (303)782-6951,, (303)504-6038,,Medicaid, PROFIT-CORPORATION,,,ARAPAHOE COUNTY,,8,, (303)480-5624,,,,,,3079 S HOLLY PLACE,,DENVER,CO,80222,USA,Assisted Living
USA-CO-72-AssistedLiving-72-AssistedLiving-4,A ROBIN'S NEST,,,,,,,,,,,, MS MARY LOUISE KOURI, (719)226-2941,, (719)226-2942,,Private, PROFIT-CORPORATION,,,EL PASO COUNTY,,8,, (719)471-7080,,,,,,3182 E OAK CREEK DR,,COLORADO SPRINGS,CO,80906,USA,Assisted Living
USA-CO-72-AssistedLiving-72-AssistedLiving-5,A WILDFLOWER ASSISTED LIVING,,,,,,,,,,,, Ms NICOLE SCHIAVONE, (303)463-4363,, (303)422-1795,,Medicaid, PROFIT-CORPORATION,,,JEFFERSON COUNTY,,8,, (303)480-5624, A WILDFLOWER ASSISTED LIVING,"1140 US HIGHWAY 287, SUITE 400-298",BROOMFIELD,CO,80020,6197 W 83RD WAY,,ARVADA,CO,80003,USA,Assisted Living
USA-CO-72-AssistedLiving-72-AssistedLiving-6,A WILDFLOWER ASSISTED LIVING AND CARE HOME,,,,,,,,,,,, Ms NICOLE SCHIAVONE, (303)650-5450,, (303)650-5450,,Medicaid, PROFIT-CORPORATION,,,ADAMS COUNTY,,8,, (303)480-5624, A WILDFLOWER ASSISTED LIVING AND CARE HOME INC,"1140 US HWY 287, 400-298",BROOMFIELD,CO,80020,8823 PRINCETON STREET,,WESTMINSTER,CO,80030,USA,Assisted Living
USA-CO-72-AssistedLiving-72-AssistedLiving-7,A WILDFLOWER ASSISTED LIVING AND CARE HOME INC,,,,,,,,,,,, Ms NICOLE SCHIAVONE, (303)424-0523,, (866)941-0523,,Medicaid, PROFIT-CORPORATION,,,JEFFERSON COUNTY,,8,, (303)480-5624, A WILDFLOWER ASSISTED LIVING AND CARE HOME INC,1140 US HWY 287 #400-298,BROOMFIELD,CO,80020,9423 W 64TH AVENUE,,ARVADA,CO,80004,USA,Assisted Living
USA-CO-72-AssistedLiving-72-AssistedLiving-8,A WILDFLOWER ASSISTED LIVING AND CARE HOME INC,,,,,,,,,,,, Ms NICOLE SCHIAVONE, (303)728-9238,, (303)728-9239,,Medicaid, PROFIT-CORPORATION,,,ADAMS COUNTY,,5,, (303)480-5624, A WILDFLOWER ASSISTED LIVING AND CARE HOME INC,1140 US HWY 287 UNIT 400-298,BROOMFIELD,CO,80020,10130 MELODY DR,,NORTHGLENN,CO,80260,USA,Assisted Living
USA-CO-72-AssistedLiving-72-AssistedLiving-9,ABBEY ROAD ASSISTED LIVING ULSTER,,,,,,,,,,,, Ms LAURIE WILSON, (720)488-6609,, (303)771-0998,,Medicaid, PROFIT-CORPORATION,,,ARAPAHOE COUNTY,,10,, (303)480-5624, ABBEY ROAD ASSISTED LIVING-ULSTER,2760 W RIVERWALK CR UNIT B,LITTLETON,CO,80123,7347 SOUTH ULSTER STREET,,CENTENNIAL,CO,80112,USA,Assisted Living
USA-CO-72-AssistedLiving-72-AssistedLiving-10,ABBEY ROAD ASSISTED LIVING-NEWPORT,,,,,,,,,,,, Ms LAURIE WILSON, (720)529-6772,, (303)771-0280,,Medicaid, PROFIT-CORPORATION,,,ARAPAHOE COUNTY,,9,, (303)480-5624, ABBEY ROAD ASSISTED LIVING,2760 W. RIVERWALK CIRCLE UNIT B,LITTLETON,CO,80123,8155 S NEWPORT WAY,,CENTENNIAL,CO,80112,USA,Assisted Living
USA-CO-72-AssistedLiving-72-AssistedLiving-11,ABBYS ASSISTED LIVING I,,,,,,,,,,,,  SULASTRI ARDOIN, (720)338-3606,, (303)504-0850,,Private, LIMITED LIABILITY,,,ARAPAHOE COUNTY,,8,, (303)480-5624,,,,,,2607 S EUDORA PLACE,,DENVER,CO,80222,USA,Assisted Living
USA-CO-72-AssistedLiving-72-AssistedLiving-12,ABBYS ASSISTED LIVING II,,,,,,,,,,,,  SULASTRI ARDOIN, (720)338-3606,, (303)504-0850,,Medicaid, LIMITED LIABILITY,,,DENVER COUNTY,,8,, (303)480-5624, ABBY'S ASSISTED LIVING II,2607 S. EUDORA PLACE,DENVER,CO,80222,3071 S ROSEMARY STREET,,DENVER,CO,80231,USA,Assisted Living
USA-CO-72-AssistedLiving-72-AssistedLiving-13,ABUNDANT BLESSINGS AND CARE ASSISTED LIVING,,,,,,,,,,,, Ms CAROL EIBER, (303)478-8174,, (720)210-9878,,Private, PROFIT-CORPORATION,,,ARAPAHOE COUNTY,,8,, (303)480-5624, ABUNDANT BLESSINGS AND CARE ASSISTED LIVING,7781 S GLENCOE COURT,CENTENNIAL,CO,80122,2510 S HOLLY PLACE,,DENVER,CO,80222,USA,Assisted Living
USA-CO-72-AssistedLiving-72-AssistedLiving-14,ABUNDANT BLESSINGS AND CARE ASSISTED LIVING-EASTMAN,,,,,,,,,,,, Ms CAROL EIBER, (303)478-8174,, (720)210-9878,,Private, LIMITED LIABILITY,,,ARAPAHOE COUNTY,,8,, (303)480-5624, ABUNDANT BLESSINGS AND CARE ASSISTED LIVING,7781 SOUTH GLENCOE COURT,CENTENNIAL,CO,80122,6461 EAST EASTMAN AVENUE,,DENVER,CO,80222,USA,Assisted Living
USA-CO-72-AssistedLiving-72-AssistedLiving-15,ABUNDANT BLESSINGS AND CARE ASST LVG - GEDDES AVE,,,,,,,,,,,, Ms CAROL EIBER, (303)960-6711,, (720)210-9878,,Private, LIMITED LIABILITY,,,ARAPAHOE COUNTY,,8,, (303)480-5624, ABUNDANT BLESSINGS AND CARE ASSISTED LIVING-GEDDES,7781 SOUTH GLENCOE COURT,CENTENNIAL,CO,80122,1137 E GEDDES AVE,,CENTENNIAL,CO,80122,USA,Assisted Living
USA-CO-72-AssistedLiving-72-AssistedLiving-16,ABUNDANT BLESSINGS AND CARE -MARION WAY,,,,,,,,,,,, Ms CAROL EIBER, (303)478-8174,, (720)210-9878,,Private, LIMITED LIABILITY,,,ARAPAHOE COUNTY,,8,, (303)480-5624, ABUNDANT BLESSINGS AND CARE-MARION WAY,7781 S. GLENCOE COURT,CENTENNIAL,CO,80122,6203 SOUTH MARION WAY,,CENTENNIAL,CO,80121,USA,Assisted Living
USA-CO-72-AssistedLiving-72-AssistedLiving-17,ACACIA ASSISTED LIVING - MEXICO LLC,,,,,,,,,,,, Ms KATHY TOPPING, (720)306-8237,, (720)306-8235,,Medicaid, LIMITED LIABILITY,,,JEFFERSON COUNTY,,10,, (303)480-5624, ACACIA ASSISTED LIVING - MEXICO LLC,"1551 LARIMER ST, # 1905",DENVER,CO,80202,6419 W MEXICO AVENUE,,LAKEWOOD,CO,80232,USA,Assisted Living
USA-CO-72-AssistedLiving-72-AssistedLiving-18,"ACACIA ASSISTED LIVING-TELLER, LLC",,,,,,,,,,,, Ms KATHY TOPPING, (720)306-8237,, (720)306-8235,,Medicaid, LIMITED LIABILITY,,,JEFFERSON COUNTY,,10,, (303)480-5624, ACACIA ASSISTED LIVING - TELLER,"1551 LARIMER ST, SUITE 1905",DENVER,CO,80202,1069 S TELLER ST,,LAKEWOOD,CO,80228,USA,Assisted Living
USA-CO-72-AssistedLiving-72-AssistedLiving-19,"ACADEMY AT BELLA VISTA, THE",,,,,,,,,,,, Ms LORI SMITH, (303)442-3896,, (720)565-9076,,Private,0,,,BOULDER COUNTY,,10,,LIMITED PARTNERSHIP,,,,,,2762 BELLA VISTA LANE,,BOULDER,CO,80302,USA,Assisted Living
USA-CO-72-AssistedLiving-72-AssistedLiving-20,"ACADEMY, THE",,,,,,,,,,,,  LILY SMITH, (303)938-1920,, (303)444-6022,,Private, PARTNERSHIP,,,BOULDER COUNTY,,23,, (303)441-1173,,,,,,970 AURORA AVENUE,,BOULDER,CO,80302,USA,Assisted Living
USA-CO-72-AssistedLiving-72-AssistedLiving-21,ACCENT ON ELDER CARE,,,,,,,,,,,, Mr RODNEY KING, (303)456-9246,, (303)456-1737,,Medicaid, PROFIT-CORPORATION,,,JEFFERSON COUNTY,,6,, (303)480-5624, TKC ACCENT ON ELDER CARE,PO BOX 39225,DENVER,CO,80239,6395 W 66TH AVE,,ARVADA,CO,80003,USA,Assisted Living
USA-CO-72-AssistedLiving-72-AssistedLiving-22,ACORN HOUSE,,,,,,,,,,,, MS REBECCA CARLSON, (303)399-9791,, (303)937-9646,,Medicaid, LIMITED LIABILITY,,,DENVER COUNTY,,8,, (303)480-5624, ACORN HOUSE,1221 S INGALLS ST,LAKEWOOD,CO,80232,919 ELM ST,,DENVER,CO,80220,USA,Assisted Living
USA-CO-72-AssistedLiving-72-AssistedLiving-23,ACORN HOUSE C,,,,,,,,,,,, MS REBECCA CARLSON, (720)941-8839,, (303)388-8321,,Medicaid, LIMITED LIABILITY,,,DENVER COUNTY,,8,, (303)480-5624, ACORN HOUSE C,1221 S INGALLS STREET,LAKEWOOD,CO,80232,4949 E 9TH AVENUE,,DENVER,CO,80220,USA,Assisted Living
USA-CO-72-AssistedLiving-72-AssistedLiving-24,ACORN HOUSE TOO,,,,,,,,,,,, MS REBECCA CARLSON, (303)316-4984,, (303)937-9646,,Medicaid, LIMITED LIABILITY,,,DENVER COUNTY,,10,, (303)480-5624, ACORN HOUSE TOO,1221 S INGALLS STREET,LAKEWOOD,CO,80232,909 ELM ST,,DENVER,CO,80220,USA,Assisted Living
USA-CO-72-AssistedLiving-72-AssistedLiving-25,ALADDIN AT BRUSH THE,,,,,,,,,,,, Ms PATTY LAKE, (970)842-5463,, (970)842-5463,,Medicaid, LIMITED LIABILITY,,,MORGAN COUNTY,,15,, (970)867-9409,,,,,,428 WESTERN AVE,,BRUSH,CO,80723,USA,Assisted Living
USA-CO-72-AssistedLiving-72-AssistedLiving-26,ALADDIN AT KEENESBURG THE,,,,,,,,,,,, Ms SANDRA CONNER, (303)732-4856,, (303)732-4864,,Medicaid, LIMITED LIABILITY,,,WELD COUNTY,,16,, (970)353-3800, ALADDIN ASSISTED LIVING RESIDENCE,PO BOX 297,KEENESBURG,CO,80643,15 SOUTH ASH,,KEENESBURG,CO,80643,USA,Assisted Living
USA-CO-72-AssistedLiving-72-AssistedLiving-27,ALMOST LIKE HOME,,,,,,,,,,,, MR TIM VANMETER, (303)432-2000,, (303)432-2122,,Private,2,,,JEFFERSON COUNTY,,72,,PROFIT-CORPORATION,,,,,,6761 W 65TH AVENUE,,ARVADA,CO,80003,USA,Assisted Living
USA-CO-72-AssistedLiving-72-AssistedLiving-28,ALMOST LIKE HOME (1),,,,,,,,,,,,,(303)403-4139,,,,,,,,,ALMOST LIKE HOME,,,,,,,,,6761 W 65TH AVENUE,,ARVADA,CO,80003,USA,Assisted Living
USA-CO-72-AssistedLiving-72-AssistedLiving-29,ALMOST LIKE HOME (2),,,,,,,,,,,,,(303)456-2784,,,,,,,,,ALMOST LIKE HOME,,,,,,,,,6741 W 65TH,,ARVADA,CO,80003,USA,Assisted Living
USA-CO-72-AssistedLiving-72-AssistedLiving-30,ALMOST LIKE HOME (3),,,,,,,,,,,,,(303)422-3891,,,,,,,,,ALMOST LIKE HOME,,,,,,,,,6751 W 65TH AVENUE,,ARVADA,CO,80003,USA,Assisted Living
USA-CO-72-AssistedLiving-72-AssistedLiving-31,ALPINE (A),,,,,,,,,,,,,(303)111-1111,,,,,,,,,NEW DAWN MEMORY CARE-COLORADO SPRINGS,,,,,,,,,4145 BRIARGATE PKWY,,COLORADO SPRINGS,CO,80920,USA,Assisted Living
USA-CO-72-AssistedLiving-72-AssistedLiving-32,ALTAVITA ASSISTED LIVING,,,,,,,,,,,, Ms LINDA BERENS, (303)300-3700,, (303)772-9956,,Private, LIMITED LIABILITY,,,BOULDER COUNTY,,73,, (303)441-1173, ALTAVITA ASSISTED LIVING LLC,800 S. FORDHAM STREET,LONGMONT,CO,80503,1001 ALTAVITA COURT,,LONGMONT,CO,80503,USA,Assisted Living
USA-CO-72-AssistedLiving-72-AssistedLiving-33,ALTAVITA MEMORY CARE CENTRE,,,,,,,,,,,, Ms LINDA BERENS, (303)300-3700,, (303)772-9956,,Private,6,,,BOULDER COUNTY,,56,,LIMITED LIABILITY,,,,,,800 S FORDHAM STREET,,LONGMONT,CO,80503,USA,Assisted Living
USA-CO-72-AssistedLiving-72-AssistedLiving-34,ALTERNATIVE CARE HOMES-MARSHALL,,,,,,,,,,,, Ms REBECCA GRAY, (303)818-6794,, (844)720-7880,,Medicaid, PROFIT-CORPORATION,,,JEFFERSON COUNTY,,6,, (303)480-5624, SCS ASSISTED LIVING INC,2855 ROCK CREEK CIRCLE APT 112,SUPERIOR,CO,80027,8029 S MARSHALL STREET,,LITTLETON,CO,80128,USA,Assisted Living
USA-CO-72-AssistedLiving-72-AssistedLiving-35,ANGKOR WAT ALTERNATIVE CARE,,,,,,,,,,,, MR SAM LEM HEAN, (970)434-8240,, (970)523-8066,,Medicaid, INDIVIDUAL,,,MESA COUNTY,,8,, (970)248-2717,,,,,,476 GUNNISON WAY,,GRAND JUNCTION,CO,81504,USA,Assisted Living
USA-CO-72-AssistedLiving-72-AssistedLiving-36,ANGKOR WAT EAST ASSISTED LIVING II,,,,,,,,,,,, MR SAM LEM HEAN, (970)434-3888,, (970)523-1082,,Medicaid, PROFIT-CORPORATION,,,MESA COUNTY,,16,, (970)248-2717, ANGKOR WAT EAST ASSISTED LIVING II,207 RIVER RIDGE DRIVE,GRAND JUNCTION,CO,81503,3291 LOMBARDY LANE,,CLIFTON,CO,81520,USA,Assisted Living
USA-CO-72-AssistedLiving-72-AssistedLiving-37,APPLELEAF ASSISTED LIVING,,,,,,,,,,,, MR JAMES SEVY, (970)532-2600,, (970)532-2600,,Medicaid, INDIVIDUAL,,,LARIMER COUNTY,,12,, (303)862-3524,,,,,,1328 FIRST STREET,,BERTHOUD,CO,80513,USA,Assisted Living
USA-CO-72-AssistedLiving-72-AssistedLiving-38,APPLETREE ASSISTED LIVING,,,,,,,,,,,, Ms ELIZABETH WEST, (719)282-1155,, (719)391-0813,,Medicaid, PROFIT-CORPORATION,,,EL PASO COUNTY,,48,, (719)471-7080,,,,,,1125 BROCKDELL DR,,COLORADO SPRINGS,CO,80911,USA,Assisted Living
USA-CO-72-AssistedLiving-72-AssistedLiving-39,APPLETREE ASSISTED LIVING II,,,,,,,,,,,,,(719)282-1155,,,,,,,,,APPLETREE ASSISTED LIVING,,,,,,,,,1125 BROCKDELL DRIVE,,COLORADO SPRINGS,CO,80911,USA,Assisted Living
USA-CO-72-AssistedLiving-72-AssistedLiving-40,APPLETREE ASSISTED LIVING II,,,,,,,,,,,,,,,,,,,,,,APPLETREE ASSISTED LIVING,,,,,,,,,1165 BROCKDELL DR,,COLORADO SPRINGS,CO,80911,USA,Assisted Living
USA-CO-72-AssistedLiving-72-AssistedLiving-41,APPLETREE ASSISTED LIVING III,,,,,,,,,,,,,(719)282-1155,,,,,,,,,APPLETREE ASSISTED LIVING,,,,,,,,,1145 BROCKDELL DRIVE,,COLORADO SPRINGS,CO,80911,USA,Assisted Living
USA-CO-72-AssistedLiving-72-AssistedLiving-42,APPLEWOOD OUR HOUSE 4 LLC,,,,,,,,,,,, Ms SHERYL KYSAR, (720)982-2040,, (303)785-8943,,Private,6,,,JEFFERSON COUNTY,,16,,LIMITED LIABILITY,,,,,,1182 S VAN GORDON CT,,LAKEWOOD,CO,80228,USA,Assisted Living
USA-CO-72-AssistedLiving-72-AssistedLiving-43,APPLEWOOD OUR HOUSE ASSISTED LIVING FACILITY III,,,,,,,,,,,, Ms SHERYL KYSAR, (303)424-6435,, (303)459-5551,,Private,6,,,JEFFERSON COUNTY,,16,,LIMITED LIABILITY,,,,,,6435 GARRISON ST,,ARVADA,CO,80003,USA,Assisted Living
USA-CO-72-AssistedLiving-72-AssistedLiving-44,APPLEWOOD OUR HOUSE ASSISTED LIVING LLC,,,,,,,,,,,, Ms SHERYL KYSAR, (720)398-9743,, (303)785-8943,,Private,2,,,JEFFERSON COUNTY,,12,,LIMITED LIABILITY,,,,,,1365 YANK STREET,,GOLDEN,CO,80401,USA,Assisted Living
USA-CO-72-AssistedLiving-72-AssistedLiving-45,"APPLEWOOD OUR HOUSE ASST LVG FACILITIES II, LLC",,,,,,,,,,,, Ms SHERYL KYSAR, (303)205-1900,, (303)952-7654,,Private,6,,,JEFFERSON COUNTY,,16,,LIMITED LIABILITY,,,,,,1900 UPHAM STREET,,LAKEWOOD,CO,80214,USA,Assisted Living
USA-CO-72-AssistedLiving-72-AssistedLiving-46,ARA AT THE PINERY,,,,,,,,,,,, Ms MANDRIA MOUW, (303)877-7965,, (720)328-9793,,Injury, PROFIT-CORPORATION,,,DOUGLAS COUNTY,,8,, (303)480-5624,,,,,,7822 WINDWOOD WAY,,PARKER,CO,80134,USA,Assisted Living
USA-CO-72-AssistedLiving-72-AssistedLiving-47,ARBOR VIEW,,,,,,,,,,,, Ms SUSAN BLACK, (303)403-3100,, (303)987-0424,,Private, LIMITED LIABILITY,,,JEFFERSON COUNTY,,36,, (303)480-5624, VIVAGE,12136 W. BAYAUD AVENUE SUITE 200,LAKEWOOD,CO,80228,8001 W 71ST AVENUE,,ARVADA,CO,80004,USA,Assisted Living
USA-CO-72-AssistedLiving-72-AssistedLiving-48,ARBORS OF SAN MARINO,,,,,,,,,,,, Ms MARJORIE CARLI (P), (303)426-9090,, (303)429-8896,,Private,0,,,ADAMS COUNTY,,111,,LIMITED PARTNERSHIP,,,,,,7425 XAVIER ST,,WESTMINSTER,CO,80030,USA,Assisted Living
USA-CO-72-AssistedLiving-72-AssistedLiving-49,"ARGYLE, THE",,,,,,,,,,,, MS JANIS MUELLER, (303)455-9513,, (303)433-7127,,Private, CORPORATE NON-PROFIT,,,DENVER COUNTY,,140,, (303)480-5624,,,,,,4115 W 38TH AVENUE,,DENVER,CO,80212,USA,Assisted Living
USA-CO-72-AssistedLiving-72-AssistedLiving-50,ASH STREET RTF,,,,,,,,,,,, Ms JOANN TONEY, (303)759-2673,, (303)377-1105,,-, CORPORATE NON-PROFIT,,,DENVER COUNTY,,8,, (303)480-5624, MENTAL HEALTH CENTER OF DENVER,4455 EAST 12TH AVE,DENVER,CO,80220,1450 S ASH ST,,DENVER,CO,80222,USA,Assisted Living
USA-CO-72-AssistedLiving-72-AssistedLiving-51,ASHLEY MANOR - EVANS 1,,,,,,,,,,,, Ms RENEE PHILPOTT, (970)346-9891,, (970)346-9904,,Private,3,,,WELD COUNTY,,13,,PROFIT-CORPORATION,,,,,,1805 32ND ST,,EVANS,CO,80620,USA,Assisted Living
USA-CO-72-AssistedLiving-72-AssistedLiving-52,ASHLEY MANOR - EVANS 2,,,,,,,,,,,, Ms RENEE PHILPOTT, (970)304-9277,, (970)378-0329,,Medicaid, PROFIT-CORPORATION,,,WELD COUNTY,,13,, (970)353-3800," ASHLEY MANOR, LLC",PO BOX 1176,MERIDIAN,ID,83680,1725 32ND ST,,EVANS,CO,80620,USA,Assisted Living
USA-CO-72-AssistedLiving-72-AssistedLiving-53,ASHLEY MANOR - EVANS 3,,,,,,,,,,,, Ms RENEE PHILPOTT, (970)336-1966,, (970)378-0329,,Private,6,,,WELD COUNTY,,16,,PROFIT-CORPORATION,,,,,,1715 32ND ST,,EVANS,CO,80620,USA,Assisted Living
USA-CO-72-AssistedLiving-72-AssistedLiving-54,ASHLEY MANOR - FT LUPTON 1,,,,,,,,,,,, Ms MARY ELLEN LAROCHE, (303)857-1921,, (303)857-1951,,Private,2,,,WELD COUNTY,,12,,PROFIT-CORPORATION,,,,,,1102 4TH STREET,,FORT LUPTON,CO,80621,USA,Assisted Living
USA-CO-72-AssistedLiving-72-AssistedLiving-55,ASHLEY MANOR - FT LUPTON 2,,,,,,,,,,,, Ms MARY ELLEN LAROCHE, (303)857-0116,, (303)857-0117,,Medicaid, PROFIT-CORPORATION,,,WELD COUNTY,,14,, (970)353-3800," ASHLEY MANOR, LLC",PO BOX 1176,MERIDIAN,ID,83680,1150 4TH ST,,FORT LUPTON,CO,80621,USA,Assisted Living
USA-CO-72-AssistedLiving-72-AssistedLiving-56,ASHLEY MANOR - SAULSBURY,,,,,,,,,,,, Mr CARRICK MEYERS, (303)233-7900,, (977)209-9403,,Private,6,,,JEFFERSON COUNTY,,16,,LIMITED LIABILITY,,,,,,1370 SAULSBURY ST,,LAKEWOOD,CO,80214,USA,Assisted Living
USA-CO-72-AssistedLiving-72-AssistedLiving-57,ASHLEY MANOR AT CARSON,,,,,,,,,,,,  JORGI SPAHN, (303)699-7744,, (303)617-5447,,Private,6,,,ARAPAHOE COUNTY,,16,,PROFIT-CORPORATION,,,,,,4056 S CARSON WAY,,AURORA,CO,80014,USA,Assisted Living
USA-CO-72-AssistedLiving-72-AssistedLiving-58,ASHLEY MANOR AT DUDLEY,,,,,,,,,,,,  JORGI SPAHN, (303)467-0210,, (303)423-0319,,Private,6,,,JEFFERSON COUNTY,,16,,LIMITED LIABILITY,,,,,,3555 DUDLEY STREET,,WHEAT RIDGE,CO,80033,USA,Assisted Living
USA-CO-72-AssistedLiving-72-AssistedLiving-59,ASHLEY MANOR AT PARFET,,,,,,,,,,,,  JORGI SPAHN, (303)432-7893,, (303)423-1091,,Private,6,,,JEFFERSON COUNTY,,16,,PROFIT-CORPORATION,,,,,,3802 N PARFET ST,,WHEAT RIDGE,CO,80033,USA,Assisted Living
USA-CO-72-AssistedLiving-72-AssistedLiving-60,ASHLEY MANOR IRMA 1,,,,,,,,,,,, Ms BRANDY GRIMES, (303)280-7019,, (303)209-4944,,Private,5,,,ADAMS COUNTY,,6,,LIMITED LIABILITY,,,,,,10527 IRMA DRIVE,,NORTHGLENN,CO,80234,USA,Assisted Living
USA-CO-72-AssistedLiving-72-AssistedLiving-61,ASHLEY MANOR IRMA 2,,,,,,,,,,,, Ms BRANDY GRIMES, (303)280-1720,, (303)280-1542,,Private,5,,,ADAMS COUNTY,,6,,LIMITED LIABILITY,,,,,,10525 IRMA DRIVE,,NORTHGLENN,CO,80234,USA,Assisted Living
USA-CO-72-AssistedLiving-72-AssistedLiving-62,"ASPEN GARDENS ASSISTED LIVING, INC",,,,,,,,,,,, Ms VALLEY JEAN WILLIFORD, (970)564-8600,, (970)564-8600,,Medicaid, PROFIT-CORPORATION,,,MONTEZUMA COUNTY,,6,, (970)259-1967,,,,,,1200 N DOLORES ROAD,,CORTEZ,CO,81321,USA,Assisted Living
USA-CO-72-AssistedLiving-72-AssistedLiving-63,ASPEN GLEN,,,,,,,,,,,, Ms DOLORES MACLEOD, (970)254-8403,, (970)254-8403,,Medicaid, PROFIT-CORPORATION,,,MESA COUNTY,,9,, (970)248-2717,,,,,,448 BOOKCLIFF DR,,GRAND JUNCTION,CO,81501,USA,Assisted Living
USA-CO-72-AssistedLiving-72-AssistedLiving-64,"ASPEN GROVE ASSISTED LIVING, LLC",,,,,,,,,,,, Ms TRACY FRESHOUR, (303)822-9842,, (303)822-8022,,Medicaid, LIMITED LIABILITY,,,ARAPAHOE COUNTY,,8,, (303)480-5624, ASPEN GROVE ASSISTED LIVING,PO BOX 101,BYERS,CO,80103,108 N SHERMAN,,BYERS,CO,80103,USA,Assisted Living
USA-CO-72-AssistedLiving-72-AssistedLiving-65,ASPEN HILLS ASSISTED LIVING LLC,,,,,,,,,,,, Ms VIKTORIA KOVALIS, (303)238-4252,, (303)757-5145,,Medicaid, PROFIT-CORPORATION,,,JEFFERSON COUNTY,,12,, (303)480-5624,,,,,,1030 JAY STREET,,LAKEWOOD,CO,80214,USA,Assisted Living
USA-CO-72-AssistedLiving-72-AssistedLiving-66,ASPEN HOUSE ASSISTED LIVING,,,,,,,,,,,, Mr THOMAS DOLLIVER, (970)635-9800,, (970)667-2362,,Private,0,,,LARIMER COUNTY,,40,,PROFIT-CORPORATION,,,,,,2212 EAST 11TH STREET,,LOVELAND,CO,80537,USA,Assisted Living
USA-CO-72-AssistedLiving-72-AssistedLiving-67,ASPEN HOUSE II,,,,,,,,,,,, Mr THOMAS DOLLIVER, (970)635-2500,, (970)667-2362,,Private,0,,,LARIMER COUNTY,,40,,LIMITED LIABILITY,,,,,,2224 EAST 11TH STREET,,LOVELAND,CO,80537,USA,Assisted Living
USA-CO-72-AssistedLiving-72-AssistedLiving-68,ASPEN LEAF ASSISTED LIVING RESIDENCE,,,,,,,,,,,, Ms KATHY DYER, (719)765-4353,, (888)898-4928,,Medicaid, PROFIT-CORPORATION,,,KIT CARSON COUNTY,,16,, (719)348-5562, ASPEN LEAF ASSISTED LIVING RESIDENCE,P O BOX 426,FLAGLER,CO,80815,419 PAWNEE AVENUE,,FLAGLER,CO,80815,USA,Assisted Living
USA-CO-72-AssistedLiving-72-AssistedLiving-69,ASPEN LEAF ASSISTED LIVING RESIDENCE INC-STRATTON,,,,,,,,,,,, Ms KATHY DYER, (719)348-4666,, (888)898-4928,,Medicaid, PROFIT-CORPORATION,,,KIT CARSON COUNTY,,12,, (719)348-5562, ASPEN LEAF ASSISTED LIVING INC - STRATTON,PO BOX 426,FLAGLER,CO,80815,410 MAIN ST,,STRATTON,CO,80836,USA,Assisted Living
USA-CO-72-AssistedLiving-72-AssistedLiving-70,ASPEN RIDGE ALZHEIMERS SPECIAL CARE CENTER,,,,,,,,,,,,  TRACY WAITE, (970)254-1233,, (970)254-1263,,Private,6,,,MESA COUNTY,,56,,LIMITED LIABILITY,,,,,,622 28 1/4 ROAD,,GRAND JUNCTION,CO,81506,USA,Assisted Living
USA-CO-72-AssistedLiving-72-AssistedLiving-71,"ASPEN VIEW LIVING, LLC",,,,,,,,,,,, Mr DEREK MAIN, (303)695-7777,, (303)695-7777,,Private,,,,ARAPAHOE COUNTY,,8,, (303)480-5624,,,,,,11010 E COLORADO DRIVE,,AURORA,CO,80012,USA,Assisted Living
USA-CO-72-AssistedLiving-72-AssistedLiving-72,ASSISTED LIVING AT EATON SENIOR COMMUNITIES,,,,,,,,,,,, Ms DIANA DELGADO, (303)937-3000,, (303)937-3090,,Medicaid, CORPORATE NON-PROFIT,,,JEFFERSON COUNTY,,74,, (303)480-5624,,,,,,323 S EATON STREET,,LAKEWOOD,CO,80226,USA,Assisted Living
USA-CO-72-AssistedLiving-72-AssistedLiving-73,ASSISTED LIVING AT FLOYD LLC,,,,,,,,,,,,  VIKTORIA KOVALIS, (303)781-1546,, (303)757-5145,,Medicaid, LIMITED LIABILITY,,,ARAPAHOE COUNTY,,8,, (303)480-5624,,,,,,2330 E FLOYD AVE,,ENGLEWOOD,CO,80113,USA,Assisted Living
USA-CO-72-AssistedLiving-72-AssistedLiving-74,"ASSISTED LIVING AT GREELEY, LLC",,,,,,,,,,,, Ms MELANY WONG, (970)515-6952,, (720)420-1322,,Medicaid, LIMITED LIABILITY,,,WELD COUNTY,,16,, (970)353-3800, ASSISTED LIVING AT GREELEY LLC,PO BOX 274,PARKER,CO,80631,218 1/2 10TH STREET,,GREELEY,CO,80631,USA,Assisted Living
USA-CO-72-AssistedLiving-72-AssistedLiving-75,ASSISTED LIVING OF DENVER,,,,,,,,,,,, Ms MARIA BOUTROUS, (303)333-0305,, (303)438-7165,,Medicaid, LIMITED LIABILITY,,,DENVER COUNTY,,16,, (303)480-5624, ST. ANTHONY OF PADUA HOMES LLC,14024 PARK COVE DRIVE,BROOMFIELD,CO,80023,3545 LEYDEN STREET,,DENVER,CO,80207,USA,Assisted Living
USA-CO-72-AssistedLiving-72-AssistedLiving-76,ASSISTED LIVING OF DENVER NE LLC,,,,,,,,,,,, Ms MELANY WONG, (303)371-0106,, (303)371-0112,,Medicaid, LIMITED LIABILITY,,,DENVER COUNTY,,10,, (303)480-5624, ASSISTED LIVING OF DENVER LLC,P O BOX 274,PARKER,CO,80134,4827 LISBON STREET,,DENVER,CO,80249,USA,Assisted Living
USA-CO-72-AssistedLiving-72-AssistedLiving-77,ASSISTED LIVING ON BROADWAY,,,,,,,,,,,, Ms IRENE KASPIN, (720)383-8083,, (720)389-8247,,Medicaid,2,,,ARAPAHOE COUNTY,,12,,LIMITED LIABILITY,,,,,,7120 S BROADWAY,,LITTLETON,CO,80122,USA,Assisted Living
USA-CO-72-AssistedLiving-72-AssistedLiving-78,ASSURED ASSISTED LIVING 1,,,,,,,,,,,, Mrs SHERYL THOMPSON, (303)663-4881,, (303)814-2689,,Private,,,,DOUGLAS COUNTY,,9,,LIMITED LIABILITY,,,,,,1687 PAONIA COURT,,CASTLE ROCK,CO,80109,USA,Assisted Living
USA-CO-72-AssistedLiving-72-AssistedLiving-79,ASSURED ASSISTED LIVING 2,,,,,,,,,,,, Mrs SHERYL THOMPSON, (303)660-4252,, (303)814-2689,,Private,,,,DOUGLAS COUNTY,,9,,LIMITED LIABILITY,,,,,,797 TARPAN PLACE,,CASTLE ROCK,CO,80104,USA,Assisted Living
USA-CO-72-AssistedLiving-72-AssistedLiving-80,ASSURED ASSISTED LIVING 3,,,,,,,,,,,, Mrs SHERYL THOMPSON, (303)660-6946,, (303)814-2689,,Private,,,,DOUGLAS COUNTY,,9,,LIMITED LIABILITY,,,,,,815 TARPAN PLACE,,CASTLE ROCK,CO,80104,USA,Assisted Living
USA-CO-72-AssistedLiving-72-AssistedLiving-81,ASSURED ASSISTED LIVING 4,,,,,,,,,,,, Mrs SHERYL THOMPSON, (303)660-9757,, (303)814-2689,,Private,,,,DOUGLAS COUNTY,,9,,LIMITED LIABILITY,,,,,,1861 SAPLING COURT,,CASTLE ROCK,CO,80109,USA,Assisted Living
USA-CO-72-AssistedLiving-72-AssistedLiving-82,ASSURED ASSISTED LIVING 5,,,,,,,,,,,, Mrs SHERYL THOMPSON, (303)660-9769,, (303)814-2689,,Private,,,,DOUGLAS COUNTY,,9,,LIMITED LIABILITY,,,,,,1671 THATCH CIRCLE,,CASTLE ROCK,CO,80109,USA,Assisted Living
USA-CO-72-AssistedLiving-72-AssistedLiving-83,ASSURED ASSISTED LIVING 6,,,,,,,,,,,, Mrs SHERYL THOMPSON, (303)841-0470,, (303)814-2689,,Private,,,,DOUGLAS COUNTY,,8,,LIMITED LIABILITY,,,,,,4837 WAGON TRAIL COURT,,PARKER,CO,80134,USA,Assisted Living
USA-CO-72-AssistedLiving-72-AssistedLiving-84,ASSURED ASSISTED LIVING 7,,,,,,,,,,,, Mrs SHERYL THOMPSON, (303)840-7327,, (303)814-2689,,Private,,,,DOUGLAS COUNTY,,8,,LIMITED LIABILITY,,,,,,10139 RIVERSTONE DRIVE,,PARKER,CO,80134,USA,Assisted Living
USA-CO-72-AssistedLiving-72-AssistedLiving-85,ASSURED ASSISTED LIVING 8,,,,,,,,,,,, Mrs SHERYL THOMPSON, (303)794-3335,, (303)814-2589,,Private,,,,ARAPAHOE COUNTY,,8,,LIMITED LIABILITY,,,,,,2 MEADOWBROOK PLACE,,LITTLETON,CO,80120,USA,Assisted Living
USA-CO-72-AssistedLiving-72-AssistedLiving-86,ASSURED ASSISTED LIVING 9,,,,,,,,,,,, Mrs SHERYL THOMPSON, (303)766-3431,, (303)814-2689,,Private,,,,ARAPAHOE COUNTY,,8,,LIMITED LIABILITY,,,,,,5286 S ANDES CT,,CENTENNIAL,CO,80015,USA,Assisted Living
USA-CO-72-AssistedLiving-72-AssistedLiving-87,ATRIA INN AT LAKEWOOD,,,,,,,,,,,,  KASIE WALKER, (303)742-4800,, (303)742-2100,,Private,8,,,JEFFERSON COUNTY,,274,,LIMITED LIABILITY,,,,,,555 S PIERCE ST,,LAKEWOOD,CO,80226,USA,Assisted Living
USA-CO-72-AssistedLiving-72-AssistedLiving-88,ATRIA LONGMONT,,,,,,,,,,,,  DERRICK CARSON, (303)678-5050,, (303)684-2389,,Private,2,,,BOULDER COUNTY,,100,,LIMITED LIABILITY,,,,,,2310 9TH AVENUE,,LONGMONT,CO,80503,USA,Assisted Living
USA-CO-72-AssistedLiving-72-AssistedLiving-89,ATRIA PARK OF APPLEWOOD,,,,,,,,,,,, Ms MEGAN MCGINNIS, (303)233-4343,, (303)233-5151,,Private,1,,,JEFFERSON COUNTY,,133,,LIMITED PARTNERSHIP,,,,,,2800 YOUNGFIELD STREET,,LAKEWOOD,CO,80215,USA,Assisted Living
USA-CO-72-AssistedLiving-72-AssistedLiving-90,AUGUSTANA ELK RUN ASSISTED LIVING,,,,,,,,,,,,  RITA WAXON (P), (303)679-8777,, (303)679-8779,,Medicaid, LIMITED LIABILITY,,,JEFFERSON COUNTY,,68,, (303)480-5624,,,,,,31383 FROST WAY,,EVERGREEN,CO,80439,USA,Assisted Living
USA-CO-72-AssistedLiving-72-AssistedLiving-91,AURORA MAKARIOS ASSISTED LIVING,,,,,,,,,,,, Mr FNU SUYATNO, (303)696-9177,, (303)696-9176,,Medicaid, LIMITED LIABILITY,,,ARAPAHOE COUNTY,,8,, (303)480-5624," MAKARIOS ASSISTED LIVING, LLC",14691 E. LEHIGH AVENUE,AURORA,CO,80014,17003 E PACIFIC PLACE,,AURORA,CO,80013,USA,Assisted Living
USA-CO-72-AssistedLiving-72-AssistedLiving-92,BALFOUR AT RIVERFRONT PARK,,,,,,,,,,,, Ms SANDRA LEE CHRISTENSEN, (720)360-4500,, (720)360-4501,,Private,8,,,DENVER COUNTY,,100,,LIMITED LIABILITY,,,,,,1500 LITTLE RAVEN ST,,DENVER,CO,80202,USA,Assisted Living
USA-CO-72-AssistedLiving-72-AssistedLiving-93,BALFOUR AT STAPLETON,,,,,,,,,,,, Ms ELIZABETH GIRLING, (720)492-0712,, (720)787-7801,,Private,6,,,DENVER COUNTY,,77,,LIMITED LIABILITY,,,,,,2979 N UINTA STREET,,DENVER,CO,80238,USA,Assisted Living
USA-CO-72-AssistedLiving-72-AssistedLiving-94,BALFOUR CHERRYWOOD VILLAGE,,,,,,,,,,,, Ms KRISTEN LEBLANC, (303)604-2700,, (303)604-2800,,Private,2,,,BOULDER COUNTY,,52,,PROFIT-CORPORATION,,,,,,282 MCCASLIN BLVD,,LOUISVILLE,CO,80027,USA,Assisted Living
USA-CO-72-AssistedLiving-72-AssistedLiving-95,BALFOUR RETIREMENT COMMUNITY,,,,,,,,,,,, Mr ERIC MEYER, (303)926-1000,, (303)926-9900,,Private, LIMITED LIABILITY,,,BOULDER COUNTY,,65,, (303)441-1173,,,,,,1855 PLAZA DR,,LOUISVILLE,CO,80027,USA,Assisted Living
USA-CO-72-AssistedLiving-72-AssistedLiving-96,BALSAM HOUSE,,,,,,,,,,,, Ms KAREN STURGIS, (303)440-5140,, (303)440-5144,,Private, LIMITED LIABILITY,,,BOULDER COUNTY,,8,, (303)441-1173,,,,,,2818 - 2820 13TH STREET,,BOULDER,CO,80304,USA,Assisted Living
USA-CO-72-AssistedLiving-72-AssistedLiving-97,BARRY BUILDING,,,,,,,,,,,,,(303)111-1111,,,,,,,,,"ROBERT RUSSELL EASTERN STAR-MASONIC CENTER OF COLORADO, INC",,,,,,,,,2445 S QUEBEC ST,,DENVER,CO,80231,USA,Assisted Living
USA-CO-72-AssistedLiving-72-AssistedLiving-98,"BARTH HOTEL, THE",,,,,,,,,,,, Ms MICHELLE MCGINN, (303)534-7142,, (303)595-9225,,Medicaid, CORPORATE NON-PROFIT,,,DENVER COUNTY,,62,, (303)480-5624," SENIOR HOUSING OPTIONS, INC.",1510 17TH ST,DENVER,CO,80202,1514 17TH ST,,DENVER,CO,80202,USA,Assisted Living
USA-CO-72-AssistedLiving-72-AssistedLiving-99,BEATRICE HOVER ASSISTED LIVING RESIDENCE,,,,,,,,,,,, Ms LISA CZOLOWSKI, (303)772-9292,, (303)651-7279,,Private, CORPORATE NON-PROFIT,,,BOULDER COUNTY,,55,, (303)441-1173,,,,,,1380 CHARLES DRIVE,,LONGMONT,CO,80503,USA,Assisted Living
USA-CO-72-AssistedLiving-72-AssistedLiving-100,BEE HIVE HOMES OF GRAND JUNCTION,,,,,,,,,,,, Mr WENDELL GATES, (970)549-6554,, (970)243-4801,,Private, LIMITED LIABILITY,,,MESA COUNTY,,15,, (970)248-2717,,,,,,2395 H ROAD,,GRAND JUNCTION,CO,81505,USA,Assisted Living
USA-CO-72-AssistedLiving-72-AssistedLiving-101,BEE HIVE HOMES OF PAGOSA SPRINGS,,,,,,,,,,,, Mr CHRISTOPHER SMITH, (970)946-1784,, (970)264-5919,,Private,: (970)259-1967,,,ARCHULETA COUNTY,,: LIMITED LIABILITY,,THOMAS ENTERPRISES,,,,,,662 PARK AVENUE,,PAGOSA SPRINGS,CO,81147,USA,Assisted Living
USA-CO-72-AssistedLiving-72-AssistedLiving-102,"BEE HIVE-FT MORGAN I, THE",,,,,,,,,,,, Ms KATHY LATOSKI, (970)867-2221,, (970)867-2422,,Medicaid, CORPORATE NON-PROFIT,,,MORGAN COUNTY,,16,, (970)867-9409, TLC CARE CHOICES INC,23 SCOTT DRIVE NORTH,BROOMFIELD,CO,80020,1620 E RIVERVIEW AVENUE,,FORT MORGAN,CO,80701,USA,Assisted Living
USA-CO-72-AssistedLiving-72-AssistedLiving-103,"BEE HIVE-FT MORGAN II, THE",,,,,,,,,,,, Ms KATHY LATOSKI, (970)867-5336,, (970)867-2422,,Medicaid, CORPORATE NON-PROFIT,,,MORGAN COUNTY,,16,, (970)867-9409, THE BEE HIVE-FT MORGAN II,23 SCOTT DRIVE NORTH,BROOMFIELD,CO,80020,1640 E RIVERVIEW AVENUE,,FORT MORGAN,CO,80701,USA,Assisted Living
USA-CO-72-AssistedLiving-72-AssistedLiving-104,"BEE HIVE-STERLING I, THE",,,,,,,,,,,, Ms DAFFENY SAMPSON, (970)522-7335,, (970)526-2056,,Medicaid, CORPORATE NON-PROFIT,,,LOGAN COUNTY,,12,, (970)867-9409, TLC CARE CHOICES INC,23 SCOTT DRIVE NORTH,BROOMFIELD,CO,80020,610 JAY DR,,STERLING,CO,80751,USA,Assisted Living
USA-CO-72-AssistedLiving-72-AssistedLiving-105,"BEE HIVE-STERLING II, THE",,,,,,,,,,,, Ms DAFFENY SAMPSON, (970)522-7335,, (970)526-2056,,Medicaid, CORPORATE NON-PROFIT,,,LOGAN COUNTY,,16,, (970)867-9409, TLC CARE CHOICES INC,23 SCOTT DRIVE NORTH,BROOKFIELD,CO,80020,604 JAY DR,,STERLING,CO,80751,USA,Assisted Living
USA-CO-72-AssistedLiving-72-AssistedLiving-106,BEELER STREET RTF,,,,,,,,,,,, Ms JOANN TONEY, (303)360-6014,, (303)504-7991,,-, CORPORATE NON-PROFIT,,,ARAPAHOE COUNTY,,15,, (303)480-5624, MENTAL HEALTH CORPORATION OF DENVER,4455 EAST 12TH AVE,DENVER,CO,80220,1455 BEELER STREET,,AURORA,CO,80010,USA,Assisted Living
USA-CO-72-AssistedLiving-72-AssistedLiving-107,"BELLAIRE HOUSE ASSISTED LIVING, LLC",,,,,,,,,,,, Ms KIMBERLY BAIYEE-CADY, (303)321-7692,, (303)845-7616,,Medicaid, LIMITED LIABILITY,,,DENVER COUNTY,,8,, (303)480-5624,,,,,,4301 MARTIN LUTHER KING BLVD,,DENVER,CO,80207,USA,Assisted Living
USA-CO-72-AssistedLiving-72-AssistedLiving-108,BELLEVIEW HEIGHTS ALZHEIMER'S SPECIAL CARE CENTER,,,,,,,,,,,,  TRACY WAITE, (303)690-0700,, (303)690-4141,,Private, LIMITED LIABILITY,,,ARAPAHOE COUNTY,,66,, (303)480-5624, BELLEVIEW HEIGHTS ALZHEIMER'S SPECIAL CARE CENTER,P.O. BOX 820528,VANCOUVER,WA,98682,14500 BELLEVIEW AVE,,AURORA,CO,80015,USA,Assisted Living
USA-CO-72-AssistedLiving-72-AssistedLiving-109,BELMONT SENIOR CARE,,,,,,,,,,,, MS PHYLLIS SANCHEZ, (719)544-3999,, (719)542-3033,,Medicaid, CORPORATE NON-PROFIT,,,PUEBLO COUNTY,,49,, (719)583-6123,,,,,,#3 DOUGLAS COURT,,PUEBLO,CO,81001,USA,Assisted Living
USA-CO-72-AssistedLiving-72-AssistedLiving-110,BELMONT SENIOR CARE #1,,,,,,,,,,,,,(719)544-3999,,,,,,,,,BELMONT SENIOR CARE,,,,,,,,,#1 DOUGLAS COURT,,PUEBLO,CO,81001,USA,Assisted Living
USA-CO-72-AssistedLiving-72-AssistedLiving-111,BELMONT SENIOR CARE #2,,,,,,,,,,,,,(719)544-3999,,,,,,,,,BELMONT SENIOR CARE,,,,,,,,,#2 DOUGLAS COURT,,PUEBLO,CO,81001,USA,Assisted Living
USA-CO-72-AssistedLiving-72-AssistedLiving-112,BELMONT SENIOR CARE #3,,,,,,,,,,,,,(719)544-3999,,,,,,,,,BELMONT SENIOR CARE,,,,,,,,,#3 DOUGLAS COURT,,PUEBLO,CO,81001,USA,Assisted Living
USA-CO-72-AssistedLiving-72-AssistedLiving-113,BELMONT SENIOR CARE #4,,,,,,,,,,,,,(719)544-3999,,,,,,,,,BELMONT SENIOR CARE,,,,,,,,,#4 DOUGLAS COURT,,PUEBLO,CO,81001,USA,Assisted Living
USA-CO-72-AssistedLiving-72-AssistedLiving-114,BELMONT SENIOR CARE #5,,,,,,,,,,,,,(719)544-3999,,,,,,,,,BELMONT SENIOR CARE,,,,,,,,,#5 DOUGLAS COURT,,PUEBLO,CO,81001,USA,Assisted Living
USA-CO-72-AssistedLiving-72-AssistedLiving-115,BETHESDA GARDENS MONUMENT,,,,,,,,,,,, Ms CARA THOMAS, (866)958-8771,, (719)488-6080,,Private,3,,,EL PASO COUNTY,,60,,LIMITED LIABILITY,,,,,,55 BEACON LITE ROAD,,MONUMENT,CO,80132,USA,Assisted Living
USA-CO-72-AssistedLiving-72-AssistedLiving-116,BETHHAVEN HOUSE,,,,,,,,,,,, Mr MICHAEL VAN DE CASTEELE, (719)328-1609,, (719)634-5002,,Medicaid, CORPORATE NON-PROFIT,,,EL PASO COUNTY,,12,, (719)471-7080, BETHHAVEN INC.,PO BOX 326,COLORADO SPRINGS,CO,80901,504 E WILLAMETTE AVE,,COLORADO SPRINGS,CO,80903,USA,Assisted Living
USA-CO-72-AssistedLiving-72-AssistedLiving-117,BIRCH ASSISTED LIVING,,,,,,,,,,,, Ms VICTORINA SUPIT, (970)346-1150,, (970)346-1151,,Medicaid, PROFIT-CORPORATION,,,WELD COUNTY,,60,, (970)353-3800,,,,,,1819 BIRCH AVENUE,,GREELEY,CO,80631,USA,Assisted Living
USA-CO-72-AssistedLiving-72-AssistedLiving-118,BLOSSOM VIEW ASSISTED LIVING,,,,,,,,,,,, Ms BONNITA WALLACE, (970)434-6707,, (970)434-9323,,Medicaid, PROFIT-CORPORATION,,,MESA COUNTY,,16,, (970)248-2717,,,,,,3456 F ROAD,,CLIFTON,CO,81520,USA,Assisted Living
USA-CO-72-AssistedLiving-72-AssistedLiving-119,BLUE SPRUCE ASSISTED LIVING,,,,,,,,,,,,  ADELE BARBERA, (303)663-0695,, (303)663-0804,,Medicaid, LIMITED LIABILITY,,,DOUGLAS COUNTY,,8,, (303)480-5624, BLUE SPRUCE ASSISTED LIVING FACILITIES LLC,12434 DANIELS GATE DRIVE,CASTLE PINES,CO,80108,8204 WETHERILL CIRCLE,,CASTLE ROCK,CO,80108,USA,Assisted Living
USA-CO-72-AssistedLiving-72-AssistedLiving-120,BLUE SPRUCE ASSISTED LIVING II,,,,,,,,,,,,  ADELE BARBERA, (303)549-3736,, (303)663-0804,,Private, LIMITED LIABILITY,,,DOUGLAS COUNTY,,8,, (303)480-5624, BLUE SPRUCE ASSISTED LIVING FACILITIES,12434 DANIELS GATE DR,CASTLE PINES,CO,80108,2570 PEMBERLY AVE,,HIGHLANDS RANCH,CO,80126,USA,Assisted Living
USA-CO-72-AssistedLiving-72-AssistedLiving-121,BONAVENTURE OF CASTLE ROCK,,,,,,,,,,,,  JOLENE GREENE, (303)681-3752,, (303)681-0179,,Private,8,,,DOUGLAS COUNTY,,78,,LIMITED LIABILITY,,,,,,1855 LOW MEADOW BLVD,,CASTLE ROCK,CO,80109,USA,Assisted Living
USA-CO-72-AssistedLiving-72-AssistedLiving-122,BONAVENTURE OF COLORADO SPRINGS,,,,,,,,,,,, Mr DIEGO BARRANTES (P), (719)434-5230,, (716)434-5231,,Private,2,,,EL PASO COUNTY,,84,, (719)471-7080, BONAVENTURE OF COLORADO SPRINGS,3425 BOONE RD SE,SALEM,OR,97317,9112 GRAND CORDERA PARKWAY,,COLORADO SPRINGS,CO,80924,USA,Assisted Living
USA-CO-72-AssistedLiving-72-AssistedLiving-123,BONAVENTURE OF PUEBLO,,,,,,,,,,,, Mr MICHAEL MARINO (P), (719)542-6254,, (719)542-6256,,Private,4,,,PUEBLO COUNTY,,86,,LIMITED LIABILITY,,,,,,3125 BONAVENTURE COURT,,PUEBLO,CO,81008,USA,Assisted Living
USA-CO-72-AssistedLiving-72-AssistedLiving-124,BONELL GOOD SAMARITAN CENTER,,,,,,,,,,,, Ms VERONICA HOWELL, (970)352-6082,, (970)356-7970,,Medicaid, CORPORATE NON-PROFIT,,,WELD COUNTY,,41,, (970)353-3800,,,,,,708 22ND ST,,GREELEY,CO,80631,USA,Assisted Living
USA-CO-72-AssistedLiving-72-AssistedLiving-125,BOOKCLIFF MANOR ASSISTED LIVING,,,,,,,,,,,, MR BRUCE BURROUGHS, (970)245-0788,, (970)245-6945,,Medicaid, LIMITED LIABILITY,,,MESA COUNTY,,25,, (970)248-2717, BOOKCLIFF MANOR-ASSISTED LIVING,P.O. BOX 40048,GRAND JUNCTION,CO,81504,2897 ORCHARD AVENUE,,GRAND JUNCTION,CO,81501,USA,Assisted Living
USA-CO-72-AssistedLiving-72-AssistedLiving-126,BOSTON HOUSE,,,,,,,,,,,, Mr MILKIAS HAILU (P), (303)367-8864,, (303)377-2991,,Medicaid, PROFIT-CORPORATION,,,ADAMS COUNTY,,16,, (303)480-5624, THE BOSTON HOUSE,P O BOX 200126,DENVER,CO,80220,1744 BOSTON ST,,AURORA,CO,80010,USA,Assisted Living
USA-CO-72-AssistedLiving-72-AssistedLiving-127,BRASSWOOD ASSISTED LIVING,,,,,,,,,,,, Ms ANELLA SMITH, (720)234-3657,, (303)745-3990,,Private, LIMITED LIABILITY,,,ARAPAHOE COUNTY,,8,, (303)480-5624, BRASSWOOD ASSISTED LIVING LLC,14613 E. ATLANTIC DR.,AURORA,CO,80014,20 SOUTH DE GAULLE STREET,,AURORA,CO,80014,USA,Assisted Living
USA-CO-72-AssistedLiving-72-AssistedLiving-128,BRECKENRIDGE (B),,,,,,,,,,,,,,,,,,,,,,NEW DAWN MEMORY CARE-COLORADO SPRINGS,,,,,,,,,4145 BRIARGATE PKWY,,COLORADO SPRINGS,CO,80920,USA,Assisted Living
USA-CO-72-AssistedLiving-72-AssistedLiving-129,"BREWER, THERE'S NO PLACE LIKE HOME CARE",,,,,,,,,,,, Ms LORETTA REED, (303)945-4656,, (303)377-1081,,Medicaid, INDIVIDUAL,,,DENVER COUNTY,,8,, (303)480-5624,,,,,,2627-37 MARTIN LUTHER KING BOULEVARD,,DENVER,CO,80205,USA,Assisted Living
USA-CO-72-AssistedLiving-72-AssistedLiving-130,BRIDGE ASSISTED LIVING AT LIFE CARE CTR OF GREELEY THE,,,,,,,,,,,, Ms JENNIFER HARRIS (MCELHANEY), (970)339-0022,, (970)506-9031,,Private, LIMITED LIABILITY,,,WELD COUNTY,,70,, (970)353-3800,,,,,,4750 25TH ST,,GREELEY,CO,80634,USA,Assisted Living
USA-CO-72-AssistedLiving-72-AssistedLiving-131,BRIDGE ASSISTED LVG AT LIFE CARE CTR OF CO SPRINGS THE,,,,,,,,,,,, Ms CONNIE JOHNSON, (719)630-3330,, (719)633-0567,,Private, PARTNERSHIP,,,EL PASO COUNTY,,65,, (719)471-7080,,,,,,2494 INTERNATIONAL CIRCLE,,COLORADO SPRINGS,CO,80910,USA,Assisted Living
USA-CO-72-AssistedLiving-72-AssistedLiving-132,"BRIDGE ASSISTED LVG AT LIFE CARE CTR OF LONGMONT, THE",,,,,,,,,,,, Ms SHIRLEY MCNEFF, (303)774-8255,, (303)774-8578,,Private, PARTNERSHIP,,,BOULDER COUNTY,,70,, (303)441-1173,,,,,,2444 PRATT ST,,LONGMONT,CO,80501,USA,Assisted Living
USA-CO-72-AssistedLiving-72-AssistedLiving-133,BRIDGE AT ALAMOSA THE,,,,,,,,,,,, Ms CAROL RIGGENBACH, (719)587-3514,, (719)587-3614,,Private, LIMITED LIABILITY,,,ALAMOSA COUNTY,,85,, (719)589-4511,,,,,,3407 CARROLL STREET,,ALAMOSA,CO,81101,USA,Assisted Living
USA-CO-72-AssistedLiving-72-AssistedLiving-134,BRIGHT ASSISTED LIVING LLC,,,,,,,,,,,, Ms RACHEL ROBERTSON, (970)674-1446,, (970)674-1463,,Medicaid, LIMITED LIABILITY,,,WELD COUNTY,,12,, (970)353-3800,,,,,,610 HEMLOCK DRIVE,,WINDSOR,CO,80550,USA,Assisted Living
USA-CO-72-AssistedLiving-72-AssistedLiving-135,BROADMOOR COURT,,,,,,,,,,,, MS LINDA HODGES, (719)471-2285,, (719)634-0491,,Medicaid, CORPORATE NON-PROFIT,,,EL PASO COUNTY,,64,, (719)471-7080,,,,,,2045 ROANOKE ST,,COLORADO SPRINGS,CO,80906,USA,Assisted Living
USA-CO-72-AssistedLiving-72-AssistedLiving-136,BROOKDALE ARVADA,,,,,,,,,,,, Ms ALICIA MURRAY, (303)569-6979,, (303)423-1849,,Private,7,,,JEFFERSON COUNTY,,92,,PROFIT-CORPORATION,,,,,,7720 ALLISON STREET,,ARVADA,CO,80005,USA,Assisted Living
USA-CO-72-AssistedLiving-72-AssistedLiving-137,BROOKDALE AURORA,,,,,,,,,,,, Mr ELVAN MOSS (P), (303)369-0736,, (303)752-9334,,Private,8,,,ARAPAHOE COUNTY,,188,,LIMITED LIABILITY,,,,,,1820 S POTOMAC ST,,AURORA,CO,80012,USA,Assisted Living
USA-CO-72-AssistedLiving-72-AssistedLiving-138,BROOKDALE BEAR CREEK-ALR,,,,,,,,,,,, Ms RENEE BOGARD, (719)329-1774,, (719)329-1695,,Private,5,,,EL PASO COUNTY,,137,,PROFIT-CORPORATION,,,,,,1685 SOUTH 21ST STREET,,COLORADO SPRINGS,CO,80904,USA,Assisted Living
USA-CO-72-AssistedLiving-72-AssistedLiving-139,BROOKDALE BOULDER CREEK,,,,,,,,,,,, Ms BRIANNA WESTLAKE, (303)473-0333,, (303)473-0134,,Medicaid, PROFIT-CORPORATION,,,BOULDER COUNTY,,90,, (303)441-1173,,,,,,3375 34TH ST,,BOULDER,CO,80301,USA,Assisted Living
USA-CO-72-AssistedLiving-72-AssistedLiving-140,BROOKDALE BRIARGATE,,,,,,,,,,,, Ms LORELEI BROXSON, (719)598-4200,, (719)598-1083,,Private,0,,,EL PASO COUNTY,,50,,PROFIT-CORPORATION,,,,,,7560 LEXINGTON DRIVE,,COLORADO SPRINGS,CO,80920,USA,Assisted Living
USA-CO-72-AssistedLiving-72-AssistedLiving-141,BROOKDALE BRIGHTON,,,,,,,,,,,,  MARK WALKER, (303)637-9500,, (303)637-7338,,Medicaid, PROFIT-CORPORATION,,,ADAMS COUNTY,,55,, (303)480-5624,,,,,,2215 EAST EGBERT ST,,BRIGHTON,CO,80601,USA,Assisted Living
USA-CO-72-AssistedLiving-72-AssistedLiving-142,BROOKDALE BROADMOOR,,,,,,,,,,,, Ms SHANELL MOORE, (719)579-5000,, (719)579-5024,,Private,7,,,EL PASO COUNTY,,89,,PROFIT-CORPORATION,,,,,,615 SOUTHPOINTE COURT,,COLORADO SPRINGS,CO,80906,USA,Assisted Living
USA-CO-72-AssistedLiving-72-AssistedLiving-143,BROOKDALE DENVER AL (CO),,,,,,,,,,,, Ms MINDY MOSKOWITZ (P), (303)671-2500,, (303)355-5595,,Private,5,,,ARAPAHOE COUNTY,,135,,PROFIT-CORPORATION,,,,,,2500 S ROSLYN ST,,DENVER,CO,80231,USA,Assisted Living
USA-CO-72-AssistedLiving-72-AssistedLiving-144,BROOKDALE DENVER TECH CENTER,,,,,,,,,,,, Ms JANET PICCINATI (P), (303)796-8009,, (303)713-0891,,Private,7,,,DENVER COUNTY,,114,,PROFIT-CORPORATION,,,,,,4901 S MONACO ST,,DENVER,CO,80237,USA,Assisted Living
USA-CO-72-AssistedLiving-72-AssistedLiving-145,BROOKDALE EL CAMINO,,,,,,,,,,,,  JANELLA SANDOVAL, (719)561-1400,, (719)561-1900,,Private, PROFIT-CORPORATION,,,PUEBLO COUNTY,,75,, (719)583-6123,,,,,,4723 SURFWOOD LANE,,PUEBLO,CO,81005,USA,Assisted Living
USA-CO-72-AssistedLiving-72-AssistedLiving-146,BROOKDALE FORT COLLINS AL (CO),,,,,,,,,,,, Mr GREGORY BROWN, (970)229-9777,, (970)223-3206,,Private, PROFIT-CORPORATION,,,LARIMER COUNTY,,80,, (303)862-3524,,,,,,1002 RULE DR,,FORT COLLINS,CO,80525,USA,Assisted Living
USA-CO-72-AssistedLiving-72-AssistedLiving-147,BROOKDALE FORT COLLINS MC (CO),,,,,,,,,,,, Mr GREGORY BROWN, (970)229-9777,, (970)223-3206,,Private,2,,,LARIMER COUNTY,,62,,PROFIT-CORPORATION,,,,,,1008 RULE DRIVE,,FORT COLLINS,CO,80525,USA,Assisted Living
USA-CO-72-AssistedLiving-72-AssistedLiving-148,BROOKDALE GREELEY,,,,,,,,,,,, Ms KERRIE HARDEN, (970)330-9500,, (970)330-7883,,Medicaid, PROFIT-CORPORATION,,,WELD COUNTY,,51,, (970)353-3800,,,,,,1999 38TH AVENUE,,GREELEY,CO,80634,USA,Assisted Living
USA-CO-72-AssistedLiving-72-AssistedLiving-149,BROOKDALE GREEN MOUNTAIN-ALR,,,,,,,,,,,, Ms JAYNA SULLIVAN, (303)237-5700,, (303)237-5850,,Private,0,,,JEFFERSON COUNTY,,131,,PROFIT-CORPORATION,,,,,,12791 W ALAMEDA PARKWAY,,LAKEWOOD,CO,80228,USA,Assisted Living
USA-CO-72-AssistedLiving-72-AssistedLiving-150,BROOKDALE GREENWOOD VILLAGE-ALR,,,,,,,,,,,, Ms STACEY LOVE, (303)224-9455,, (303)224-9475,,Private,5,,,ARAPAHOE COUNTY,,136,,PROFIT-CORPORATION,,,,,,6450 S BOSTON STREET,,GREENWOOD VILLAGE,CO,80111,USA,Assisted Living
USA-CO-72-AssistedLiving-72-AssistedLiving-151,BROOKDALE HIGHLANDS RANCH,,,,,,,,,,,, Ms RACHEL GONZALES, (303)683-2555,, (303)683-2552,,Private,1,,,DOUGLAS COUNTY,,81,,PROFIT-CORPORATION,,,,,,9160 S UNIVERSITY BLVD,,HIGHLANDS RANCH,CO,80126,USA,Assisted Living
USA-CO-72-AssistedLiving-72-AssistedLiving-152,BROOKDALE HIGHLINE-ALR,,,,,,,,,,,,  CLAIRE MCCAFFERTY, (303)283-0400,, (303)283-0401,,Medicaid, PROFIT-CORPORATION,,,ARAPAHOE COUNTY,,80,, (303)480-5624,,,,,,1640 S QUEBEC WAY,,DENVER,CO,80231,USA,Assisted Living
USA-CO-72-AssistedLiving-72-AssistedLiving-153,BROOKDALE LAKEWOOD,,,,,,,,,,,, Ms AKELA WILLIAMS, (303)969-7666,, (303)969-8080,,Private,0,,,JEFFERSON COUNTY,,142,,PROFIT-CORPORATION,,,,,,3151 S WADSWORTH BLVD,,LAKEWOOD,CO,80227,USA,Assisted Living
USA-CO-72-AssistedLiving-72-AssistedLiving-154,BROOKDALE LITTLETON,,,,,,,,,,,, Mr PATRICK RAAB, (303)948-0900,, (303)948-0291,,Private, PROFIT-CORPORATION,,,JEFFERSON COUNTY,,60,, (303)480-5624,,,,,,8271 S CONTINENTAL DIVIDE RD,,LITTLETON,CO,80127,USA,Assisted Living
USA-CO-72-AssistedLiving-72-AssistedLiving-155,BROOKDALE LONGMONT,,,,,,,,,,,, Ms DEEDRA MOATS, (303)682-1066,, (303)684-8086,,Private, PROFIT-CORPORATION,,,BOULDER COUNTY,,50,, (303)441-1173,,,,,,2240 PRATT ST,,LONGMONT,CO,80501,USA,Assisted Living
USA-CO-72-AssistedLiving-72-AssistedLiving-156,BROOKDALE LOWRY,,,,,,,,,,,, Mr CHRISTOPHER MILLER, (303)364-7149,, (303)365-1570,,Private,7,,,DENVER COUNTY,,172,,LIMITED LIABILITY,,,,,,150 QUEBEC STREET,,DENVER,CO,80230,USA,Assisted Living
USA-CO-72-AssistedLiving-72-AssistedLiving-157,BROOKDALE MARIANA BUTTE,,,,,,,,,,,, Ms LISA WALSTON, (970)622-0012,, (970)622-0018,,Private,2,,,LARIMER COUNTY,,105,,PROFIT-CORPORATION,,,,,,215 SHUPE CIRCLE,,LOVELAND,CO,80537,USA,Assisted Living
USA-CO-72-AssistedLiving-72-AssistedLiving-158,BROOKDALE MONUMENT VALLEY PARK,,,,,,,,,,,, Mr DOUGLAS HOWELL, (719)635-6300,, (719)635-6060,,Private,8,,,EL PASO COUNTY,,75,,LIMITED LIABILITY,,,,,,10 W MONUMENT ST,,COLORADO SPRINGS,CO,80903,USA,Assisted Living
USA-CO-72-AssistedLiving-72-AssistedLiving-159,BROOKDALE MOUNTAIN VIEW-ALR,,,,,,,,,,,, Mr GREGORY MORRIS, (303)337-4300,, (303)337-2997,,Private, LIMITED LIABILITY,,,ARAPAHOE COUNTY,,120,, (303)480-5624,,,,,,8101 E MISSISSIPPI AVENUE,,DENVER,CO,80247,USA,Assisted Living
USA-CO-72-AssistedLiving-72-AssistedLiving-160,BROOKDALE NORTH LOVELAND,,,,,,,,,,,,  ARCHIE RANDALL, (970)667-9500,, (970)667-4809,,Private, PROFIT-CORPORATION,,,LARIMER COUNTY,,54,, (303)862-3524,,,,,,2895 N EMPIRE AVE,,LOVELAND,CO,80538,USA,Assisted Living
USA-CO-72-AssistedLiving-72-AssistedLiving-161,BROOKDALE PALMER PARK-ALR,,,,,,,,,,,, Ms CARLA WILSON, (719)637-0877,, (719)638-0841,,Medicaid,6,,,EL PASO COUNTY,,76,,LIMITED LIABILITY,,,,,,2850 N ACADEMY BLVD,,COLORADO SPRINGS,CO,80917,USA,Assisted Living
USA-CO-72-AssistedLiving-72-AssistedLiving-162,BROOKDALE PARKPLACE,,,,,,,,,,,, Mr STEVEN AUSTIN, (303)744-0400,, (303)744-2118,,Private,3,,,DENVER COUNTY,,93,,PARTNERSHIP,,,,,,111 EMERSON ST,,DENVER,CO,80218,USA,Assisted Living
USA-CO-72-AssistedLiving-72-AssistedLiving-163,BROOKDALE PINEHURST PARK,,,,,,,,,,,, Ms CHERESE DAY, (303)738-8500,, (303)738-8600,,Private,6,,,DENVER COUNTY,,76,,LIMITED LIABILITY,,,,,,3790 W QUINCY AVE,,DENVER,CO,80236,USA,Assisted Living
USA-CO-72-AssistedLiving-72-AssistedLiving-164,BROOKDALE SKYLINE-ALR,,,,,,,,,,,, Mr GARRY PASBY (P), (719)667-5360,, (719)867-4689,,Private, LIMITED LIABILITY,,,EL PASO COUNTY,,124,, (719)471-7080,,,,,,2365 PATRIOT HEIGHTS,,COLORADO SPRINGS,CO,80904,USA,Assisted Living
USA-CO-72-AssistedLiving-72-AssistedLiving-165,BROOKDALE SUNRISE CREEK,,,,,,,,,,,, Ms VALEREE SEIFERD, (970)240-0600,, (970)249-6712,,Private,4,,,MONTROSE COUNTY,,107,,PROFIT-CORPORATION,,,,,,1968 SUNRISE DRIVE,,MONTROSE,CO,81401,USA,Assisted Living
USA-CO-72-AssistedLiving-72-AssistedLiving-166,BROOKDALE UNIVERSITY PARK,,,,,,,,,,,, Ms JULIE ZWERIN, (303)757-1404,, (303)758-3738,,Private, PROFIT-CORPORATION,,,DENVER COUNTY,,40,, (303)480-5624,,,,,,2020 S MONROE ST,,DENVER,CO,80210,USA,Assisted Living
USA-CO-72-AssistedLiving-72-AssistedLiving-167,BROOKDALE VISTA GRANDE,,,,,,,,,,,, Ms BRENDA GOEHL (P), (719)598-0400,, (719)598-0600,,Private, PROFIT-CORPORATION,,,EL PASO COUNTY,,78,, (719)471-7080,,,,,,2780 VICKERS DRIVE,,COLORADO SPRINGS,CO,80918,USA,Assisted Living
USA-CO-72-AssistedLiving-72-AssistedLiving-168,BROOKSIDE ASSISTED LIVING,,,,,,,,,,,, Mr JEFFREY PITUS, (719)632-6511,, (719)632-0726,,Medicaid, PROFIT-CORPORATION,,,EL PASO COUNTY,,62,, (719)471-7080,,,,,,225 W BROOKSIDE,,COLORADO SPRINGS,CO,80905,USA,Assisted Living
USA-CO-72-AssistedLiving-72-AssistedLiving-169,BROOKSIDE ASSISTED LIVING I,,,,,,,,,,,,,(719)632-6511,,,,,,,,,BROOKSIDE ASSISTED LIVING,,,,,,,,,225 W BROOKSIDE,,COLORADO SPRINGS,CO,80905,USA,Assisted Living
USA-CO-72-AssistedLiving-72-AssistedLiving-170,BROOKSIDE ASSISTED LIVING II,,,,,,,,,,,,,(719)632-6511,,,,,,,,,BROOKSIDE ASSISTED LIVING,,,,,,,,,225 W BROOKSIDE,,COLORADO SPRINGS,CO,80905,USA,Assisted Living
USA-CO-72-AssistedLiving-72-AssistedLiving-171,BROSS STREET ASSISTED LIVING,,,,,,,,,,,, Ms MICHELLE WILDERMAN, (303)682-5095,, (303)532-3273,,Private, LIMITED LIABILITY,,,BOULDER COUNTY,,11,, (303)441-1173,,,,,,537 BROSS ST,,LONGMONT,CO,80501,USA,Assisted Living
USA-CO-72-AssistedLiving-72-AssistedLiving-172,BUILDING A,,,,,,,,,,,,,,,,,,,,,,COMFORT CARE ASSISTED LIVING &amp; MEMORY CARE,,,,,,,,,442 - 1/2 SANDIA DRIVE,,GRAND JUNCTION,CO,81507,USA,Assisted Living
USA-CO-72-AssistedLiving-72-AssistedLiving-173,BUILDING B,,,,,,,,,,,,,,,,,,,,,,COMFORT CARE ASSISTED LIVING &amp; MEMORY CARE,,,,,,,,,442 SANDIA DRIVE,,GRAND JUNCTION,CO,81507,USA,Assisted Living
USA-CO-72-AssistedLiving-72-AssistedLiving-174,BUILDING C,,,,,,,,,,,,,,,,,,,,,,COMFORT CARE ASSISTED LIVING &amp; MEMORY CARE,,,,,,,,,445 SANDIA DRIVE,,GRAND JUNCTION,CO,81507,USA,Assisted Living
USA-CO-72-AssistedLiving-72-AssistedLiving-175,CALEY RIDGE ASSISTED LIVING COMMUNITY,,,,,,,,,,,, Ms DONNA AXMACHER, (303)721-8900,, (303)721-1009,,Medicaid, LIMITED LIABILITY,,,ARAPAHOE COUNTY,,106,, (303)480-5624,,,,,,9350 E CALEY AVE,,ENGLEWOOD,CO,80111,USA,Assisted Living
USA-CO-72-AssistedLiving-72-AssistedLiving-176,CANTERBURY GARDENS INDEPENDENT AND ASSISTED LIVING,,,,,,,,,,,, Ms HEIDI PEDERSEN, (303)341-1412,, (303)340-8195,,Medicaid, PROFIT-CORPORATION,,,ARAPAHOE COUNTY,,120,, (303)480-5624,,,,,,11265 EAST MISSISSIPPI AVE,,AURORA,CO,80012,USA,Assisted Living
USA-CO-72-AssistedLiving-72-AssistedLiving-177,CANTERBURY GARDENS INDEPENDENT AND ASSISTED LIVING,,,,,,,,,,,,,,,,,,,,,,CANTERBURY GARDENS INDEPENDENT AND ASSISTED LIVING,,,,,,,,,1001 SOUTH KINGSTON,,AURORA,CO,80012,USA,Assisted Living
USA-CO-72-AssistedLiving-72-AssistedLiving-178,CANTERBURY GARDENS INDEPENDENT AND ASSISTED LIVING,,,,,,,,,,,,,,,,,,,,,,CANTERBURY GARDENS INDEPENDENT AND ASSISTED LIVING,,,,,,,,,11265 E MISSISSIPPI AVENUE,,AURORA,CO,80012,USA,Assisted Living
USA-CO-72-AssistedLiving-72-AssistedLiving-179,CANTRIL HOUSE ASSISTED LIVING,,,,,,,,,,,, Mr DENNIS SCOTT, (303)688-8186,, (303)660-2269,,Medicaid, CORPORATE NON-PROFIT,,,DOUGLAS COUNTY,,16,, (303)480-5624,,,,,,221 CANTRIL ST,,CASTLE ROCK,CO,80104,USA,Assisted Living
USA-CO-72-AssistedLiving-72-AssistedLiving-180,CANYON (C),,,,,,,,,,,,,(303)111-1111,,,,,,,,,NEW DAWN MEMORY CARE-COLORADO SPRINGS,,,,,,,,,4185 BRIARGATE PARKWAY,,COLORADO SPRINGS,CO,80920,USA,Assisted Living
USA-CO-72-AssistedLiving-72-AssistedLiving-181,CARDAN MANOR ASSISTED LIVING,,,,,,,,,,,, Mrs CAROLE ABAM, (303)596-1265,, (303)680-4549,,Private, LIMITED LIABILITY,,,ARAPAHOE COUNTY,,5,, (303)480-5624, CARDAN MANOR ASSISTED LIVING,21991 EAST RIDGE TRAIL CIRCLE,AURORA,CO,80016,16651 EAST NAVARRO DRIVE,,AURORA,CO,80013,USA,Assisted Living
USA-CO-72-AssistedLiving-72-AssistedLiving-182,CARDAN MANOR ASSISTED LIVING II,,,,,,,,,,,, Mrs CAROLE ABAM, (720)524-7192,, (303)680-4549,,Private, PROFIT-CORPORATION,,,ARAPAHOE COUNTY,,7,, (303)480-5624, CARDAN MANOR ASSISTED LIVING II,21991 EAST RIDGE TRAIL CIRCLE,AURORA,CO,80016,2895 SOUTH KILLARNEY WAY,,AURORA,CO,80013,USA,Assisted Living
USA-CO-72-AssistedLiving-72-AssistedLiving-183,CARE GROUP AT ARVADA CENTER,,,,,,,,,,,, Ms AMELIA COLLIER, (303)431-6575,, (303)431-7440,,Medicaid, LIMITED LIABILITY,,,JEFFERSON COUNTY,,8,, (303)480-5624, CARE GROUP AT ARVADA CENTER,7319 CARR STREET,ARVADA,CO,80005,7465 W 69TH PL,,ARVADA,CO,80003,USA,Assisted Living
USA-CO-72-AssistedLiving-72-AssistedLiving-184,CARE GROUP OF NORTHGLENN LLC,,,,,,,,,,,, Mr ROOSEVELT COLLIER JR, (720)398-8886,, (303)650-2514,,Medicaid, LIMITED LIABILITY,,,ADAMS COUNTY,,12,, (303)480-5624, CARE GROUP OF NORTHGLENN LLC,7319 CARR ST,ARVADA,CO,80005,9777 FRED DRIVE,,NORTHGLENN,CO,80260,USA,Assisted Living
USA-CO-72-AssistedLiving-72-AssistedLiving-185,CARE HAVEN ASSISTED LIVING INC,,,,,,,,,,,, Mr ADAM MALACHI, (303)210-1761,, (303)745-1586,,Private, PROFIT-CORPORATION,,,JEFFERSON COUNTY,,8,, (303)480-5624,,,,,,632 DEFRAME COURT,,GOLDEN,CO,80401,USA,Assisted Living
USA-CO-72-AssistedLiving-72-AssistedLiving-186,CARELINK ASSISTED LIVING,,,,,,,,,,,, Ms CAROLYN COLLEEN OMITERU, (303)797-9110,, (720)204-2652,,Medicaid, LIMITED LIABILITY,,,ARAPAHOE COUNTY,,12,, (303)480-5624, CARELINK ASSISTED LIVING,P O BOX 631053,HIGHLANDS RANCH,CO,80163,2602 E WEAVER AVENUE,,CENTENNIAL,CO,80121,USA,Assisted Living
USA-CO-72-AssistedLiving-72-AssistedLiving-187,"CARILLON AT BOULDER CREEK ASSISTED LIVING, THE",,,,,,,,,,,, Ms TRUDY STEPHENS, (720)565-6844,, (720)565-6845,,Private, LIMITED LIABILITY,,,BOULDER COUNTY,,135,, (303)441-1173,,,,,,2525 TAFT DRIVE,,BOULDER,CO,80302,USA,Assisted Living
USA-CO-72-AssistedLiving-72-AssistedLiving-188,"CARING HEARTS, INC",,,,,,,,,,,,  TEFERI BERHANE, (303)421-7368,, (303)421-7368,,Medicaid, PROFIT-CORPORATION,,,JEFFERSON COUNTY,,8,, (303)480-5624,,,,,,7465 W 48TH AVE,,WHEAT RIDGE,CO,80033,USA,Assisted Living
USA-CO-72-AssistedLiving-72-AssistedLiving-189,CARLAS CLUSTER CARE INC,,,,,,,,,,,, Ms CARANEL CROUSE, (719)775-9412,, (719)775-9426,,Medicaid, PROFIT-CORPORATION,,,LINCOLN COUNTY,,30,, (719)348-5562, CARLAS CLUSTER CARE INC,PO BOX 39,LIMON,CO,80828,2050 6TH ST,,LIMON,CO,80828,USA,Assisted Living
USA-CO-72-AssistedLiving-72-AssistedLiving-190,CARLA'S CLUSTER CARE NE CAMPUS,,,,,,,,,,,, Ms CARANEL CROUSE, (719)775-9412,, (719)775-9426,,Medicaid,,,,LINCOLN COUNTY,,22,,PROFIT-CORPORATION,,,,,,1750 CIRCLE LANE,,LIMON,CO,80828,USA,Assisted Living
USA-CO-72-AssistedLiving-72-AssistedLiving-191,CARRIAGE HOUSE ASSISTED LIVING,,,,,,,,,,,, Ms JULIE KOTCH, (970)854-5180,, (970)854-2610,,Medicaid, PARTNERSHIP,,,PHILLIPS COUNTY,,32,, (970)867-9409,,,,,,816 S INTEROCEAN AVE,,HOLYOKE,CO,80734,USA,Assisted Living
USA-CO-72-AssistedLiving-72-AssistedLiving-192,CASEY'S POND SENIOR LIVING,,,,,,,,,,,, Mr BRADLEE KEITH BOATRIGHT, (970)879-8855,, (970)879-8852,,Private,0,,,ROUTT COUNTY,,114,,CORPORATE NON-PROFIT,,,,,,2855 OWL HOOT TRAIL,,STEAMBOAT SPRINGS,CO,80487,USA,Assisted Living
USA-CO-72-AssistedLiving-72-AssistedLiving-193,CASTLE PEAK ASSISTED LIVING,,,,,,,,,,,, Mr DANIEL SHIELDS, (970)989-2500,, (612)800-5423,,Private, LIMITED LIABILITY,,,EAGLE COUNTY,,30,, (970)468-0295, CASTLE PEAK SENIOR CARE LLC,P.O. BOX 5980,EAGLE,CO,81631,135 FREESTONE ROAD,,EAGLE,CO,81631,USA,Assisted Living
USA-CO-72-AssistedLiving-72-AssistedLiving-194,CASTLE ROCK ASSISTED LIVING 1,,,,,,,,,,,, Ms GINA SEPULVEDA, (303)660-3827,, (303)663-0864,,Medicaid, LIMITED LIABILITY,,,DOUGLAS COUNTY,,9,, (303)480-5624,,,,,,1640 WILD RYE COURT,,CASTLE ROCK,CO,80109,USA,Assisted Living
USA-CO-72-AssistedLiving-72-AssistedLiving-195,CASTLE ROCK ASSISTED LIVING II,,,,,,,,,,,, Ms GINA SEPULVEDA, (303)663-0853,, (720)379-7311,,Medicaid, PROFIT-CORPORATION,,,DOUGLAS COUNTY,,13,, (303)480-5624,,,,,,1768 ROSE PETAL LANE,,CASTLE ROCK,CO,80109,USA,Assisted Living
USA-CO-72-AssistedLiving-72-AssistedLiving-196,CASTLE ROCK ASSISTED LIVING III,,,,,,,,,,,, Ms GINA SEPULVEDA, (303)815-9347,, (303)663-0864,,Medicaid, LIMITED LIABILITY,,,DOUGLAS COUNTY,,9,, (303)480-5624,,,,,,2473 WOODHOUSE LANE,,CASTLE ROCK,CO,80109,USA,Assisted Living
USA-CO-72-AssistedLiving-72-AssistedLiving-197,CATHARINE'S QUALITY OF LIFE HOMES  II,,,,,,,,,,,,  MARISA DURAN (OLSON), (303)988-0427,, (303)987-1120,,Private,,,,JEFFERSON COUNTY,,9,,CORPORATE NON-PROFIT,,,,,,3225 S REED COURT,,LAKEWOOD,CO,80227,USA,Assisted Living
USA-CO-72-AssistedLiving-72-AssistedLiving-198,CATHARINE'S QUALITY OF LIFE HOMES  III,,,,,,,,,,,,  MARISA DURAN (OLSON), (303)989-2624,, (303)987-1120,,Private,,,,JEFFERSON COUNTY,,9,,CORPORATE NON-PROFIT,,,,,,9232 WEST TEXAS DRIVE,,LAKEWOOD,CO,80232,USA,Assisted Living
USA-CO-72-AssistedLiving-72-AssistedLiving-199,CATHARINE'S QUALITY OF LIFE HOMES 4,,,,,,,,,,,, Ms MARISA OLSON, (303)233-2330,, (303)987-1120,,Medicaid,,,,JEFFERSON COUNTY,,9,,CORPORATE NON-PROFIT,,,,,,1975 OWENS CT,,LAKEWOOD,CO,80215,USA,Assisted Living
USA-CO-72-AssistedLiving-72-AssistedLiving-200,CATHARINE'S QUALITY OF LIFE HOMES 5,,,,,,,,,,,,  MARISA DURAN (OLSON), (303)948-4901,, (303)987-1120,,Medicaid,,,,JEFFERSON COUNTY,,8,,CORPORATE NON-PROFIT,,,,,,8217 W PEAKVIEW DRIVE,,LITTLETON,CO,80123,USA,Assisted Living
USA-CO-72-AssistedLiving-72-AssistedLiving-201,C-C BOARDING HOME,,,,,,,,,,,, Mr RAMON CASTILLO, (719)635-7159,, (719)392-5723,,Medicaid, CORPORATE NON-PROFIT,,,EL PASO COUNTY,,14,, (719)471-7080,,,,,,412 S HANCOCK,,COLORADO SPRINGS,CO,80903,USA,Assisted Living
USA-CO-72-AssistedLiving-72-AssistedLiving-202,CHARLESTON ASSISTED LIVING AT IRONWOOD,,,,,,,,,,,, Dr ELAINE SHIRAR, (720)355-0540,, (303)604-6183,,Private,,,,BOULDER COUNTY,,8,,LIMITED LIABILITY,,,,,,2866 IRONWOOD CIRCLE,,ERIE,CO,80516,USA,Assisted Living
USA-CO-72-AssistedLiving-72-AssistedLiving-203,CHATEAU AT RIFLE,,,,,,,,,,,, Ms JACQUELINE MURR, (970)625-4343,, (970)625-1538,,Medicaid, PROFIT-CORPORATION,,,GARFIELD COUNTY,,32,, (970)248-2717,,,,,,375 W 24TH ST,,RIFLE,CO,81650,USA,Assisted Living
USA-CO-72-AssistedLiving-72-AssistedLiving-204,CHATEAU AT SHARMAR ASSISTED LIVING,,,,,,,,,,,, Ms DELAINE CROW, (719)544-1173,, (719)546-1501,,Private,6,,,PUEBLO COUNTY,,87,,PROFIT-CORPORATION,,,,,,1201 W ABRIENDO AVE,,PUEBLO,CO,81004,USA,Assisted Living
USA-CO-72-AssistedLiving-72-AssistedLiving-205,CHATEAU DES MONS CARE AND ASSISTED LIVING,,,,,,,,,,,, Ms JESSICA TRUJILLO, (303)781-5865,, (303)781-1980,,Medicaid,8,,,ARAPAHOE COUNTY,,48,,PROFIT-CORPORATION,,,,,,3426 S MARION STREET,,ENGLEWOOD,CO,80113,USA,Assisted Living
USA-CO-72-AssistedLiving-72-AssistedLiving-206,CHELSEA PLACE,,,,,,,,,,,, Mr DAVID HOPPE, (303)929-3709,, (303)703-3498,,Private,4,,,ARAPAHOE COUNTY,,64,,PROFIT-CORPORATION,,,,,,14055 E QUINCY AVENUE,,AURORA,CO,80015,USA,Assisted Living
USA-CO-72-AssistedLiving-72-AssistedLiving-207,CHERRY CREEK RETIREMENT VILLAGE,,,,,,,,,,,, Ms TELIA WENDELL, (303)693-0200,, (303)693-2540,,Private, LIMITED LIABILITY,,,ARAPAHOE COUNTY,,30,, (303)480-5624,,,,,,14555 E HAMPDEN AVENUE,,AURORA,CO,80014,USA,Assisted Living
USA-CO-72-AssistedLiving-72-AssistedLiving-208,CHERRY HILLS ASSISTED LIVING AND MEMORY CARE,,,,,,,,,,,, Ms MELIA SHARKEY, (720)398-5692,, (720)377-9634,,Private,0,,,ARAPAHOE COUNTY,,94,,LIMITED LIABILITY,,,,,,6325 SOUTH UNIVERSITY BOULEVARD,,CENTENNIAL,CO,80121,USA,Assisted Living
USA-CO-72-AssistedLiving-72-AssistedLiving-209,CHOICE HOUSE RTF,,,,,,,,,,,, Ms STEPHANIE MADSEN-PIXLER, (970)494-4341,, (970)493-9889,,-, CORPORATE NON-PROFIT,,,LARIMER COUNTY,,8,, (303)862-3524, SUMMITSTONE HEALTH PARTNERS,"2001 S SHIELDS, BUILDING G",FORT COLLINS,CO,80526,214 S WHITCOMB,,FORT COLLINS,CO,80521,USA,Assisted Living
USA-CO-72-AssistedLiving-72-AssistedLiving-210,CHRISTIAN ASSISTED LIVING HOMES LLC,,,,,,,,,,,, Mr STEVEN TORRES, (303)699-6693,, (303)693-7693,,Medicaid, LIMITED LIABILITY,,,ARAPAHOE COUNTY,,8,, (303)480-5624,,,,,,22247 E HINSDALE AVENUE,,AURORA,CO,80016,USA,Assisted Living
USA-CO-72-AssistedLiving-72-AssistedLiving-211,CINNAMON PARK,,,,,,,,,,,, MS DEBORAH SETLOCK, (303)772-2882,, (303)772-8318,,Medicaid, PROFIT-CORPORATION,,,BOULDER COUNTY,,48,, (303)441-1173,,,,,,1335 CINNAMON STREET,,LONGMONT,CO,80501,USA,Assisted Living
USA-CO-72-AssistedLiving-72-AssistedLiving-212,CINNAMON PARK I,,,,,,,,,,,,,(303)595-4464,,,,,,,,,CINNAMON PARK,,,,,,,,,1335 CINNAMON STREET,,LONGMONT,CO,80501,USA,Assisted Living
USA-CO-72-AssistedLiving-72-AssistedLiving-213,CINNAMON PARK II,,,,,,,,,,,,,(303)595-4464,,,,,,,,,CINNAMON PARK,,,,,,,,,1335 CINNAMON STREET,,LONGMONT,CO,80501,USA,Assisted Living
USA-CO-72-AssistedLiving-72-AssistedLiving-214,"CITADEL ALZHEIMERS-DEMENTIA ASSISTED LIVING, THE",,,,,,,,,,,,  CHERY LUCERO, (719)248-8523,, (719)404-4158,,Medicaid, PROFIT-CORPORATION,,,PUEBLO COUNTY,,40,, (719)583-6123,,,,,,431 QUINCY AVE,,PUEBLO,CO,81004,USA,Assisted Living
USA-CO-72-AssistedLiving-72-AssistedLiving-215,CLERMONT ASSISTED LIVING LLC,,,,,,,,,,,, Mr WILLIAM HENSEN, (303)862-5602,, (303)221-1565,,Medicaid, LIMITED LIABILITY,,,ARAPAHOE COUNTY,,12,, (303)480-5624, HC 2013 LLC,6563 S CLERMONT COURT,CENTENNIAL ,CO,80121,6563 S CLERMONT COURT,,CENTENNIAL,CO,80121,USA,Assisted Living
USA-CO-72-AssistedLiving-72-AssistedLiving-216,CLERMONT PARK ASSISTED LIVING,,,,,,,,,,,,  VALERIE GILCHRIST, (720)974-7275,, (303)758-3829,,Private, CORPORATE NON-PROFIT,,,DENVER COUNTY,,40,, (303)480-5624,,,,,,2479 S CLERMONT STREET,,DENVER,CO,80222,USA,Assisted Living
USA-CO-72-AssistedLiving-72-AssistedLiving-217,CLIFFVIEW ASSISTED LIVING CENTER,,,,,,,,,,,, Mr JEFF PEXTON, (970)724-3530,, (970)724-3813,,Medicaid, CORPORATE NON-PROFIT,,,GRAND COUNTY,,28,, (970)468-0295, SENIOR HOUSING OPTIONS,1510 17TH ST,DENVER,CO,80202,710 EAGLE AVENUE,,KREMMLING,CO,80459,USA,Assisted Living
USA-CO-72-AssistedLiving-72-AssistedLiving-218,COLLINWOOD ASSISTED LIVING,,,,,,,,,,,, Ms KRISTEN JACOBY, (970)223-3552,, (970)223-2360,,Medicaid,0,,,LARIMER COUNTY,,107,,CORPORATE NON-PROFIT,,,,,,5055 S LEMAY AVE,,FORT COLLINS,CO,80525,USA,Assisted Living
USA-CO-72-AssistedLiving-72-AssistedLiving-219,COLORADO ASSISTED LIVING HOMES - BRANDT,,,,,,,,,,,, Ms TAMMY LITTLEFIELD, (303)948-4873,, (720)981-0233,,Medicaid, LIMITED LIABILITY,,,JEFFERSON COUNTY,,8,, (303)480-5624, COLORADO ASSISTED LIVING - BRANDT,6638 W OTTAWA AVENUE SUITE 220-1,LITTLETON,CO,80128,11965 W BRANDT PL,,LITTLETON,CO,80127,USA,Assisted Living
USA-CO-72-AssistedLiving-72-AssistedLiving-220,COLORADO ASSISTED LIVING HOMES LLC - INGALLS,,,,,,,,,,,, Ms TAMMY LITTLEFIELD, (303)979-0217,, (720)981-0233,,Medicaid, PROFIT-CORPORATION,,,JEFFERSON COUNTY,,8,, (303)480-5624, COLORADO ASSISTED LIVING HOMES - INGALLS,6638 W OTTAWA AVENUE SUITE 220-1,LITTLETON,CO,80128,7168 S INGALLS WAY,,LITTLETON,CO,80128,USA,Assisted Living
USA-CO-72-AssistedLiving-72-AssistedLiving-221,COLORADO ASSISTED LIVING HOMES LLC - KENDALL,,,,,,,,,,,, Ms MICHELLE SIMONAITIS, (303)932-2289,, (720)981-0233,,Private, PROFIT-CORPORATION,,,JEFFERSON COUNTY,,7,, (303)480-5624, COLORADO ASSISTED LIVING HOMES LLC - KENDALL,6638 W OTTAWA AVENUE #150-1,LITTLETON,CO,80128,7456 S KENDALL BLVD,,LITTLETON,CO,80128,USA,Assisted Living
USA-CO-72-AssistedLiving-72-AssistedLiving-222,COLORADO ASSISTED LIVING HOMES LLC HOUSE 7,,,,,,,,,,,, Ms TAMMY LITTLEFIELD, (303)948-1628,, (720)981-0233,,Medicaid, LIMITED LIABILITY,,,JEFFERSON COUNTY,,7,, (303)480-5624, COLORADO ASSISTED LIVING HOMES LLC HOUSE 7,6638 W OTTAWA AVENUE SUITE 220-1,LITTLETON,CO,80128,5984 W ROWLAND PL,,LITTLETON,CO,80128,USA,Assisted Living
USA-CO-72-AssistedLiving-72-AssistedLiving-223,COLORADO ASSISTED LIVING HOMES LLC-INDORE,,,,,,,,,,,, Ms MICHELLE SIMONAITIS, (303)933-3553,, (303)948-0570,,Private, LIMITED LIABILITY,,,JEFFERSON COUNTY,,8,, (303)480-5624, COLORADO ASSISTED LIVING HOMES LLC-INDORE,6638 W OTTAWA AVENUE #150-1,LITTLETON,CO,80128,5596 W INDORE DRIVE,,LITTLETON,CO,80128,USA,Assisted Living
USA-CO-72-AssistedLiving-72-AssistedLiving-224,COLORADO ASSISTED LIVING HOMES LLC-LAMAR,,,,,,,,,,,, Mr JAMES PALIN, (303)904-2506,, (720)981-0233,,Medicaid, LIMITED LIABILITY,,,JEFFERSON COUNTY,,6,, (303)480-5624, COLORADO ASST LIVING LLC-LAMAR,6638 W OTTAWA AVENUE SUITE 220-1,LITTLETON,CO,80128,6952 S LAMAR STREET,,LITTLETON,CO,80128,USA,Assisted Living
USA-CO-72-AssistedLiving-72-AssistedLiving-225,COLORADO ASSISTED LIVING HOMES LLC-NORMANDY,,,,,,,,,,,, Ms MICHELLE SIMONAITIS, (303)973-4309,, (720)981-0233,,Private, LIMITED LIABILITY,,,ARAPAHOE COUNTY,,8,, (303)480-5624, COLORADO ASSISTED LIVING HOMES LLC-NORMANDY,"6638 W OTTAWA AVE, STE 150-1",LITTLETON,CO,80128,4961 W ROWLAND AVENUE,,LITTLETON,CO,80128,USA,Assisted Living
USA-CO-72-AssistedLiving-72-AssistedLiving-226,COLORADO ASSISTED LIVING HOMES LLC-ROWLAND,,,,,,,,,,,, Ms MICHELLE SIMONAITIS, (303)324-0834,, (303)948-0570,,Private, LIMITED LIABILITY,,,JEFFERSON COUNTY,,8,, (303)480-5624," COLORADO ASSISTED LIVING HOMES, LLC",6638 W OTTAWA AVENUE  SUITE 150-1,LITTLETON,CO,80128,5424 W ROWLAND PL,,LITTLETON,CO,80128,USA,Assisted Living
USA-CO-72-AssistedLiving-72-AssistedLiving-227,COLORADO ASSISTED LIVING HOMES-CODY,,,,,,,,,,,, Ms MICHELLE SIMONAITIS, (303)979-6472,, (720)981-0233,,Private, LIMITED LIABILITY,,,JEFFERSON COUNTY,,8,, (303)480-5624, COLORADO ASSISTED LIVING HOMES-CODY,6638 W OTTAWA AVENUE  SUITE 150-1,LITTLETON,CO,80128,8295 S CODY STREET,,LITTLETON,CO,80128,USA,Assisted Living
USA-CO-72-AssistedLiving-72-AssistedLiving-228,COLORADO ASSISTED LIVING HOMES-PANAMA,,,,,,,,,,,, Mr JAMES PALIN, (303)798-0695,, (720)981-0233,,Medicaid, LIMITED LIABILITY,,,ARAPAHOE COUNTY,,8,, (303)480-5624, COLORADO ASSISTED LIVING HOMES-PANAMA,6638 W OTTAWA AVENUE SUITE 220-1,LITTLETON,CO,80128,1051 E PANAMA DRIVE,,CENTENNIAL,CO,80121,USA,Assisted Living
USA-CO-72-AssistedLiving-72-AssistedLiving-229,COLORADO CAREASSIST CASCADE HOME,,,,,,,,,,,, Ms BONNIE HART, (719)351-3573,, (719)623-0282,,Private, LIMITED LIABILITY,,,EL PASO COUNTY,,8,, (719)471-7080,,,,,,2509 N CASCADE AVE,,COLORADO SPRINGS,CO,80907,USA,Assisted Living
USA-CO-72-AssistedLiving-72-AssistedLiving-230,COLORADO SPRINGS SENIOR HOMES INC (1),,,,,,,,,,,,,(719)636-2731,,,,,,,,,"COLORADO SPRINGS SENIOR HOMES, INC",,,,,,,,,3106 N PROSPECT,,COLORADO SPRINGS,CO,80907,USA,Assisted Living
USA-CO-72-AssistedLiving-72-AssistedLiving-231,COLORADO SPRINGS SENIOR HOMES INC (2),,,,,,,,,,,,,(719)636-2731,,,,,,,,,"COLORADO SPRINGS SENIOR HOMES, INC",,,,,,,,,3108 N PROSPECT,,COLORADO SPRINGS,CO,80907,USA,Assisted Living
USA-CO-72-AssistedLiving-72-AssistedLiving-232,COLORADO SPRINGS SENIOR HOMES INC (3),,,,,,,,,,,,,(719)636-2731,,,,,,,,,"COLORADO SPRINGS SENIOR HOMES, INC",,,,,,,,,3104 N PROSPECT,,COLORADO SPRINGS,CO,80907,USA,Assisted Living
USA-CO-72-AssistedLiving-72-AssistedLiving-233,COLORADO SPRINGS SENIOR HOMES INC (4),,,,,,,,,,,,,(719)636-2731,,,,,,,,,"COLORADO SPRINGS SENIOR HOMES, INC",,,,,,,,,3102 N PROSPECT,,COLORADO SPRINGS,CO,80907,USA,Assisted Living
USA-CO-72-AssistedLiving-72-AssistedLiving-234,"COLORADO SPRINGS SENIOR HOMES, INC",,,,,,,,,,,, Ms LINDA RODENBECK, (719)636-2731,, (719)636-2010,,Medicaid, LIMITED LIABILITY,,,EL PASO COUNTY,,36,, (719)471-7080,,,,,,3106 N PROSPECT STREET,,COLORADO SPRINGS,CO,80907,USA,Assisted Living
USA-CO-72-AssistedLiving-72-AssistedLiving-235,COLUMBINE CHATEAU ASSISTED LIVING,,,,,,,,,,,, Ms KANISHA MOORE, (719)566-1185,, (719)404-4158,,Medicaid, LIMITED LIABILITY,,,PUEBLO COUNTY,,24,, (719)583-6123,,,,,,720 E SPRINGMONT DRIVE,,PUEBLO WEST,CO,81007,USA,Assisted Living
USA-CO-72-AssistedLiving-72-AssistedLiving-236,COLUMBINE CHATEAU ASSISTED LIVING,,,,,,,,,,,,,,,,,,,,,,COLUMBINE CHATEAU ASSISTED LIVING,,,,,,,,,720 E SPRINGMONT DRIVE,,PUEBLO,CO,81007,USA,Assisted Living
USA-CO-72-AssistedLiving-72-AssistedLiving-237,COLUMBINE CHATEAU ASSISTED LIVING,,,,,,,,,,,,,,,,,,,,,,COLUMBINE CHATEAU ASSISTED LIVING,,,,,,,,,728 E SPRINGMONT DRIVE,,PUEBLO,CO,81007,USA,Assisted Living
USA-CO-72-AssistedLiving-72-AssistedLiving-238,COLUMBINE COMMONS ASSISTED LIVING,,,,,,,,,,,, Mr PALMER WITHROW, (970)449-5540,, (970)460-5247,,Private, PROFIT-CORPORATION,,,WELD COUNTY,,65,, (970)353-3800,,,,,,1475 MAIN ST,,WINDSOR,CO,80550,USA,Assisted Living
USA-CO-72-AssistedLiving-72-AssistedLiving-239,COLUMBINE HOUSE,,,,,,,,,,,,  VALERIE TORRES, (719)597-1402,, (719)447-9162,,Medicaid, CORPORATE NON-PROFIT,,,EL PASO COUNTY,,8,, (719)471-7080, ROCKY MOUNTAIN HEALTHCARE SERVICES,310 S 14TH ST,COLORADO SPRINGS,CO,80904,5523 S BUCKSKIN PASS DR,,COLORADO SPRINGS,CO,80917,USA,Assisted Living
USA-CO-72-AssistedLiving-72-AssistedLiving-240,COMFORT CARE ASSISTED LIVING &amp; MEMORY CARE,,,,,,,,,,,, Ms JILL ORSBURN, (970)243-4682,, (970)241-2976,,Medicaid, PROFIT-CORPORATION,,,MESA COUNTY,,35,, (970)248-2717,,,,,,445 SANDIA DR,,GRAND JUNCTION,CO,81507,USA,Assisted Living
USA-CO-72-AssistedLiving-72-AssistedLiving-241,COMFORT CARE-ALZHEIMERS,,,,,,,,,,,, Ms JILL ORSBURN, (970)242-1967,, (970)241-2976,,Medicaid,,,,MESA COUNTY,,8,,PROFIT-CORPORATION,,,,,,807 TAHITI,,GRAND JUNCTION,CO,81506,USA,Assisted Living
USA-CO-72-AssistedLiving-72-AssistedLiving-242,"COMMONS OF HILLTOP, THE",,,,,,,,,,,, Ms CATHY STORY, (970)243-3333,, (970)254-2922,,Medicaid,4,,,MESA COUNTY,,185,,CORPORATE NON-PROFIT,,,,,,625 27 1/2 ROAD,,GRAND JUNCTION,CO,81506,USA,Assisted Living
USA-CO-72-AssistedLiving-72-AssistedLiving-243,CONSTANT CARE OF COLORADO SPRINGS II,,,,,,,,,,,, Mr JEFFREY REYNOLDS, (719)576-1193,, (719)576-1193,,Medicaid, PROFIT-CORPORATION,,,EL PASO COUNTY,,8,, (719)471-7080, CONSTANT CARE OF COLORADO SPRINGS,2540 CARDIGAN DRIVE,COLORADO SPRINGS,CO,80920,8320 SUTTERFIELD DR,,COLORADO SPRINGS,CO,80920,USA,Assisted Living
USA-CO-72-AssistedLiving-72-AssistedLiving-244,CONSTANT CARE OF COLORADO SPRINGS INC,,,,,,,,,,,, Mr JEFFREY REYNOLDS, (719)660-6826,, (719)590-4997,,Private, PROFIT-CORPORATION,,,EL PASO COUNTY,,8,, (719)471-7080, CONSTANT CARE OF COLORADO SPRINGS INC,2540 CARDIGAN DR,COLORADO SPRINGS,CO,80920,11 WESTMARK AVE,,COLORADO SPRINGS,CO,80906,USA,Assisted Living
USA-CO-72-AssistedLiving-72-AssistedLiving-245,CONTINUING CARE AT WIND CREST,,,,,,,,,,,, Mr ADAM DICKSON, (303)876-8300,, (303)876-8222,,Private,6,,,DOUGLAS COUNTY,,108,,CORPORATE NON-PROFIT,,,,,,3420 MILL VISTA ROAD,,HIGHLANDS RANCH,CO,80129,USA,Assisted Living
USA-CO-72-AssistedLiving-72-AssistedLiving-246,COTTONWOOD RIDGE,,,,,,,,,,,, Ms SHAYLA VANDYK, (719)254-3667,, (719)254-3825,,Medicaid, CORPORATE NON-PROFIT,,,OTERO COUNTY,,32,, (719)383-3167,,,,,,1122 SOUTH 12TH ST,,ROCKY FORD,CO,81067,USA,Assisted Living
USA-CO-72-AssistedLiving-72-AssistedLiving-247,"COUNTRY CLUB ASSISTED LIVING, INC",,,,,,,,,,,, Mr FRANCK MARTIN, (719)329-1200,, (719)329-1203,,Private, LIMITED LIABILITY,,,EL PASO COUNTY,,8,, (719)471-7080,,,,,,3205 LESLIE DRIVE,,COLORADO SPRINGS,CO,80909,USA,Assisted Living
USA-CO-72-AssistedLiving-72-AssistedLiving-248,COUNTRY HOME,,,,,,,,,,,, MS LINDA MELBARDIS, (303)840-1986,, (303)805-9380,,Medicaid, LIMITED LIABILITY,,,ELBERT COUNTY,,8,, (719)348-5562,,,,,,1425 DEBBI CIRCLE,,PARKER,CO,80138,USA,Assisted Living
USA-CO-72-AssistedLiving-72-AssistedLiving-249,"COURTYARD OF LOVELAND, THE",,,,,,,,,,,, Ms JEAN MENDEZ, (970)667-3342,, (970)667-3079,,Medicaid, LIMITED PARTNERSHIP,,,LARIMER COUNTY,,40,, (303)862-3524,,,,,,605 CALIFORNIA AVE,,LOVELAND,CO,80537,USA,Assisted Living
USA-CO-72-AssistedLiving-72-AssistedLiving-250,COVENANT VILLAGE ASSISTED LIVING,,,,,,,,,,,, Ms DEB GARROD, (303)515-6370,, (303)456-4016,,Private, CORPORATE NON-PROFIT,,,JEFFERSON COUNTY,,60,, (303)480-5624,,,,,,9221 WADSWORTH PARKWAY,,WESTMINSTER,CO,80021,USA,Assisted Living
USA-CO-72-AssistedLiving-72-AssistedLiving-251,CREEKSIDE ASSISTED LIVING LLC,,,,,,,,,,,, Ms GYLA STARK, (970)945-5155,, (970)945-5155,,Medicaid, LIMITED LIABILITY,,,GARFIELD COUNTY,,12,, (970)248-2717,,,,,,3490 COUNTY ROAD 117,,GLENWOOD SPRINGS,CO,81601,USA,Assisted Living
USA-CO-72-AssistedLiving-72-AssistedLiving-252,"CRESCENT HOME ADULT CARE FACILITY, INC",,,,,,,,,,,, MS NANCY SAIZ, (719)634-2237,, (719)634-2471,,Medicaid, CORPORATE NON-PROFIT,,,EL PASO COUNTY,,20,, (719)471-7080,,,,,,812 W COLORADO AVENUE,,COLORADO SPRINGS,CO,80905,USA,Assisted Living
USA-CO-72-AssistedLiving-72-AssistedLiving-253,CREST RIDGE MEMORY CARE,,,,,,,,,,,, Ms CHELSEA HOFFMAN, (970)985-4122,, (970)985-4123,,Medicaid, LIMITED LIABILITY,,,MESA COUNTY,,8,, (970)248-2717, CREST RIDGE MEMORY CARE,585 25-1/2 ROAD #20,GRAND JUNCTION,CO,81505,972 WALNUT AVE,,GRAND JUNCTION,CO,81501,USA,Assisted Living
USA-CO-72-AssistedLiving-72-AssistedLiving-254,CRESTONE PLACE ASSISTED LIVING,,,,,,,,,,,, Ms AMELIA FAN, (303)427-1386,, (303)650-8413,,Medicaid, CORPORATE NON-PROFIT,,,ADAMS COUNTY,,12,, (303)480-5624, COMMUNITY REACH CENTER,8931 HURON STREET,THORNTON,CO,80260,621 W 96TH AVE,,THORNTON,CO,80260,USA,Assisted Living
USA-CO-72-AssistedLiving-72-AssistedLiving-255,CROSSROADS AT DELTA ALF,,,,,,,,,,,, Ms DIANE OBERMEYER, (970)874-1421,, (970)874-8018,,Medicaid, CORPORATE NON-PROFIT,,,DELTA COUNTY,,49,, (970)241-6371,,,,,,1380 ASPEN WAY,,DELTA,CO,81416,USA,Assisted Living
USA-CO-72-AssistedLiving-72-AssistedLiving-256,CROSSROADS AT DELTA MEMORY,,,,,,,,,,,, Ms DIANE OBERMEYER, (970)808-6020,, (970)399-3234,,Private,8,,,DELTA COUNTY,,48,,CORPORATE NON-PROFIT,,,,,,1379 ASPEN WAY,,DELTA,CO,81416,USA,Assisted Living
USA-CO-72-AssistedLiving-72-AssistedLiving-257,CROSSROADS AT NORTHGLENN ALF,,,,,,,,,,,,  MICHELE STRAUCH, (303)252-1118,, (303)457-2395,,Medicaid, CORPORATE NON-PROFIT,,,ADAMS COUNTY,,100,, (303)480-5624,,,,,,451 MALLEY DR,,NORTHGLENN,CO,80233,USA,Assisted Living
USA-CO-72-AssistedLiving-72-AssistedLiving-258,CRYSTAL HOME CARE,,,,,,,,,,,, Mr HERBERT MARIETTA, (719)685-1566,, (719)685-1566,,Private, LIMITED LIABILITY,,,EL PASO COUNTY,,5,, (719)471-7080,,,,,,316 CLARKSLEY ROAD,,MANITOU SPRINGS,CO,80829,USA,Assisted Living
USA-CO-72-AssistedLiving-72-AssistedLiving-259,DAVID HOUSE RTF,,,,,,,,,,,, Ms JOANN TONEY, (303)293-8554,, (303)504-7991,,-, CORPORATE NON-PROFIT,,,DENVER COUNTY,,15,, (303)480-5624, MENTAL HEALTH CENTER OF DENVER,4455 EAST 12TH AVE,DENVER,CO,80220,5201 SHERMAN,,DENVER,CO,80216,USA,Assisted Living
USA-CO-72-AssistedLiving-72-AssistedLiving-260,DAYSPRING VILLA,,,,,,,,,,,, Ms LATOYA GARCIA, (303)455-5066,, (303)455-8966,,Medicaid, LIMITED LIABILITY,,,DENVER COUNTY,,71,, (303)480-5624, CLC DAYSPRING VILLA LLC,7000 E. BELLEVIEW AVENUE SUITE 150,GREENWOOD VILLAGE,CO,80111,3777 W 26TH AVE,,DENVER,CO,80211,USA,Assisted Living
USA-CO-72-AssistedLiving-72-AssistedLiving-261,DECATUR WEST PERSONAL CARE FACILITY,,,,,,,,,,,, MS PAULA LOPEZ, (303)455-7001,, (303)455-3793,,Medicaid, PROFIT-CORPORATION,,,DENVER COUNTY,,32,, (303)480-5624,,,,,,2801 W 33RD AVE,,DENVER,CO,80211,USA,Assisted Living
USA-CO-72-AssistedLiving-72-AssistedLiving-262,DELTA HOUSE,,,,,,,,,,,, Ms MICHELLE TRUJILLO, (970)874-1117,, (970)874-8853,,Medicaid, PROFIT-CORPORATION,,,DELTA COUNTY,,28,, (970)241-6371,,,,,,233 MAIN ST,,DELTA,CO,81416,USA,Assisted Living
USA-CO-72-AssistedLiving-72-AssistedLiving-263,DEVONSHIRE ACRES,,,,,,,,,,,, MS GLORIA KAISER, (970)522-4888,, (970)522-4892,,Medicaid, LIMITED LIABILITY,,,LOGAN COUNTY,,30,, (970)867-9409,,,,,,1330 N SIDNEY AVE,,STERLING,CO,80751,USA,Assisted Living
USA-CO-72-AssistedLiving-72-AssistedLiving-264,"DOCTOR'S TOUCH LLC, A",,,,,,,,,,,, Mr HERALD OSTOVAR, (719)638-8198,, (719)694-3969,,Medicaid, LIMITED LIABILITY,,,EL PASO COUNTY,,8,, (719)471-7080,,,,,,1550 HIAWATHA DRIVE,,COLORADO SPRINGS,CO,80915,USA,Assisted Living
USA-CO-72-AssistedLiving-72-AssistedLiving-265,DOROTHY'S SOFT TOUCH,,,,,,,,,,,, Ms CHINYERE HILL, (303)739-2700,, (303)739-2900,,Medicaid, CORPORATE NON-PROFIT,,,ARAPAHOE COUNTY,,8,, (303)480-5624,,,,,,1139 TUCSON STREET,,AURORA,CO,80011,USA,Assisted Living
USA-CO-72-AssistedLiving-72-AssistedLiving-266,DOROTHYS SOFT TOUCH II,,,,,,,,,,,, Ms CHINYERE HILL, (303)341-1120,, (303)739-2900,,Medicaid, CORPORATE NON-PROFIT,,,ARAPAHOE COUNTY,,6,, (303)480-5624, DOROTHY'S SOFT TOUCH II,1139 TUCSON STREET,AURORA,CO,80011,716 URSULA STREET,,AURORA,CO,80011,USA,Assisted Living
USA-CO-72-AssistedLiving-72-AssistedLiving-267,DOROTHY'S SOFT TOUCH IV,,,,,,,,,,,, Ms CHINYERE HILL-JOINER, (303)587-3578,, (303)739-2900,,Private, CORPORATE NON-PROFIT,,,ADAMS COUNTY,,8,, (303)480-5624, DOROTHY'S SOFT TOUCH,1139 TUCSON STREET,AURORA,CO,80011,790 UVALDA ST,,AURORA,CO,80011,USA,Assisted Living
USA-CO-72-AssistedLiving-72-AssistedLiving-268,DUNCAN-HART HOUSE,,,,,,,,,,,, Mr MICHAEL VAN DE CASTEELE, (719)471-0149,, (719)634-5002,,Medicaid, CORPORATE NON-PROFIT,,,EL PASO COUNTY,,16,, (719)471-7080, DUNCAN-HART,PO BOX 326,COLORADO SPRINGS,CO,80901,615 N CORONA ST,,COLORADO SPRINGS,CO,80903,USA,Assisted Living
USA-CO-72-AssistedLiving-72-AssistedLiving-269,EAGLE CREST ASSISTED LIVING COMMUNITY,,,,,,,,,,,, Ms STACEY SHRIVER, (970)675-4298,, (970)675-4297,,Medicaid, DISTRICT,,,RIO BLANCO COUNTY,,20,, (970)248-2717,,,,,,222 EAGLE CREST DRIVE,,RANGELY,CO,81648,USA,Assisted Living
USA-CO-72-AssistedLiving-72-AssistedLiving-270,EAGLES NEST ASSISTED LIVING LLC,,,,,,,,,,,, Mr SCOTT WILLIAMS, (970)493-1073,, (970)416-5708,,Private, LIMITED LIABILITY,,,LARIMER COUNTY,,8,, (303)862-3524,,,,,,1026 SALMON RUN,,FORT COLLINS,CO,80524,USA,Assisted Living
USA-CO-72-AssistedLiving-72-AssistedLiving-271,EAGLES NEST AT PLATTE VALLEY ASSISTED LIVING,,,,,,,,,,,, Ms MARILYN TAYLOR, (303)536-4880,, (303)536-4890,,Private, PROFIT-CORPORATION,,,WELD COUNTY,,16,, (970)353-3800,,,,,,6994 CR 39,,FORT LUPTON,CO,80621,USA,Assisted Living
USA-CO-72-AssistedLiving-72-AssistedLiving-272,EBEN EZER LUTHERAN CARE CENTER,,,,,,,,,,,, Ms LYNELLE PHILLIPS, (970)842-2861,, (970)842-3148,,Medicaid, CORPORATE NON-PROFIT,,,MORGAN COUNTY,,65,, (970)867-9409,,,,,,122 HOSPITAL ROAD,,BRUSH,CO,80723,USA,Assisted Living
USA-CO-72-AssistedLiving-72-AssistedLiving-273,EBEN EZER LUTHERAN CARE CENTER-II,,,,,,,,,,,, Ms LYNELLE PHILLIPS, (970)842-2861,, (970)842-3148,,Private, CORPORATE NON-PROFIT,,,MORGAN COUNTY,,28,, (970)867-9409, EBEN EZER LUTHERAN CARE CENTER (II),122 HOSPITAL ROAD,BRUSH,CO,80723,1920 EDISON ST,,BRUSH,CO,80723,USA,Assisted Living
USA-CO-72-AssistedLiving-72-AssistedLiving-274,EDDIE'S HOUSE,,,,,,,,,,,, Mr SCOTT BOYLE, (719)560-9415,, (719)696-9103,,Medicaid,,,,PUEBLO COUNTY,,14,, (719)583-6123,,,,,,1724 SPRUCE,,PUEBLO,CO,81004,USA,Assisted Living
USA-CO-72-AssistedLiving-72-AssistedLiving-275,EVENINGS PORCH LLC,,,,,,,,,,,, Ms ERIN YOUNGBLOOD, (970)884-0101,, (970)884-2856,,Private, LIMITED LIABILITY,,,LA PLATA COUNTY,,16,, (970)259-1967, EVENINGS PORCH LLC,PO BOX 1579,BAYFIELD,CO,81122,42811 HIGHWAY 160,,BAYFIELD,CO,81122,USA,Assisted Living
USA-CO-72-AssistedLiving-72-AssistedLiving-276,EVERGREEN GARDENS AT LA JUNTA,,,,,,,,,,,,  VIRGINIA FORD, (719)384-9333,, (719)384-9393,,Medicaid, LIMITED LIABILITY,,,OTERO COUNTY,,55,, (719)383-3167,,,,,,909 W 10TH STREET,,LA JUNTA,CO,81050,USA,Assisted Living
USA-CO-72-AssistedLiving-72-AssistedLiving-277,FAITH HOUSE,,,,,,,,,,,,,(970)454-2219,,,,,,,,,TRIANGLE CROSS RANCH,,,,,,,,,36047 WCR 51,,GALETON,CO,80622,USA,Assisted Living
USA-CO-72-AssistedLiving-72-AssistedLiving-278,FAMILY ASSISTED LIVING,,,,,,,,,,,, Mr TIMOTHY MILLAR, (303)997-4876,, (720)920-9398,,Private, PROFIT-CORPORATION,,,JEFFERSON COUNTY,,8,, (303)480-5624, FAMILY ASSISTED LIVING,11080 WEST WALKER DRIVE,LITTLETON,CO,80127,2948 ROUTT CIRCLE,,LAKEWOOD,CO,80215,USA,Assisted Living
USA-CO-72-AssistedLiving-72-AssistedLiving-279,FAMILY ASSISTED LIVING OF ARVADA,,,,,,,,,,,, Mr TIMOTHY MILLAR, (303)467-6842,, (303)421-0145,,Private, PROFIT-CORPORATION,,,JEFFERSON COUNTY,,8,, (303)480-5624, FAMILY ASSISTED LIVING OF ARVADA,11080 WEST WALKER DR,LITTLETON,CO,80127,9585 W 51ST AVENUE,,ARVADA,CO,80002,USA,Assisted Living
USA-CO-72-AssistedLiving-72-AssistedLiving-280,FAMILY CARE ASSISTED LIVING,,,,,,,,,,,, MR SAM LEM HEAN, (970)241-6379,, (970)254-9390,,Medicaid, INDIVIDUAL,,,MESA COUNTY,,10,, (970)248-2717, FAMILY CARE ASSISTED LIVING,476 GUNNISON WAY,GRAND JUNCTION ,CO,81504,174 EDLUN RD,,GRAND JUNCTION,CO,81503,USA,Assisted Living
USA-CO-72-AssistedLiving-72-AssistedLiving-281,"FLORENCE CARE HOME, INC",,,,,,,,,,,, Ms JANE CHESS, (719)784-4830,, (719)784-4905,,Medicaid, PROFIT-CORPORATION,,,FREMONT COUNTY,,10,, (719)275-4979,,,,,,1230 W 3RD ST,,FLORENCE,CO,81226,USA,Assisted Living
USA-CO-72-AssistedLiving-72-AssistedLiving-282,FOREVER EDELWEISS HOME,,,,,,,,,,,, Mr RICHARD HALIM, (303)256-0128,, (303)953-8082,,Medicaid, LIMITED LIABILITY,,,ARAPAHOE COUNTY,,5,, (303)480-5624,,,,,,4045 S HANNIBAL STREET,,AURORA,CO,80013,USA,Assisted Living
USA-CO-72-AssistedLiving-72-AssistedLiving-283,FORGETMENOT CARE HOME ASSISTED LIVING RESIDENCE,,,,,,,,,,,, Ms SUSAN GEBHART, (719)372-0749,, (719)784-1395,,Medicaid,7,,,FREMONT COUNTY,,17,,PROFIT-CORPORATION,,,,,,9 S DORIS DRIVE,,FLORENCE,CO,81226,USA,Assisted Living
USA-CO-72-AssistedLiving-72-AssistedLiving-284,FORT COLLINS GOOD SAMARITAN RETIREMENT VILLAGE,,,,,,,,,,,, Ms JULIE RICH, (970)226-4909,, (970)226-6976,,Private, CORPORATE NON-PROFIT,,,LARIMER COUNTY,,28,, (303)862-3524,,,,,,508 W TRILBY ROAD,,FORT COLLINS,CO,80525,USA,Assisted Living
USA-CO-72-AssistedLiving-72-AssistedLiving-285,FOUNTAINHEAD CARE HOMES,,,,,,,,,,,, Ms SAHRA MOALIM, (303)232-4431,, (303)231-9601,,Medicaid, PROFIT-CORPORATION,,,JEFFERSON COUNTY,,14,, (303)480-5624,,,,,,1398 ZEPHYR ST,,LAKEWOOD,CO,80214,USA,Assisted Living
USA-CO-72-AssistedLiving-72-AssistedLiving-286,"FOUNTAINS OF HILLTOP, THE",,,,,,,,,,,, Mr JON TADVICK, (970)243-8800,, (970)241-7062,,Medicaid, CORPORATE NON-PROFIT,,,MESA COUNTY,,110,, (970)248-2717,,,,,,3203 N 15TH STREET,,GRAND JUNCTION,CO,81506,USA,Assisted Living
USA-CO-72-AssistedLiving-72-AssistedLiving-287,FOX MEADOWS ASSISTED LIVING,,,,,,,,,,,, Ms TAMRA MEURER, (970)449-4472,, (970)449-4476,,Private, LIMITED LIABILITY,,,LARIMER COUNTY,,8,, (303)862-3524,,,,,,4021 SPRUCE DRIVE,,FORT COLLINS,CO,80526,USA,Assisted Living
USA-CO-72-AssistedLiving-72-AssistedLiving-288,FRANKLIN HOUSE RTF,,,,,,,,,,,, Ms JOANN TONEY, (303)377-3772,, (303)377-1105,,-, CORPORATE NON-PROFIT,,,DENVER COUNTY,,11,, (303)480-5624, MENTAL HEALTH CORPORATION OF DENVER,4455 EAST 12TH AVE,DENVER,CO,80220,1730 FRANKLIN,,DENVER,CO,80218,USA,Assisted Living
USA-CO-72-AssistedLiving-72-AssistedLiving-289,FRASIER MEADOWS MANOR INC ASSISTED LIVING CENTER,,,,,,,,,,,,  TINA CUNNINGHAM, (720)562-4312,, (720)562-4373,,Private,5,,,BOULDER COUNTY,,55,,CORPORATE NON-PROFIT,,,,,,4950 THUNDERBIRD DRIVE,,BOULDER,CO,80303,USA,Assisted Living
USA-CO-72-AssistedLiving-72-AssistedLiving-290,"FREEDOM HOME ASSISTED LIVING, INC",,,,,,,,,,,, Ms LAURA RUSSELL, (720)436-3995,, (719)452-3886,,Private, PROFIT-CORPORATION,,,EL PASO COUNTY,,8,, (719)471-7080, FREEDOM HOME ASSISTED LIVING,6007 VALLECITO DRIVE,COLORADO SPRINGS,CO,80923,10080 LEXINGTON DRIVE,,COLORADO SPRINGS,CO,80920,USA,Assisted Living
USA-CO-72-AssistedLiving-72-AssistedLiving-291,FREMONT HOME CARE CEDAR,,,,,,,,,,,, Ms LILLIAN WRIGHT, (719)345-4300,, (719)275-4100,,Medicaid, PROFIT-CORPORATION,,,FREMONT COUNTY,,16,, (719)275-4979,,,,,,1425 CEDAR AVENUE,,CANON CITY,CO,81212,USA,Assisted Living
USA-CO-72-AssistedLiving-72-AssistedLiving-292,"FREMONT HOME CARE, INC",,,,,,,,,,,, Ms LILLIAN WRIGHT, (719)269-9300,, (719)275-1593,,Medicaid, PROFIT-CORPORATION,,,FREMONT COUNTY,,16,, (719)275-4979,,,,,,1815 ELM AVENUE,,CANON CITY,CO,81212,USA,Assisted Living
USA-CO-72-AssistedLiving-72-AssistedLiving-293,FRIENDSHIP HOUSE AT THE HOME,,,,,,,,,,,, Ms TISHA DARNELL, (719)275-7451,, (719)269-0794,,Medicaid, CORPORATE NON-PROFIT,,,FREMONT COUNTY,,36,, (719)275-4979,,,,,,1020 NORTH 15TH STREET,,CANON CITY,CO,81212,USA,Assisted Living
USA-CO-72-AssistedLiving-72-AssistedLiving-294,GABRIEL ASSISTED LIVING,,,,,,,,,,,, Mrs ERLIN SIREGAR, (303)954-0531,, (303)766-8760,,Medicaid, LIMITED LIABILITY,,,ARAPAHOE COUNTY,,7,, (303)480-5624,,,,,,5235 S LIVERPOOL WAY,,CENTENNIAL,CO,80015,USA,Assisted Living
USA-CO-72-AssistedLiving-72-AssistedLiving-295,GARDEN PLAZA OF AURORA,,,,,,,,,,,, Ms KIMBERLY BOUGHTON, (303)750-0820,, (303)873-8964,,Private, LIMITED LIABILITY,,,ARAPAHOE COUNTY,,90,, (303)480-5624,,,,,,14211 EAST EVANS AVENUE,,AURORA,CO,80014,USA,Assisted Living
USA-CO-72-AssistedLiving-72-AssistedLiving-296,GARDEN RANCH SENIOR CARE,,,,,,,,,,,, MS ELLA MCCARTNEY, (719)260-9121,, (719)260-9122,,Private, INDIVIDUAL,,,EL PASO COUNTY,,8,, (719)471-7080,,,,,,5075 SADDLE DRIVE,,COLORADO SPRINGS,CO,80918,USA,Assisted Living
USA-CO-72-AssistedLiving-72-AssistedLiving-297,GARDEN SQUARE AT SPRING CREEK,,,,,,,,,,,, Ms SHANNON BUXMANN, (970)494-3253,, (970)493-1367,,Medicaid, LIMITED LIABILITY,,,LARIMER COUNTY,,62,, (303)862-3524,,,,,,1000 E STUART ST,,FORT COLLINS,CO,80525,USA,Assisted Living
USA-CO-72-AssistedLiving-72-AssistedLiving-298,GARDEN SQUARE AT WESTLAKE,,,,,,,,,,,, Ms JENNIFER BRUNNER, (970)346-1222,, (970)346-1228,,Private, LIMITED LIABILITY,,,WELD COUNTY,,64,, (970)353-3800,,,,,,3151 W 20TH ST,,GREELEY,CO,80634,USA,Assisted Living
USA-CO-72-AssistedLiving-72-AssistedLiving-299,GARDEN SQUARE OF GREELEY,,,,,,,,,,,, Ms KELLY ELLERMAN, (970)336-9063,, (970)336-9130,,Private,6,,,WELD COUNTY,,34,,LIMITED LIABILITY,,,,,,1663 29TH AVE PLACE,,GREELEY,CO,80634,USA,Assisted Living
USA-CO-72-AssistedLiving-72-AssistedLiving-300,"GARDENS AT COLUMBINE, THE",,,,,,,,,,,, Mr JEREMY KLASSEN, (303)973-5115,, (303)973-6004,,Private,2,,,ARAPAHOE COUNTY,,147,,PARTNERSHIP,,,,,,5130 W KEN CARYL AVE,,LITTLETON,CO,80128,USA,Assisted Living
USA-CO-72-AssistedLiving-72-AssistedLiving-301,GARDENS AT ST ELIZABETH,,,,,,,,,,,, Ms CHERYL CROSS, (303)964-2000,, (303)964-3807,,Private,4,,,DENVER COUNTY,,145,,CORPORATE NON-PROFIT,,,,,,2825 W 32ND AVE,,DENVER,CO,80211,USA,Assisted Living
USA-CO-72-AssistedLiving-72-AssistedLiving-302,"GARDENS CARE HOMES LLC, THE - INDIAN TREE",,,,,,,,,,,, Ms JENNIFER CONRAD, (303)431-6027,, (303)431-6222,,Private, LIMITED LIABILITY,,,JEFFERSON COUNTY,,12,, (303)480-5624, THE GARDENS CARE HOMES,12650 W 64TH AVENUE E 172,ARVADA,CO,80004,7319 CARR STREET,,ARVADA,CO,80005,USA,Assisted Living
USA-CO-72-AssistedLiving-72-AssistedLiving-303,"GARDENS CARE HOMES MAJESTIC VIEW, THE",,,,,,,,,,,, Ms JENNIFER CONRAD, (303)421-6539,, (303)431-6222,,Private, LIMITED LIABILITY,,,JEFFERSON COUNTY,,8,, (303)480-5624,,,,,,6882 GARLAND STREET,,ARVADA,CO,80004,USA,Assisted Living
USA-CO-72-AssistedLiving-72-AssistedLiving-304,GARDENS ON QUAIL STREET,,,,,,,,,,,, Ms SARA DENT, (303)456-1500,, (303)456-1501,,Private,6,,,JEFFERSON COUNTY,,66,,PROFIT-CORPORATION,,,,,,6447 QUAIL STREET,,ARVADA,CO,80004,USA,Assisted Living
USA-CO-72-AssistedLiving-72-AssistedLiving-305,GENTLE CARE HOUSE,,,,,,,,,,,, Ms ASHLEY COLE (P), (719)466-9863,, (719)268-2769,,Medicaid, CORPORATE NON-PROFIT,,,EL PASO COUNTY,,8,, (719)471-7080,,,,,,1333 DARBY STREET,,COLORADO SPRINGS,CO,80907,USA,Assisted Living
USA-CO-72-AssistedLiving-72-AssistedLiving-306,GENTLE HEARTS 2 ASSISTED LIVING,,,,,,,,,,,, Ms JULLIA ARIDA, (720)508-4195,, (720)282-3102,,Private, LIMITED LIABILITY,,,JEFFERSON COUNTY,,8,, (303)480-5624, GENTLE HEARTS ASSISTED LIVING,10185 WEST 71ST PLACE,ARVADA,CO,80004,10185 W 71ST PLACE,,ARVADA,CO,80004,USA,Assisted Living
USA-CO-72-AssistedLiving-72-AssistedLiving-307,GENTLE HEARTS ASSISTED LIVING,,,,,,,,,,,, Ms JULLIA ARIDA, (720)242-7960,, (720)242-7884,,Medicaid, LIMITED LIABILITY,,,ARAPAHOE COUNTY,,10,, (303)480-5624, BLAKE DIMEO,6780 E LAKE CIRCLE,CENTENNIAL,CO,80111,6780 E LAKE CIRCLE,,CENTENNIAL,CO,80111,USA,Assisted Living
USA-CO-72-AssistedLiving-72-AssistedLiving-308,GLENWOOD SPRINGS HARMONY HOUSE INC,,,,,,,,,,,, Ms PATRICIA MCKINNEY, (970)928-8262,, (970)230-9347,,Private, PROFIT-CORPORATION,,,GARFIELD COUNTY,,6,, (970)248-2717,,,,,,1045 PARKWEST DRIVE,,GLENWOOD SPRINGS,CO,81601,USA,Assisted Living
USA-CO-72-AssistedLiving-72-AssistedLiving-309,GLORY COMMUNITY ASSISTED LIVING,,,,,,,,,,,, Mr JAMES HEMBD, (303)469-3238,, (303)469-3849,,Private, CORPORATE NON-PROFIT,,,BOULDER COUNTY,,8,, (303)441-1173, GLORY COMMUNITY ASSISTED LIVING,4195 BROADMOOR LOOP,BROOMFIELD,CO,80023,1397 COTTONWOOD STREET,,BROOMFIELD,CO,80020,USA,Assisted Living
USA-CO-72-AssistedLiving-72-AssistedLiving-310,GOLDEN GATE MANOR,,,,,,,,,,,, Mrs JOSEPHINE HARRIMAN, (719)583-9132,, (719)564-0344,,Medicaid, PARTNERSHIP,,,PUEBLO COUNTY,,16,, (719)583-6123, GOLDEN GATE MANOR,1337 W ABRIENDO AVE,PUEBLO,CO,81004,606 W ABRIENDO AVE,,PUEBLO,CO,81004,USA,Assisted Living
USA-CO-72-AssistedLiving-72-AssistedLiving-311,GOLDEN GATE MANOR II,,,,,,,,,,,, Mrs JOSEPHINE HARRIMAN, (719)583-2473,, (719)564-0344,,Medicaid, PROFIT-CORPORATION,,,PUEBLO COUNTY,,10,, (719)583-6123, GOLDEN GATE MANOR II,1337 W ABRIENDO AVENUE,PUEBLO,CO,81004,1219 LAKE AVENUE,,PUEBLO,CO,81004,USA,Assisted Living
USA-CO-72-AssistedLiving-72-AssistedLiving-312,GOLDEN HORIZON,,,,,,,,,,,, Mrs JOSEPHINE HARRIMAN, (719)583-9132,, (719)564-0344,,Medicaid, PROFIT-CORPORATION,,,PUEBLO COUNTY,,12,, (719)583-6123, GOLDEN GATE MANOR,1337 WEST ABRIENDO AVENUE,PUEBLO,CO,81004,2109 CHAUTARD,,PUEBLO,CO,81005,USA,Assisted Living
USA-CO-72-AssistedLiving-72-AssistedLiving-313,GOLDEN MANOR ENTERPRISES,,,,,,,,,,,, Ms MARY LOU STEADMAN, (303)893-0600,, (303)620-9238,,Medicaid, PROFIT-CORPORATION,,,DENVER COUNTY,,70,, (303)480-5624,,,,,,4600 W COLFAX AVE,,DENVER,CO,80204,USA,Assisted Living
USA-CO-72-AssistedLiving-72-AssistedLiving-314,GOLDEN ORCHARD I,,,,,,,,,,,, Ms FEROL JOHNSTON, (303)660-1437,, (303)660-1456,,Private,2,,,ARAPAHOE COUNTY,,12,,PROFIT-CORPORATION,,,,,,850 E ORCHARD RD,,CENTENNIAL,CO,80121,USA,Assisted Living
USA-CO-72-AssistedLiving-72-AssistedLiving-315,GOLDEN ORCHARD II,,,,,,,,,,,, MS FEROL JOHNSTON, (303)660-1437,, (303)347-1054,,Private, PROFIT-CORPORATION,,,ARAPAHOE COUNTY,,12,, (303)480-5624,,,,,,890 E ORCHARD RD,,CENTENNIAL,CO,80121,USA,Assisted Living
USA-CO-72-AssistedLiving-72-AssistedLiving-316,GOLDEN ORCHARD III,,,,,,,,,,,, Ms MARY FIERRO, (303)619-7837,, (303)660-5143,,Private, PROFIT-CORPORATION,,,JEFFERSON COUNTY,,16,, (303)480-5624," GOLDEN ORCHARD, INC.",2322 BEACHAM DRIVE,CASTLE ROCK,CO,80104,3510 HOLLAND ST,,WHEAT RIDGE,CO,80033,USA,Assisted Living
USA-CO-72-AssistedLiving-72-AssistedLiving-317,GOLDEN POND LLC,,,,,,,,,,,, Ms KAREN JENKINS, (303)271-0430,, (303)278-0623,,Private,6,,,JEFFERSON COUNTY,,91,,LIMITED LIABILITY,,,,,,1270 NORTH FORD STREET,,GOLDEN,CO,80403,USA,Assisted Living
USA-CO-72-AssistedLiving-72-AssistedLiving-318,GOLDEN VALLEY ASSISTED LIVING,,,,,,,,,,,, Mrs JOSEPHINE HARRIMAN, (719)545-0152,, (719)564-0344,,Medicaid, PROFIT-CORPORATION,,,PUEBLO COUNTY,,14,, (719)583-6123, GOLDEN VALLEY ASSISTED LIVING,1337 W. ABRIENDO AVENUE,PUEBLO,CO,81004,1033 E EVANS,,PUEBLO,CO,81004,USA,Assisted Living
USA-CO-72-AssistedLiving-72-AssistedLiving-319,GOLDEN VIEW,,,,,,,,,,,, Mrs JOSEPHINE HARRIMAN, (719)583-9132,, (719)564-0334,,Medicaid, PROFIT-CORPORATION,,,PUEBLO COUNTY,,10,, (719)583-6123, GOLDEN GATE MANOR INC,1337 W ABRIENDO AVENUE,PUEBLO,CO,81004,525 W 9TH,,PUEBLO,CO,81003,USA,Assisted Living
USA-CO-72-AssistedLiving-72-AssistedLiving-320,GOLDEN YEARS RETIREMENT HOME II,,,,,,,,,,,,  JESSICA HEACOCK, (970)882-7438,, (970)882-7438,,Medicaid, LIMITED LIABILITY,,,MONTEZUMA COUNTY,,16,, (970)259-1967, GOLDEN YEARS RETIREMENT HOME,P.O. BOX 335,DOLORES,CO,81323,103 N 18TH STREET,,DOLORES,CO,81323,USA,Assisted Living
USA-CO-72-AssistedLiving-72-AssistedLiving-321,GOOD SAMARITAN SOCIETY ESTES PARK VILLAGE,,,,,,,,,,,,  CALLIE STEWART, (970)577-7700,, (970)586-4785,,Private, CORPORATE NON-PROFIT,,,LARIMER COUNTY,,30,, (303)862-3524,,,,,,1901 PTARMIGAN TRAIL,,ESTES PARK,CO,80517,USA,Assisted Living
USA-CO-72-AssistedLiving-72-AssistedLiving-322,GOOD SAMARITAN SOCIETY -LOVELAND VILLAGE,,,,,,,,,,,, Ms KRISTINE KOSCHKE, (970)669-3100,, (970)663-4526,,Private, CORPORATE NON-PROFIT,,,LARIMER COUNTY,,60,, (303)862-3524,,,,,,2101 S GARFIELD AVE,,LOVELAND,CO,80537,USA,Assisted Living
USA-CO-72-AssistedLiving-72-AssistedLiving-323,GOSHEN ASSISTED LIVING LLC,,,,,,,,,,,, Mr HARIJANTO SUGIARSO, (303)353-9041,, (303)353-2334,,Medicaid, LIMITED LIABILITY,,,ARAPAHOE COUNTY,,7,, (303)480-5624,,,,,,12099 E LOUISIANA AVENUE,,AURORA,CO,80012,USA,Assisted Living
USA-CO-72-AssistedLiving-72-AssistedLiving-324,GRACE ASSISTED LIVING LLC,,,,,,,,,,,, Ms YEONG RICHARDSON, (303)341-8078,, (303)341-8078,,Medicaid, LIMITED LIABILITY,,,ADAMS COUNTY,,8,, (303)480-5624,,,,,,15011 E MONTVIEW BLVD,,AURORA,CO,80011,USA,Assisted Living
USA-CO-72-AssistedLiving-72-AssistedLiving-325,GRACE HOUSE,,,,,,,,,,,,,(970)454-2219,,,,,,,,,TRIANGLE CROSS RANCH,,,,,,,,,36047 WELD COUNTY ROAD 51,,GALETON,CO,80622,USA,Assisted Living
USA-CO-72-AssistedLiving-72-AssistedLiving-326,GRACE POINTE CONTINUING CARE SENIOR CAMPUS ASSISTED LIVING,,,,,,,,,,,, Ms DEBRA MAJORS, (970)304-1919,, (970)304-2231,,Private,6,,,WELD COUNTY,,105,,LIMITED LIABILITY,,,,,,1919 68TH AVENUE,,GREELEY,CO,80634,USA,Assisted Living
USA-CO-72-AssistedLiving-72-AssistedLiving-327,GRAND VILLA ASSISTED LIVING,,,,,,,,,,,, Ms CHERYL DEAN, (970)241-9706,, (970)241-6855,,Medicaid, CORPORATE NON-PROFIT,,,MESA COUNTY,,64,, (970)248-2717,,,,,,2680 N 15TH STREET,,GRAND JUNCTION,CO,81506,USA,Assisted Living
USA-CO-72-AssistedLiving-72-AssistedLiving-328,GRANDVIEW CARE LODGE ASSISTED LIVING,,,,,,,,,,,, Mr PAUL EWING, (970)241-8896,, (970)241-8799,,Private, LIMITED LIABILITY,,,MESA COUNTY,,8,, (970)248-2717,,,,,,815 26 1/2 ROAD,,GRAND JUNCTION,CO,81506,USA,Assisted Living
USA-CO-72-AssistedLiving-72-AssistedLiving-329,GRANT HOUSE RTF,,,,,,,,,,,, Ms JOANN TONEY, (303)733-9348,, (303)504-7991,,-, CORPORATE NON-PROFIT,,,DENVER COUNTY,,10,, (303)480-5624, GRANT HOUSE,4455 EAST 12TH AVE,DENVER,CO,80220,2600 S GRANT,,DENVER,CO,80210,USA,Assisted Living
USA-CO-72-AssistedLiving-72-AssistedLiving-330,"GRANVILLE ASSISTED LIVING CENTER, THE",,,,,,,,,,,, Ms SARA JANE TAYLOR, (303)274-4400,, (303)274-4100,,Medicaid, PARTNERSHIP,,,JEFFERSON COUNTY,,120,, (303)480-5624,,,,,,1325 VANCE ST,,LAKEWOOD,CO,80214,USA,Assisted Living
USA-CO-72-AssistedLiving-72-AssistedLiving-331,GRAY CARA,,,,,,,,,,,, Mr MARK GRAY, (303)732-4424,, (303)732-4078,,Medicaid, PROFIT-CORPORATION,,,WELD COUNTY,,14,, (970)353-3800,,,,,,195 EAST GANDY AVENUE,,KEENESBURG,CO,80643,USA,Assisted Living
USA-CO-72-AssistedLiving-72-AssistedLiving-332,GRAY CARA WEST,,,,,,,,,,,,  DIANE BAER, (970)330-5133,, (970)330-4286,,Medicaid, PROFIT-CORPORATION,,,WELD COUNTY,,14,, (970)353-3800,,,,,,3705 CARSON AVENUE,,EVANS,CO,80620,USA,Assisted Living
USA-CO-72-AssistedLiving-72-AssistedLiving-333,GREEN MEADOWS ASSISTED LIVING,,,,,,,,,,,, Mr ALEX GALLEGOS, (303)955-0026,, (303)955-0026,,Private, LIMITED LIABILITY,,,DENVER COUNTY,,6,, (303)480-5624,,,,,,2177 S GOLDEN COURT,,DENVER,CO,80227,USA,Assisted Living
USA-CO-72-AssistedLiving-72-AssistedLiving-334,GREENRIDGE PLACE,,,,,,,,,,,, Ms LINDSEY DOIEL (P), (303)465-0504,, (720)573-4550,,Private,6,,,JEFFERSON COUNTY,,76,,PROFIT-CORPORATION,,,,,,7700 W 101ST AVENUE,,WESTMINSTER,CO,80021,USA,Assisted Living
USA-CO-72-AssistedLiving-72-AssistedLiving-335,GREENWOOD MANOR,,,,,,,,,,,, Mr KEVIN WELLS, (719)562-1742,, (719)542-6098,,Medicaid, PROFIT-CORPORATION,,,PUEBLO COUNTY,,16,, (719)583-6123,,,,,,421 &amp; 423 W 11TH ST,,PUEBLO,CO,81003,USA,Assisted Living
USA-CO-72-AssistedLiving-72-AssistedLiving-336,GUNNISON VALLEY HEALTH ASSISTED LIVING,,,,,,,,,,,, Ms ASHELIGH PIPHER, (970)641-3031,, (970)641-1826,,Medicaid, CITY-COUNTY,,,GUNNISON COUNTY,,15,, (970)241-6371,,,,,,300 N THIRD ST,,GUNNISON,CO,81230,USA,Assisted Living
USA-CO-72-AssistedLiving-72-AssistedLiving-337,HAMPDEN HILLS ASSISTED LIVING LLC,,,,,,,,,,,, Ms JOANN DEDMON, (303)699-6050,, (866)309-9510,,Private, LIMITED LIABILITY,,,ARAPAHOE COUNTY,,15,, (303)480-5624, HAMPDEN HILLS ASSISTED LIVING LLC,19755 E PIKES PEAK AVENUE SUITE 203,PARKER,CO,80138,14601 E HAMPDEN PLACE,,AURORA,CO,80014,USA,Assisted Living
USA-CO-72-AssistedLiving-72-AssistedLiving-338,HARVARD SQUARE MEMORY CARE,,,,,,,,,,,, Ms MEKDES GEBRESELASSIE, (303)696-0622,, (303)696-0915,,Private,0,,,ARAPAHOE COUNTY,,40,,LIMITED LIABILITY,,,,,,10370 E HARVARD SQUARE,,DENVER,CO,80231,USA,Assisted Living
USA-CO-72-AssistedLiving-72-AssistedLiving-339,HARVARD SQUARE RETIREMENT COMMUNITY,,,,,,,,,,,, Ms JANET BEAVER, (303)696-0622,, (303)696-0915,,Private, LIMITED LIABILITY,,,DENVER COUNTY,,155,, (303)480-5624,,,,,,10200 E HARVARD AVE,,DENVER,CO,80231,USA,Assisted Living
USA-CO-72-AssistedLiving-72-AssistedLiving-340,HARVEY PARK ASSISTED LIVING,,,,,,,,,,,, Ms REBECCA GRAY, (303)922-1472,, (720)287-2735,,Medicaid, LIMITED LIABILITY,,,DENVER COUNTY,,6,, (303)480-5624, HARVEY PARK ASSISTED LIVING LLC,9471 CHESAPEAKE STREET,HIGHLANDS RANCH,CO,80216,1999 S RALEIGH ST,,DENVER,CO,80219,USA,Assisted Living
USA-CO-72-AssistedLiving-72-AssistedLiving-341,HAVEN OF CARE ASSISTED LIVING AT ARGONNE,,,,,,,,,,,, Ms MEG WIRANTONO, (303)947-7392,, (303)400-5159,,Medicaid, LIMITED LIABILITY,,,ARAPAHOE COUNTY,,8,, (303)480-5624, HAVEN OF CARE ASSISTED LIVING AT ARGONNE,P. O. BOX 461284,CENTENNIAL,CO,80046,3920 S ARGONNE WAY,,AURORA,CO,80013,USA,Assisted Living
USA-CO-72-AssistedLiving-72-AssistedLiving-342,HAVEN OF CARE ASSISTED LIVING AT TOLLGATE CROSSING,,,,,,,,,,,, Ms MEG WIRANTONO-LIM, (303)947-7392,, (303)400-5159,,Medicaid, LIMITED LIABILITY,,,ARAPAHOE COUNTY,,12,, (303)480-5624, HAVEN OF CARE ASSISTED LIVING AT TOLLGATE CROSSING,P O BOX 461284,CENTENNIAL,CO,80046,5010 S DUQUESNE STREET,,AURORA,CO,80016,USA,Assisted Living
USA-CO-72-AssistedLiving-72-AssistedLiving-343,"HAVEN, THE",,,,,,,,,,,, Ms KAREN BURLEY, (970)276-4484,, (970)276-4197,,Medicaid, CORPORATE NON-PROFIT,,,ROUTT COUNTY,,20,, (970)248-2717,,,,,,300 S SHELTON LANE,,HAYDEN,CO,81639,USA,Assisted Living
USA-CO-72-AssistedLiving-72-AssistedLiving-344,HAVERLAND CARTER RALSTON CREEK LLC,,,,,,,,,,,, Ms JUDITH HELMS (P), (303)923-4833,, (505)923-4896,,Private,7,,,JEFFERSON COUNTY,,146,,LIMITED LIABILITY,,,,,,11825 WEST 64TH AVE,,ARVADA,CO,80004,USA,Assisted Living
USA-CO-72-AssistedLiving-72-AssistedLiving-345,HAWKEYE CARE HOME LLC,,,,,,,,,,,, Mr GREGG WHELEN, (303)935-2822,, (303)922-2483,,Medicaid, LIMITED LIABILITY,,,DENVER COUNTY,,8,, (303)480-5624,,,,,,2710 S JAY ST,,DENVER,CO,80227,USA,Assisted Living
USA-CO-72-AssistedLiving-72-AssistedLiving-346,"HEALTHCARE RESORT OF COLORADO SPRINGS, THE",,,,,,,,,,,, Mr DAVID DUNYON (P), (719)632-7000,, (719)632-4000,,Private, PROFIT-CORPORATION,,,EL PASO COUNTY,,28,, (719)471-7080,,,,,,2818 GRAND VISTA CIRCLE,,COLORADO SPRINGS,CO,80904,USA,Assisted Living
USA-CO-72-AssistedLiving-72-AssistedLiving-347,HEARTS AND HANDS ASSISTED SENIOR CARE,,,,,,,,,,,, Ms SUSAN HEYBORNE-LAMMERS, (303)975-6723,, (888)714-3305,,Medicaid, LIMITED LIABILITY,,,JEFFERSON COUNTY,,9,, (303)480-5624, HEARTS AND HANDS ASSISTED SENIOR CARE,6196 W 75TH PLACE,ARVADA,CO,80003,4370 INGALLS STREET,,WHEAT RIDGE,CO,80033,USA,Assisted Living
USA-CO-72-AssistedLiving-72-AssistedLiving-348,HEATHER GROVE,,,,,,,,,,,, Ms AMANDA PHAN, (303)477-4262,, (303)477-4262,,Private, PROFIT-CORPORATION,,,DENVER COUNTY,,45,, (303)480-5624,,,,,,3289 GROVE ST,,DENVER,CO,80211,USA,Assisted Living
USA-CO-72-AssistedLiving-72-AssistedLiving-349,HEATHERWOOD VILLAGE ASSISTED LIVING,,,,,,,,,,,, Ms JOANNA TRUJILLO, (719)542-9400,, (719)542-9330,,Private, LIMITED LIABILITY,,,PUEBLO COUNTY,,48,, (719)583-6123, HEATHERWOOD VILLAGE ASSISTED LIVING,PO BOX 2081,PARKER,CO,80138,1716 N READING AVENUE,,PUEBLO,CO,81001,USA,Assisted Living
USA-CO-72-AssistedLiving-72-AssistedLiving-350,HEIDI'S CHATEAU ASSISTED LIVING,,,,,,,,,,,, Mr FRANK MARTINEZ, (970)252-8228,, (970)252-9170,,Medicaid, PROFIT-CORPORATION,,,MONTROSE COUNTY,,30,, (970)241-6371,,,,,,2720 SUNNYSIDE RD,,MONTROSE,CO,81401,USA,Assisted Living
USA-CO-72-AssistedLiving-72-AssistedLiving-351,HELPING HANDS HOMECARE LLC,,,,,,,,,,,,  ADEBAYO AKISANYA, (303)972-6466,, (303)972-3686,,Medicaid, LIMITED LIABILITY,,,JEFFERSON COUNTY,,8,, (303)480-5624,,,,,,11503 W BERRY PLACE,,LITTLETON,CO,80127,USA,Assisted Living
USA-CO-72-AssistedLiving-72-AssistedLiving-352,HERITAGE HAUS,,,,,,,,,,,, Ms MEGAN BERNHARDT, (970)669-5616,, (970)669-0988,,Medicaid, PROFIT-CORPORATION,,,LARIMER COUNTY,,18,, (303)862-3524,,,,,,208 19TH STREET S E,,LOVELAND,CO,80537,USA,Assisted Living
USA-CO-72-AssistedLiving-72-AssistedLiving-353,HERITAGE PARK ASSISTED LIVING,,,,,,,,,,,, Mr ROBERT BAKER, (970)928-3222,, (970)928-3234,,Private, LIMITED LIABILITY,,,GARFIELD COUNTY,,28,, (970)248-2717,,,,,,1250 VILLAGE ROAD,,CARBONDALE,CO,81623,USA,Assisted Living
USA-CO-72-AssistedLiving-72-AssistedLiving-354,HIGH DESERT ASSISTED LIVING LLC,,,,,,,,,,,, Mrs TAMMY IRVIN, (970)434-7036,, (970)523-1082,,Medicaid, LIMITED LIABILITY,,,MESA COUNTY,,16,, (970)248-2717,,,,,,3293 LOMBARDY LANE,,CLIFTON,CO,81520,USA,Assisted Living
USA-CO-72-AssistedLiving-72-AssistedLiving-355,HIGHLINE PLACE,,,,,,,,,,,, Ms TRACI COLVIN, (303)703-3499,, (303)703-3498,,Private,6,,,ARAPAHOE COUNTY,,76,,LIMITED LIABILITY,,,,,,6767 S BROADWAY,,LITTLETON,CO,80122,USA,Assisted Living
USA-CO-72-AssistedLiving-72-AssistedLiving-356,HIGHPOINTE ASSISTED LIVING &amp; MEMORY CARE,,,,,,,,,,,, Ms DANA ANDRESKI, (303)756-4567,, (303)756-9615,,Private,2,,,ARAPAHOE COUNTY,,100,,PROFIT-CORPORATION,,,,,,6383 E GIRARD PLACE,,DENVER,CO,80222,USA,Assisted Living
USA-CO-72-AssistedLiving-72-AssistedLiving-357,HILLCREST OF LOVELAND,,,,,,,,,,,, Ms AGNES KELONIKI SCHMIDT, (970)593-9800,, (970)593-9810,,Private,2,,,LARIMER COUNTY,,30,,LIMITED LIABILITY,,,,,,535 NORTH DOUGLAS AVENUE,,LOVELAND,CO,80537,USA,Assisted Living
USA-CO-72-AssistedLiving-72-AssistedLiving-358,HOME CARE AT KETTLES ASSISTED LIVING,,,,,,,,,,,, MS ELIZABETH LEE, (719)633-2166,, (719)494-0349,,Medicaid,,,,EL PASO COUNTY,,7,,LIMITED LIABILITY,,,,,,1929 MEYERS AVENUE,,COLORADO SPRINGS,CO,80909,USA,Assisted Living
USA-CO-72-AssistedLiving-72-AssistedLiving-359,HOME CARE AT MOMA'S ASSISTED LIVING,,,,,,,,,,,,  ELIZABETH LEE, (719)630-2231,, (719)494-0349,,Medicaid, LIMITED LIABILITY,,,EL PASO COUNTY,,8,, (719)471-7080, HOME CARE AT MOMA'S ASSISTED LIVING,P.O. BOX 88393,COLORADO SPRINGS,CO,80908,2501 BENNETT AVE,,COLORADO SPRINGS,CO,80909,USA,Assisted Living
USA-CO-72-AssistedLiving-72-AssistedLiving-360,HOME CARE AT POPA'S ASSISTED LIVING,,,,,,,,,,,, MS ELIZABETH LEE, (719)495-7453,, (719)494-0349,,Medicaid, LIMITED LIABILITY,,,EL PASO COUNTY,,8,, (719)471-7080, HOME CARE AT POPAS ASSISTED LIVING,PO BOX 88393,COLORADO SPRINGS,CO,80908,9340 BURGESS ROAD,,COLORADO SPRINGS,CO,80908,USA,Assisted Living
USA-CO-72-AssistedLiving-72-AssistedLiving-361,"HOMESTEAD AT LAKEWOOD, THE",,,,,,,,,,,, Ms JO MCCONNELL, (303)233-2121,, (303)462-3349,,Medicaid, LIMITED LIABILITY,,,JEFFERSON COUNTY,,36,, (303)480-5624,,,,,,2121 WADSWORTH BLVD,,LAKEWOOD,CO,80214,USA,Assisted Living
USA-CO-72-AssistedLiving-72-AssistedLiving-362,"HOMESTEAD AT MONTROSE, THE",,,,,,,,,,,, Ms DENISE SWANSON, (970)252-9359,, (970)252-9358,,Private, CORPORATE NON-PROFIT,,,MONTROSE COUNTY,,70,, (970)241-6371,,,,,,1819 PAVILION DRIVE,,MONTROSE,CO,81401,USA,Assisted Living
USA-CO-72-AssistedLiving-72-AssistedLiving-363,ILA SENIOR LIVING LLC,,,,,,,,,,,, Ms JAYADEVI SEENICHAMY, (303)805-3936,, (303)942-1809,,Private, LIMITED LIABILITY,,,DOUGLAS COUNTY,,5,, (303)480-5624, ILA SENOR LIVING LLC,P.O. BOX 630696,HIGHLANDS RANCH,CO,80163,8051 TEMPEST RIDGE WAY,,PARKER,CO,80134,USA,Assisted Living
USA-CO-72-AssistedLiving-72-AssistedLiving-364,INGLENOOK AT BRIGHTON,,,,,,,,,,,, Mr DENNIS VEEN, (303)659-4148,, (303)659-5370,,Medicaid,2,,,ADAMS COUNTY,,110,,PARTNERSHIP,,,,,,2195 E EGBERT STREET,,BRIGHTON,CO,80601,USA,Assisted Living
USA-CO-72-AssistedLiving-72-AssistedLiving-365,INN AT GREENWOOD VILLAGE,,,,,,,,,,,, Ms MAUREEN WALKER, (303)327-7340,, (303)327-7341,,Private, LIMITED LIABILITY,,,ARAPAHOE COUNTY,,83,, (303)480-5624," INN AT GREENWOOD VILLAGE, THE","4 PARK PLACE, SUITE 500",IRVINE,CA,94614,5565 S YOSEMITE ST,,GREENWOOD VILLAGE,CO,80111,USA,Assisted Living
USA-CO-72-AssistedLiving-72-AssistedLiving-366,INN BETWEEN RTF,,,,,,,,,,,, Ms MARY ANNA SEARS, (303)980-4082,, (303)980-4084,,-, CORPORATE NON-PROFIT,,,DENVER COUNTY,,8,, (303)480-5624, JEFFERSON CENTER FOR MENTAL HEALTH,7495 W. 29TH AVE,WHEAT RIDGE,CO,80033,10295 W KEENE AVE,,DENVER,CO,80235,USA,Assisted Living
USA-CO-72-AssistedLiving-72-AssistedLiving-367,IRIS CREEK ASSISTED LIVING I,,,,,,,,,,,, Ms BETH HALE, (303)956-3800,, (303)648-6252,,Medicaid, LIMITED LIABILITY,,,ARAPAHOE COUNTY,,8,, (303)480-5624, IRIS CREEK ASSISTED LIVING,7805 KIPLING STREET,ARVADA,CO,80005,2602 S ENSENADA WAY,,AURORA,CO,80013,USA,Assisted Living
USA-CO-72-AssistedLiving-72-AssistedLiving-368,"IVORY ASSISTED LIVING, LLC",,,,,,,,,,,, Mr SEUNGJU (JOSEPH) LEE, (303)690-4150,, (303)690-4150,,Medicaid, LIMITED LIABILITY,,,ARAPAHOE COUNTY,,11,, (303)480-5624,,,,,,4633 S IVORY CIR,,AURORA,CO,80015,USA,Assisted Living
USA-CO-72-AssistedLiving-72-AssistedLiving-369,IVY COTTAGE ASSISTED LIVING FACILITY,,,,,,,,,,,, Ms CATHERINE HARTMAN, (719)596-0076,, (719)597-1936,,Medicaid, PROFIT-CORPORATION,,,EL PASO COUNTY,,21,, (719)471-7080,,,,,,2060 PIMA DR,,COLORADO SPRINGS,CO,80915,USA,Assisted Living
USA-CO-72-AssistedLiving-72-AssistedLiving-370,IVY COTTAGE I,,,,,,,,,,,,,(719)596-0076,,,,,,,,,IVY COTTAGE ASSISTED LIVING FACILITY,,,,,,,,,2060 PIMA DR,,COLORADO SPRINGS,CO,80915,USA,Assisted Living
USA-CO-72-AssistedLiving-72-AssistedLiving-371,IVY COTTAGE II,,,,,,,,,,,,,(719)596-0076,,,,,,,,,IVY COTTAGE ASSISTED LIVING FACILITY,,,,,,,,,1945 OKEECHOBEE,,COLORADO SPRINGS,CO,80915,USA,Assisted Living
USA-CO-72-AssistedLiving-72-AssistedLiving-372,JACOB J AND ANNE B WALTER MEMORIAL LIVING CENTER,,,,,,,,,,,, Mr DAVID GARNAS, (970)474-3323,, (970)474-4912,,Medicaid, CITY-COUNTY,,,SEDGWICK COUNTY,,26,, (970)867-9409, JACOB J &amp; ANNE B WALTER MEMORIAL LVG CTR,900 CEDAR STREET,JULESBURG,CO,80737,900 PINE ST,,JULESBURG,CO,80737,USA,Assisted Living
USA-CO-72-AssistedLiving-72-AssistedLiving-373,JAXPOINTE AT 63RD PLACE ASSISTED LIVING,,,,,,,,,,,, Mr RUSSELL UDELHOFEN, (303)420-9910,, (303)420-9907,,Private,,,,JEFFERSON COUNTY,,8,,LIMITED LIABILITY,,,,,,16495 W. 63RD PLACE,,GOLDEN,CO,80403,USA,Assisted Living
USA-CO-72-AssistedLiving-72-AssistedLiving-374,JAXPOINTE AT ALLISON CT ASSISTED LIVING,,,,,,,,,,,, Mr RUSSELL UDELHOFEN, (303)420-9910,, (303)420-9907,,Private,,,,JEFFERSON COUNTY,,8,,LIMITED LIABILITY,,,,,,3525 ALLISON CT,,WHEAT RIDGE,CO,80033,USA,Assisted Living
USA-CO-72-AssistedLiving-72-AssistedLiving-375,JAXPOINTE AT FLOWER COURT ASSISTED LIVING,,,,,,,,,,,, Mr RUSSELL UDELHOFEN, (303)420-9910,, (303)420-9907,,Private,,,,JEFFERSON COUNTY,,8,,LIMITED LIABILITY,,,,,,5475 FLOWER COURT,,ARVADA,CO,80003,USA,Assisted Living
USA-CO-72-AssistedLiving-72-AssistedLiving-376,JAXPOINTE AT HOLLAND ST ASSISTED LIVING,,,,,,,,,,,, Mr RUSSELL UDELHOFEN, (303)420-9910,, (303)420-9907,,Private,,,,JEFFERSON COUNTY,,8,,LIMITED LIABILITY,,,,,,2013 HOLLAND STREET,,LAKEWOOD,CO,80215,USA,Assisted Living
USA-CO-72-AssistedLiving-72-AssistedLiving-377,JAXPOINTE AT SAULSBURY CT ASSISTED LIVING,,,,,,,,,,,, Mr RUSSELL UDELHOFEN, (303)420-5590,, (303)420-9907,,Private,,,,JEFFERSON COUNTY,,8,,LIMITED LIABILITY,,,,,,6445 SAULSBURY CT,,ARVADA,CO,80003,USA,Assisted Living
USA-CO-72-AssistedLiving-72-AssistedLiving-378,JEWELL ASSISTED LIVING,,,,,,,,,,,, Mr GREGG DIRKS, (303)755-7602,, (303)893-4384,,Private, LIMITED LIABILITY,,,ARAPAHOE COUNTY,,12,, (303)480-5624, JEWELL LANSING ASSISTED LIVING LLC,21231 E SADDLEROCK LANE,AURORA,CO,80016,9271 E JEWELL CIRCLE,,DENVER,CO,80231,USA,Assisted Living
USA-CO-72-AssistedLiving-72-AssistedLiving-379,JEWELL PLACE RTF,,,,,,,,,,,, Ms MARY ANNA SEARS, (303)988-8493,, (303)988-8452,,-, CORPORATE NON-PROFIT,,,JEFFERSON COUNTY,,8,, (303)480-5624,,,,,,8640 W JEWELL AVE,,LAKEWOOD,CO,80226,USA,Assisted Living
USA-CO-72-AssistedLiving-72-AssistedLiving-380,JOHN THOMAS HOUSE,,,,,,,,,,,, Mr EVERETT GROVE, (303)739-9913,, (303)739-9869,,-, CORPORATE NON-PROFIT,,,ARAPAHOE COUNTY,,15,, (303)480-5624, AURORA MENTAL HEALTH CENTER,11059  E. BETHANY DRIVE  SUITE 200,AURORA,CO,80014,16390 E 14TH PL,,AURORA,CO,80011,USA,Assisted Living
USA-CO-72-AssistedLiving-72-AssistedLiving-381,JOHN VALLEGOS HOUSE RTF,,,,,,,,,,,, Ms JOANN TONEY, (303)744-7371,, (303)504-7991,,-, CORPORATE NON-PROFIT,,,DENVER COUNTY,,8,, (303)480-5624, MENTAL HEALTH CENTER OF DENVER,4455 EAST 12TH AVE,DENVER,CO,80220,1810 S COLUMBINE ST,,DENVER,CO,80210,USA,Assisted Living
USA-CO-72-AssistedLiving-72-AssistedLiving-382,JOHNSON HOME ACF,,,,,,,,,,,,  PAUL SPICOLA, (719)543-0306,, (719)562-9684,,Medicaid, PROFIT-CORPORATION,,,PUEBLO COUNTY,,21,, (719)583-6123,,,,,,403 W 13TH ST,,PUEBLO,CO,81003,USA,Assisted Living
USA-CO-72-AssistedLiving-72-AssistedLiving-383,"JONESES ASSISTED LIVING, THE",,,,,,,,,,,, Mrs ROBIN NEERGAARD, (970)663-2226,, (970)663-2093,,Medicaid, PROFIT-CORPORATION,,,LARIMER COUNTY,,8,, (303)862-3524,,,,,,2127 EAGLE DR,,LOVELAND,CO,80537,USA,Assisted Living
USA-CO-72-AssistedLiving-72-AssistedLiving-384,JUNIPER VILLAGE AT AURORA,,,,,,,,,,,, Mr THOMAS HUNTER, (303)341-6335,, (303)341-6340,,Private,2,,,ARAPAHOE COUNTY,,52,,PARTNERSHIP,,,,,,11901 E MISSISSIPPI AVE,,AURORA,CO,80012,USA,Assisted Living
USA-CO-72-AssistedLiving-72-AssistedLiving-385,JUNIPER VILLAGE AT LOUISVILLE,,,,,,,,,,,, Ms KARAN MCGRATH, (303)665-3722,, (303)665-5086,,Private,2,,,BOULDER COUNTY,,52,,LIMITED PARTNERSHIP,,,,,,1078 S 88TH ST,,LOUISVILLE,CO,80027,USA,Assisted Living
USA-CO-72-AssistedLiving-72-AssistedLiving-386,JUST FOR SENIORS LIVING CENTER I,,,,,,,,,,,, MS ESTHER HELLER, (303)893-5356,, (303)893-4023,,Medicaid, CORPORATE NON-PROFIT,,,DENVER COUNTY,,8,, (303)480-5624, JUST FOR SENIORS LIVING CTR I,1450 WINONA CT,DENVER,CO,80204,1395 VRAIN ST,,DENVER,CO,80204,USA,Assisted Living
USA-CO-72-AssistedLiving-72-AssistedLiving-387,JUST FOR SENIORS LIVING CENTER II,,,,,,,,,,,, Ms FINE OTUKOLO, (303)238-6722,, (303)232-4095,,Medicaid, PROFIT-CORPORATION,,,JEFFERSON COUNTY,,24,, (303)480-5624, JUST FOR SENIORS LIVING CTR II,1450 WINONA CT,DENVER,CO,80204,1170-1180 BRENTWOOD STREET,,LAKEWOOD,CO,80214,USA,Assisted Living
USA-CO-72-AssistedLiving-72-AssistedLiving-388,KARENS HOUSE,,,,,,,,,,,, Ms MARY ANNA SEARS, (303)424-4136,, (303)424-4125,,Medicaid, CORPORATE NON-PROFIT,,,JEFFERSON COUNTY,,8,, (303)480-5624, JEFFERSON CENTER FOR MENTAL HEALTH-KARENS HOUSE,5801 W. ALAMEDA AVENUE,LAKEWOOD,CO,80226,12751 W 56TH PLACE,,ARVADA,CO,80002,USA,Assisted Living
USA-CO-72-AssistedLiving-72-AssistedLiving-389,KAVOD SENIOR LIFE,,,,,,,,,,,, Ms JENNIFER GRANT, (303)399-1146,, (303)394-4149,,Medicaid, CORPORATE NON-PROFIT,,,DENVER COUNTY,,35,, (303)480-5624," ALLIED HOUSING, INC",22 S ADAMS ST,DENVER,CO,80209,11 S ADAMS ST,,DENVER,CO,80209,USA,Assisted Living
USA-CO-72-AssistedLiving-72-AssistedLiving-390,KEYSTONE PLACE AT LEGACY RIDGE ASSISTED LIVING,,,,,,,,,,,, Ms MELISSA WARD, (303)465-5600,, (303)465-5602,,Medicaid, LIMITED LIABILITY,,,ADAMS COUNTY,,100,, (303)480-5624,,,,,,11150 IRVING DRIVE,,WESTMINSTER,CO,80031,USA,Assisted Living
USA-CO-72-AssistedLiving-72-AssistedLiving-391,KINNICK CENTER RTF,,,,,,,,,,,, Ms SHERRY MEYER PFIFER, (970)347-2281,, (970)392-9940,,-, CORPORATE NON-PROFIT,,,WELD COUNTY,,12,, (970)353-3800, KINNICK CENTER RTF,1306 11TH AVENUE,GREELEY,CO,80631,1316 11TH AVE,,GREELEY,CO,80631,USA,Assisted Living
USA-CO-72-AssistedLiving-72-AssistedLiving-392,KRAFT HOME INC,,,,,,,,,,,, MS JULIA KRAFT, (303)288-2851,, (303)288-2852,,Medicaid, PROFIT-CORPORATION,,,ADAMS COUNTY,,8,, (303)480-5624,,,,,,8154 DOWNING DRIVE,,DENVER,CO,80229,USA,Assisted Living
USA-CO-72-AssistedLiving-72-AssistedLiving-393,LAKEVIEW COMMONS LLC,,,,,,,,,,,,  JANEL BAILY, (970)278-4000,, (970)278-4001,,Medicaid, LIMITED LIABILITY,,,LARIMER COUNTY,,54,, (303)862-3524,,,,,,1422 W 29TH ST,,LOVELAND,CO,80538,USA,Assisted Living
USA-CO-72-AssistedLiving-72-AssistedLiving-394,LAKEWOOD MEMORY CARE,,,,,,,,,,,,  JASON SANCHEZ, (720)358-0014,, (360)882-4501,,Private,5,,,JEFFERSON COUNTY,,55,,LIMITED LIABILITY,,,,,,8201 WEST JEWELL AVENUE,,LAKEWOOD,CO,80232,USA,Assisted Living
USA-CO-72-AssistedLiving-72-AssistedLiving-395,LAKEWOOD TERRACE AFFORDABLE ASSISTED LIVING,,,,,,,,,,,, Mr GREGORY GREEN, (720)484-1760,, (303)558-9898,,Medicaid,: (303)480-5624,,,JEFFERSON COUNTY,,8,,OD TERRACE AFFORDABLE ASSISTED LIVING,,,,,,13969 W WARREN AVENUE,,LAKEWOOD,CO,80228,USA,Assisted Living
USA-CO-72-AssistedLiving-72-AssistedLiving-396,LANDMARK MEMORY CARE,,,,,,,,,,,, Ms DEBORAH HANSON, (720)537-9355,, (720)242-9984,,Private,4,,,BOULDER COUNTY,,54,,LIMITED LIABILITY,,,,,,1744 S PUBLIC ROAD,,LAFAYETTE,CO,80026,USA,Assisted Living
USA-CO-72-AssistedLiving-72-AssistedLiving-397,LANSING ASSISTED LIVING,,,,,,,,,,,, Mr GREGG DIRKS, (720)535-8028,, (303)893-4384,,Private, LIMITED LIABILITY,,,ARAPAHOE COUNTY,,8,, (303)480-5624, JEWELL LANSING ASSISTED LIVING LLC,212131 E. SADDLEROCK LANE,AURORA,CO,80016,2141 S LANSING CT,,AURORA,CO,80014,USA,Assisted Living
USA-CO-72-AssistedLiving-72-AssistedLiving-398,LEARNING SERVICES BEAR CREEK,,,,,,,,,,,,  LORI ENGLAND, (303)989-6660,, (303)988-8311,,Private,5,,,JEFFERSON COUNTY,,15,,PROFIT-CORPORATION,,,,,,7201 W HAMPDEN,,LAKEWOOD,CO,80227,USA,Assisted Living
USA-CO-72-AssistedLiving-72-AssistedLiving-399,LEARNING SERVICES-GLEN DEE,,,,,,,,,,,,  LORI ENGLAND, (303)232-3236,, (303)988-8311,,Private, INDIVIDUAL,,,JEFFERSON COUNTY,,8,, (303)480-5624, LEARNING SERVICES CORPORATION,7201 WEST HAMPDEN AVENUE,LAKEWOOD,CO,80227,1555 GLEN DEE DR,,LAKEWOOD,CO,80215,USA,Assisted Living
USA-CO-72-AssistedLiving-72-AssistedLiving-400,LEAWOOD ASSISTED LIVING,,,,,,,,,,,, Ms CARMEN MUSINA, (720)284-2996,, (720)836-4185,,Private, PROFIT-CORPORATION,,,ARAPAHOE COUNTY,,8,, (303)480-5624,,,,,,6271 W MAPLEWOOD PLACE,,LITTLETON,CO,80123,USA,Assisted Living
USA-CO-72-AssistedLiving-72-AssistedLiving-401,LEAWOOD ASSISTED LIVING #2,,,,,,,,,,,, Ms CARMEN MUSINA, (720)284-2996,,,,Private, LIMITED LIABILITY,,,JEFFERSON COUNTY,,8,, (303)480-5624,,,,,,8385 S YARROW STREET,,LITTLETON,CO,80128,USA,Assisted Living
USA-CO-72-AssistedLiving-72-AssistedLiving-402,LEAWOOD ASSISTED LIVING #3,,,,,,,,,,,, Ms CARMEN MUSINA, (720)630-8228,, (720)836-4182,,Private, LIMITED LIABILITY,,,ARAPAHOE COUNTY,,8,, (303)480-5624, LEAWOOD ASSISTED LIVING,6271 W MAPLEWOOD PLACE,LITTLETON,CO,80123,6398 SOUTH CHASE COURT,,LITTLETON,CO,80123,USA,Assisted Living
USA-CO-72-AssistedLiving-72-AssistedLiving-403,LEAWOOD ASSISTED LIVING #4,,,,,,,,,,,, Ms CARMEN MUSINA, (720)284-2996,, (720)836-4182,,Private, LIMITED LIABILITY,,,ARAPAHOE COUNTY,,8,, (303)480-5624,,,,,,1665 E NOBLE PL,,CENTENNIAL,CO,80121,USA,Assisted Living
USA-CO-72-AssistedLiving-72-AssistedLiving-404,"LEGACY AT BURLINGTON, THE",,,,,,,,,,,, Ms KRISTY FRIHAUF, (719)346-7403,, (719)346-5708,,Medicaid, LIMITED LIABILITY,,,KIT CARSON COUNTY,,24,, (719)348-5562,,,,,,233 S 9TH ST,,BURLINGTON,CO,80807,USA,Assisted Living
USA-CO-72-AssistedLiving-72-AssistedLiving-405,"LEGACY AT LAFAYETTE, THE",,,,,,,,,,,, Ms MARILYN PATTON, (303)666-0691,, (303)666-5496,,Medicaid, LIMITED LIABILITY,,,BOULDER COUNTY,,75,, (303)441-1173,,,,,,225 WANEKA PARKWAY,,LAFAYETTE,CO,80026,USA,Assisted Living
USA-CO-72-AssistedLiving-72-AssistedLiving-406,"LEGACY AT LAMAR, THE",,,,,,,,,,,, Ms DANA CHRISTIE, (719)336-7004,, (719)336-7037,,Medicaid, LIMITED LIABILITY,,,PROWERS COUNTY,,24,, (719)383-3167,,,,,,650 KENDALL DR,,LAMAR,CO,81052,USA,Assisted Living
USA-CO-72-AssistedLiving-72-AssistedLiving-407,"LEGACY AT MONTE VISTA, THE",,,,,,,,,,,, MS CAROLYN DAVID, (719)852-5179,, (719)852-2370,,Medicaid, LIMITED LIABILITY,,,RIO GRANDE COUNTY,,36,, (719)589-4511,,,,,,100 CHICO CAMINO,,MONTE VISTA,CO,81144,USA,Assisted Living
USA-CO-72-AssistedLiving-72-AssistedLiving-408,"LEGACY AT STERLING,THE",,,,,,,,,,,, Ms MEGAN PENNINGTON, (970)526-0400,, (970)526-2976,,Medicaid, LIMITED LIABILITY,,,LOGAN COUNTY,,29,, (970)867-9409,,,,,,2000 ROBIN ROAD,,STERLING,CO,80751,USA,Assisted Living
USA-CO-72-AssistedLiving-72-AssistedLiving-409,"LEGACY AT TRINIDAD, THE",,,,,,,,,,,,  GEORGETTE SANTISTEVAN, (719)846-8662,, (719)846-7369,,Medicaid, LIMITED LIABILITY,,,LAS ANIMAS COUNTY,,28,, (719)845-1133,,,,,,33 LEGACY LANE,,TRINIDAD,CO,81082,USA,Assisted Living
USA-CO-72-AssistedLiving-72-AssistedLiving-410,"LEGACY CENTER, INC",,,,,,,,,,,, Mr JERRELL HORTON, (719)275-2917,, (719)269-8354,,Medicaid, CORPORATE NON-PROFIT,,,FREMONT COUNTY,,40,, (719)275-4979,,,,,,1335 BAUER LANE,,CANON CITY,CO,81212,USA,Assisted Living
USA-CO-72-AssistedLiving-72-AssistedLiving-411,LEGACY COMMONS AT PUEBLO WEST THE,,,,,,,,,,,, Ms CAROLYN SPEAR, (719)547-2538,, (719)547-8294,,Medicaid, LIMITED LIABILITY,,,PUEBLO COUNTY,,56,, (719)583-6123, LEGACY COMMONS AT PUEBLO WEST,179 SOUTH DACONA DRIVE,PUEBLO WEST,CO,81007,170 DACONA DR,,PUEBLO WEST,CO,81007,USA,Assisted Living
USA-CO-72-AssistedLiving-72-AssistedLiving-412,LEGACY HOUSE ELDER CARE,,,,,,,,,,,,  BARBARA SEWELL, (720)708-5064,, (720)708-5063,,Private, LIMITED PARTNERSHIP,,,JEFFERSON COUNTY,,8,, (303)480-5624, LEGACY HOUSE ON LEE ASSISTED LIVING,2520 GREENSBOROUGH DR,HIGHLANDS RANCH,CO,80129,6921 S LEE WAY,,LITTLETON,CO,80127,USA,Assisted Living
USA-CO-72-AssistedLiving-72-AssistedLiving-413,LEGACY HOUSE ELDER CARE-BERRY,,,,,,,,,,,,  BARBARA SEWELL, (720)708-5064,, (720)708-5063,,Private, PARTNERSHIP,,,ARAPAHOE COUNTY,,8,, (303)480-5624, LEGACY HOUSE ELDER CARE-BERRY,2520 GREENSBOROUGH DR,HIGHLANDS RANCH,CO,80129,10405 W BERRY,,LITTLETON,CO,80127,USA,Assisted Living
USA-CO-72-AssistedLiving-72-AssistedLiving-414,LENNOX GUEST HOME INC THE,,,,,,,,,,,, Ms LORI HAMILTON, (303)477-8426,, (303)480-2080,,Medicaid, PROFIT-CORPORATION,,,DENVER COUNTY,,55,, (303)480-5624,,,,,,2875 W 33RD AVENUE,,DENVER,CO,80211,USA,Assisted Living
USA-CO-72-AssistedLiving-72-AssistedLiving-415,LIBBY BORTZ ASSISTED LIVING CENTER,,,,,,,,,,,, Ms MARCY PLAMONDON, (303)347-9755,, (303)347-9642,,Private, CORPORATE NON-PROFIT,,,ARAPAHOE COUNTY,,115,, (303)480-5624,,,,,,5844 S CURTICE,,LITTLETON,CO,80120,USA,Assisted Living
USA-CO-72-AssistedLiving-72-AssistedLiving-416,LIBERTY HEIGHTS ASSISTED LIVING,,,,,,,,,,,, Ms LISA DELONG, (719)481-9494,, (719)481-5148,,Private,7,,,EL PASO COUNTY,,92,,LIMITED LIABILITY,,,,,,12105 AMBASSADOR DRIVE,,COLORADO SPRINGS,CO,80921,USA,Assisted Living
USA-CO-72-AssistedLiving-72-AssistedLiving-417,LIFE QUALITY HOMES II-CHEYENNE HOME,,,,,,,,,,,, Mr DOUGLAS NICOLL, (719)380-7381,, (719)487-9530,,Private,,,,EL PASO COUNTY,,6,,PROFIT-CORPORATION,,,,,,427 W CHEYENNE ROAD,,COLORADO SPRINGS,CO,80906,USA,Assisted Living
USA-CO-72-AssistedLiving-72-AssistedLiving-418,LIFE QUALITY HOMES III-WOODBURN HOME,,,,,,,,,,,, Mr DOUGLAS NICOLL, (719)380-7381,, (719)487-9530,,Private,,,,EL PASO COUNTY,,6,,PROFIT-CORPORATION,,,,,,2402 WOODBURN STREET,,COLORADO SPRINGS,CO,80906,USA,Assisted Living
USA-CO-72-AssistedLiving-72-AssistedLiving-419,LIFE QUALITY HOMES I-OAKRIDGE HOUSE,,,,,,,,,,,, Mr DOUGLAS NICOLL, (719)380-7381,, (719)487-9530,,Private,,,,EL PASO COUNTY,,6,,PROFIT-CORPORATION,,,,,,2204 OAKRIDGE LANE,,COLORADO SPRINGS,CO,80915,USA,Assisted Living
USA-CO-72-AssistedLiving-72-AssistedLiving-420,LIFE QUALITY HOMES IV-LOMA LINDA HOME,,,,,,,,,,,, Mr DOUGLAS NICOLL, (719)380-7381,, (719)487-9530,,Private,,,,EL PASO COUNTY,,8,,PROFIT-CORPORATION,,,,,,19 LOMA LINDA DR,,COLORADO SPRINGS,CO,80906,USA,Assisted Living
USA-CO-72-AssistedLiving-72-AssistedLiving-421,LIGHTHOUSE ASSISTED LIVING INC - WADSWORTH,,,,,,,,,,,, Mr CHARLES LITTLETON, (303)979-0055,, (720)200-4906,,Private, PROFIT-CORPORATION,,,ARAPAHOE COUNTY,,8,, (303)480-5624, LIGHTHOUSE ASSISTED LIVING,10557 WAGON BOX CIRCLE,HIGHLANDS RANCH,CO,80130,8603 S WADSWORTH COURT,,LITTLETON,CO,80128,USA,Assisted Living
USA-CO-72-AssistedLiving-72-AssistedLiving-422,LIGHTHOUSE ASSISTED LIVING INC-ELIZABETH HOUSE,,,,,,,,,,,, Ms ELISABETH LITTLETON, (720)529-8338,, (720)200-4906,,Private, PROFIT-CORPORATION,,,ARAPAHOE COUNTY,,8,, (303)480-5624," LIGHTHOUSE ASSISTED LIVING, INC.",10557 WAGON BOX CIR,HIGHLANDS RANCH,CO,80130,7783 SOUTH ELIZABETH WAY,,CENTENNIAL,CO,80122,USA,Assisted Living
USA-CO-72-AssistedLiving-72-AssistedLiving-423,LIGHTHOUSE ASSISTED LIVING INC-EMPORIA HOUSE,,,,,,,,,,,, Ms ELISABETH LITTLETON, (303)771-3835,, (720)200-4906,,Medicaid, PROFIT-CORPORATION,,,ARAPAHOE COUNTY,,8,, (303)480-5624, LIGHTHOUSE ASSISTED LIVING INC-EMPORIA HOUSE,10557 WAGON BOX CIRCLE,HIGHLANDS RANCH,CO,80130,6318 S EMPORIA CIRCLE,,ENGLEWOOD,CO,80111,USA,Assisted Living
USA-CO-72-AssistedLiving-72-AssistedLiving-424,LIGHTHOUSE ASSISTED LIVING INC-STEELE HOUSE,,,,,,,,,,,, Mr CHARLES LITTLETON, (720)489-0864,, (720)200-4906,,Private, PROFIT-CORPORATION,,,ARAPAHOE COUNTY,,8,, (303)480-5624, LIGHTHOUSE ASSISTED LIVING INC-STEELE HOUSE,10557 WAGON BOX CIRCLE,HIGHLANDS RANCH,CO,80130,6700 SOUTH STEELE STREET,,CENTENNIAL,CO,80122,USA,Assisted Living
USA-CO-72-AssistedLiving-72-AssistedLiving-425,LIGHTHOUSE ASSISTED LIVING NEWLAND LLC,,,,,,,,,,,, Ms ELISABETH LITTLETON, (303)948-1005,, (720)200-4906,,Private, LIMITED LIABILITY,,,ARAPAHOE COUNTY,,8,, (303)480-5624, LIGHTHOUSE ASSISTED LIVING NEWLAND LLC,10557 WAGON BOX CIRCLE,HIGHLANDS RANCH,CO,80130,7070 S NEWLAND COURT,,LITTLETON,CO,80128,USA,Assisted Living
USA-CO-72-AssistedLiving-72-AssistedLiving-426,"LIGHTHOUSE ASSISTED LIVING, INC-IRWIN HOUSE",,,,,,,,,,,, Ms ELISABETH LITTLETON, (720)493-5008,, (720)200-4906,,Private, PROFIT-CORPORATION,,,ARAPAHOE COUNTY,,8,, (303)480-5624," LIGHTHOUSE ASSISTED LIVING, INC.",10557 WAGON BOX CIR,HIGHLANDS RANCH,CO,80130,2745 E IRWIN PLACE,,LITTLETON,CO,80122,USA,Assisted Living
USA-CO-72-AssistedLiving-72-AssistedLiving-427,LIGHTHOUSE ELDER CARE INC,,,,,,,,,,,, Ms ALEXIS COOVER, (970)482-1119,, (970)493-1120,,Private, LIMITED LIABILITY,,,LARIMER COUNTY,,8,, (303)862-3524, FOUR HEARTS GREENBRIAR LLC,500 9TH AVENUE SUITE 7,LONGMONT,CO,80501,700 GREENBRIAR DR,,FORT COLLINS,CO,80524,USA,Assisted Living
USA-CO-72-AssistedLiving-72-AssistedLiving-428,LINCOLN HOUSE RTF,,,,,,,,,,,, Ms JOANN TONEY, (303)296-7759,, (303)504-7991,,-, CORPORATE NON-PROFIT,,,DENVER COUNTY,,11,, (303)480-5624, MENTAL HEALTH CORP OF DENVER,4455 EAST 12TH AVE,DENVER,CO,80220,5201 SHERMAN STREET,,DENVER,CO,80216,USA,Assisted Living
USA-CO-72-AssistedLiving-72-AssistedLiving-429,LINCOLN MEADOWS SENIOR LIVING,,,,,,,,,,,, Ms CYNTHIA BATEY, (303)790-1910,, (303)662-0169,,Private,0,,,DOUGLAS COUNTY,,90,,LIMITED LIABILITY,,,,,,10001 S OSWEGO,,PARKER,CO,80134,USA,Assisted Living
USA-CO-72-AssistedLiving-72-AssistedLiving-430,LINCOLN PARK LIVING CENTER,,,,,,,,,,,, Ms JESSICA BORNS, (719)743-2421,, (719)743-2880,,Medicaid, LIMITED LIABILITY,,,LINCOLN COUNTY,,12,, (719)348-5562, LINCOLN PARK LIVING CENTER`,P.O. BOX 248,HUGO,CO,80821,323 SEVENTH STREET,,HUGO,CO,80821,USA,Assisted Living
USA-CO-72-AssistedLiving-72-AssistedLiving-431,LIT'L PATCH OF HEAVEN INC,,,,,,,,,,,, MS JULIA KRAFT, (303)288-2539,, (303)288-3029,,Medicaid, PROFIT-CORPORATION,,,ADAMS COUNTY,,15,, (303)480-5624,,,,,,8330 CLARKSON ST,,DENVER,CO,80229,USA,Assisted Living
USA-CO-72-AssistedLiving-72-AssistedLiving-432,LITTLE SISTERS OF THE POOR-MULLEN HOME,,,,,,,,,,,, Ms RUTH HORTON, (303)433-7221,, (303)477-0519,,Medicaid, CORPORATE NON-PROFIT,,,DENVER COUNTY,,6,, (303)480-5624,,,,,,3629 W 29TH AVENUE,,DENVER,CO,80211,USA,Assisted Living
USA-CO-72-AssistedLiving-72-AssistedLiving-433,LIVE TO ASSIST,,,,,,,,,,,, Ms MICHELLE WESTERMAN, (970)224-1400,, (970)224-1400,,Private, LIMITED LIABILITY,,,LARIMER COUNTY,,8,, (303)862-3524,,,,,,2914 W PROSPECT,,FORT COLLINS,CO,80526,USA,Assisted Living
USA-CO-72-AssistedLiving-72-AssistedLiving-434,LODGE AT ROCKY MOUNTAIN HEALTH CARE,,,,,,,,,,,,  VALERIE TORRES, (719)473-4789,, (719)473-4825,,Medicaid, CORPORATE NON-PROFIT,,,EL PASO COUNTY,,30,, (719)471-7080, LODGE AT ROCKY MOUNTAIN HEALTH CARE,310 S 14TH ST,COLO SPRINGS,CO,80904,1420 EAST FOUNTAIN BOULEVARD,,COLORADO SPRINGS,CO,80910,USA,Assisted Living
USA-CO-72-AssistedLiving-72-AssistedLiving-435,LOVE HOUSE,,,,,,,,,,,,,(970)454-2219,,,,,,,,,TRIANGLE CROSS RANCH,,,,,,,,,36051 WELD COUNTY ROAD 51,,GALETON,CO,80622,USA,Assisted Living
USA-CO-72-AssistedLiving-72-AssistedLiving-436,LOVELAND HOUSE ASSISTED LIVING,,,,,,,,,,,, Ms PATRICIA STROZZI, (970)663-2223,, (970)663-5352,,Medicaid, LIMITED LIABILITY,,,LARIMER COUNTY,,8,, (303)862-3524,,,,,,2115 EAGLE DR,,LOVELAND,CO,80537,USA,Assisted Living
USA-CO-72-AssistedLiving-72-AssistedLiving-437,LOVING TOUCH ELDERLY ASSISTANT CARE,,,,,,,,,,,, Ms OLIVEA NICHOLSON, (303)798-0074,, (303)798-0139,,Medicaid, LIMITED LIABILITY,,,ADAMS COUNTY,,7,, (303)480-5624,,,,,,280 E STERNE BLVD,,CENTENNIAL,CO,80122,USA,Assisted Living
USA-CO-72-AssistedLiving-72-AssistedLiving-438,MACKENZIE PLACE - COLORADO SPRINGS,,,,,,,,,,,, Mr JOSHUA THOMAS, (719)633-8181,, (719)633-8183,,Private,6,,,EL PASO COUNTY,,84,,LIMITED LIABILITY,,,,,,1655 ELM CREEK VIEW,,COLORADO SPRINGS,CO,80907,USA,Assisted Living
USA-CO-72-AssistedLiving-72-AssistedLiving-439,MACKENZIE PLACE - FORT COLLINS,,,,,,,,,,,,  MICHAEL ERICKSON, (970)207-1939,, (970)207-9555,,Private,6,,,LARIMER COUNTY,,61,,LIMITED LIABILITY,,,,,,4750 PLEASANT OAK DRIVE,,FORT COLLINS,CO,80525,USA,Assisted Living
USA-CO-72-AssistedLiving-72-AssistedLiving-440,MADISON HOUSE,,,,,,,,,,,, Ms LEAH STAFFORD, (970)565-2047,, (970)565-2587,,Medicaid, CORPORATE NON-PROFIT,,,MONTEZUMA COUNTY,,32,, (970)259-1967," SENIOR HOUSING OPTIONS, INC.",1510 SEVENTEENTH STREET,DENVER,CO,80202,120 S MADISON ST,,CORTEZ,CO,81321,USA,Assisted Living
USA-CO-72-AssistedLiving-72-AssistedLiving-441,MAGNOLIA PLACE ASSISTED LIVING,,,,,,,,,,,,  RONNIE LASUT, (720)859-2792,, (720)859-2792,,Medicaid, PROFIT-CORPORATION,,,ARAPAHOE COUNTY,,9,, (303)480-5624,,,,,,394 NOME STREET,,AURORA,CO,80010,USA,Assisted Living
USA-CO-72-AssistedLiving-72-AssistedLiving-442,MAKARIOS ASSISTED LIVING LLC,,,,,,,,,,,, Mr FNU SUYATNO, (303)933-4807,, (303)933-2011,,Medicaid, LIMITED LIABILITY,,,JEFFERSON COUNTY,,8,, (303)480-5624, MAKARIOS ASSISTED LIVING LLC,14691 E. LEHIGH AVENUE,AURORA,CO,80014,11541 W TEMPLE AVE,,LITTLETON,CO,80127,USA,Assisted Living
USA-CO-72-AssistedLiving-72-AssistedLiving-443,MAKARIOS KIT CARSON,,,,,,,,,,,, Mr FNU SUYATNO, (720)283-2127,, (720)283-2128,,Medicaid, LIMITED LIABILITY,,,ARAPAHOE COUNTY,,8,, (303)480-5624, MAKARIOS KIT CARSON,14691 E. LEHIGH AVENUE,AURORA,CO,80014,7488 S KIT CARSON STREET,,CENTENNIAL,CO,80122,USA,Assisted Living
USA-CO-72-AssistedLiving-72-AssistedLiving-444,"MANOR ON MARION CIRCLE, THE",,,,,,,,,,,, Ms LAUREN KANIZAY, (303)794-1841,, (303)794-9211,,Medicaid, LIMITED LIABILITY,,,ARAPAHOE COUNTY,,8,, (303)480-5624, MANOR ON MARION CIRCLE,4800 OLD S WADSWORTH BOULDVARD,LITTLETON,CO,80123,8089 S MARION CIRCLE,,CENTENNIAL,CO,80122,USA,Assisted Living
USA-CO-72-AssistedLiving-72-AssistedLiving-445,"MANOR ON MARSTON LAKE, THE",,,,,,,,,,,, Ms BECKY NORRIS, (303)932-9808,, (720)981-1996,,Medicaid, LIMITED LIABILITY,,,JEFFERSON COUNTY,,50,, (303)480-5624,,,,,,4800 OLD S WADSWORTH BLVD,,LITTLETON,CO,80123,USA,Assisted Living
USA-CO-72-AssistedLiving-72-AssistedLiving-446,"MANOR ON MARSTON LAKE-2, THE",,,,,,,,,,,, Ms BECKY NORRIS, (303)932-9808,, (720)981-1996,,Private, LIMITED LIABILITY,,,ARAPAHOE COUNTY,,8,, (303)480-5624, MANOR ON MARSTON LAKE #2,4800 OLD S. WADSWORTH BLVD,LITTLETON,CO,80123,4802 S WADSWORTH BLVD,,LITTLETON,CO,80123,USA,Assisted Living
USA-CO-72-AssistedLiving-72-AssistedLiving-447,"MANOR ON ORCHARD ROAD, THE",,,,,,,,,,,, Ms LAUREN KANIZAY, (720)283-8420,, (720)981-1996,,Medicaid, LIMITED LIABILITY,,,ARAPAHOE COUNTY,,8,, (303)480-5624, MANOR ON ORCHARD ROAD,4800 OLD S. WADSWORTH BLVD,LITTLETON,CO,80123,290 EAST ORCHARD ROAD,,CENTENNIAL,CO,80121,USA,Assisted Living
USA-CO-72-AssistedLiving-72-AssistedLiving-448,MANOR ON SYCAMORE STREET THE,,,,,,,,,,,, Ms LAUREN KANIZAY, (720)283-8326,, (720)981-1996,,Medicaid, LIMITED LIABILITY,,,ARAPAHOE COUNTY,,10,, (303)480-5624, MANOR ON SYCAMORE STREET,4800 OLD S WADSWORTH BOULEVARD,LITTLETON,CO,80123,6365 S SYCAMORE STREET,,LITTLETON,CO,80120,USA,Assisted Living
USA-CO-72-AssistedLiving-72-AssistedLiving-449,MAPLE GROVE EAST AT CRESTVIEW ASSISTED LIVING,,,,,,,,,,,, Mr RICK SIMPSON, (719)632-6674,, (719)448-9301,,Medicaid, PROFIT-CORPORATION,,,EL PASO COUNTY,,11,, (719)471-7080, PARENT CARE LIFE INC,1414 N HANCOCK AVENUE,COLORADO SPRINGS,CO,80903,1417 E BUENA VENTURA STREET,,COLORADO SPRINGS,CO,80909,USA,Assisted Living
USA-CO-72-AssistedLiving-72-AssistedLiving-450,MAPLEWOOD HOMES,,,,,,,,,,,, Ms JAN DONER, (719)324-5282,, (719)324-5266,,Medicaid, DISTRICT,,,BACA COUNTY,,20,, (719)383-3167, MAPLEWOOD HOMES,PO BOX 206,WALSH,CO,81090,150 NORTH NEVADA,,WALSH,CO,81090,USA,Assisted Living
USA-CO-72-AssistedLiving-72-AssistedLiving-451,"MARY SANDOE HOUSE, THE",,,,,,,,,,,, MS DOROTHY LONGOBARDI, (303)494-7317,, (303)494-0653,,Medicaid, CORPORATE NON-PROFIT,,,BOULDER COUNTY,,24,, (303)441-1173,,,,,,1244 GILLASPIE DR,,BOULDER,CO,80305,USA,Assisted Living
USA-CO-72-AssistedLiving-72-AssistedLiving-452,MARYCREST ASSISTED LIVING,,,,,,,,,,,, Ms PAMELA WRIGHT, (303)433-0282,, (303)433-4838,,Medicaid, CORPORATE NON-PROFIT,,,DENVER COUNTY,,138,, (303)480-5624, MARYCREST ASSISTED LIVING/H&amp;S,2850 COLUMBINE ROAD,DENVER,CO,80221,2800/2850 COLUMBINE RD,,DENVER,CO,80221,USA,Assisted Living
USA-CO-72-AssistedLiving-72-AssistedLiving-453,MASTERS TOUCH HOMES INC,,,,,,,,,,,, Ms PRISCILLA BAPP, (303)694-0710,, (303)794-9539,,Medicaid, PROFIT-CORPORATION,,,ARAPAHOE COUNTY,,11,, (303)480-5624, MASTERS TOUCH HOME,1667 EAST JAMISON PLACE,CENTENNIAL,CO,80122,7422 S MARION ST,,CENTENNIAL,CO,80122,USA,Assisted Living
USA-CO-72-AssistedLiving-72-AssistedLiving-454,MAXWELL CENTER ASSISTED LIVING RESIDENCE,,,,,,,,,,,, Ms SHERRY MEYER PFIFER, (970)353-1956,, (970)392-9940,,Medicaid, CORPORATE NON-PROFIT,,,WELD COUNTY,,14,, (970)353-3800, MAXWELL CENTER ASSISTED LIVING RESIDENCE,1306 11TH AVENUE,GREELEY,CO,80631,1700 7TH AVENUE,,GREELEY,CO,80631,USA,Assisted Living
USA-CO-72-AssistedLiving-72-AssistedLiving-455,MCCOY ASSISTED LIVING AND ALTERNATIVE CARE LLC,,,,,,,,,,,, MS VALERIE MCCOY, (303)375-6645,, (303)371-1402,,Medicaid, LIMITED LIABILITY,,,DENVER COUNTY,,6,, (303)480-5624,,,,,,4652 ANAHEIM CT,,DENVER,CO,80239,USA,Assisted Living
USA-CO-72-AssistedLiving-72-AssistedLiving-456,MEADOW VISTA ASSISTED LIVING AT WALDEN,,,,,,,,,,,, Ms KANCHANA ARYAL, (303)904-2262,, (720)545-2164,,Private, LIMITED LIABILITY,,,DOUGLAS COUNTY,,8,, (303)480-5624, MEADOW VISTA ASSISTED LIVING LLC,8741 HUNTERS HILL LANE,LITTLETON,CA,80125,7243 W WALDEN DRIVE,,LITTLETON,CO,80129,USA,Assisted Living
USA-CO-72-AssistedLiving-72-AssistedLiving-457,MEADOW VISTA ASSISTED LIVING LLC,,,,,,,,,,,, Ms KANCHANA ARYAL, (303)756-6589,, (720)545-2164,,Medicaid, LIMITED LIABILITY,,,DENVER COUNTY,,8,, (303)480-5624," MEADOW VISTA ASSISTED LIVING, LLC",8741 HUNTERS HILL LANE,LITTLETON,CO,80125,3901 E DARTMOUTH AVE,,DENVER,CO,80210,USA,Assisted Living
USA-CO-72-AssistedLiving-72-AssistedLiving-458,MEADOW VISTA ASSISTED LIVING LLC - WADSWORTH,,,,,,,,,,,, Ms KANCHANA ARYAL, (720)320-7719,, (720)545-2164,,Private, LIMITED LIABILITY,,,ARAPAHOE COUNTY,,8,, (303)480-5624, MEADOW VISTA ASSISTED LIVING LLC,2046 ASHWOOD PLACE,HIGHLANDS RANCH,CO,80129,7516 S WADSWORTH COURT,,LITTLETON,CO,80128,USA,Assisted Living
USA-CO-72-AssistedLiving-72-AssistedLiving-459,MEADOWVIEW OF GREELEY PREMIER SENIOR LIVING,,,,,,,,,,,, Ms MEGAN SLUSSER (ENGLER), (970)353-6800,, (970)576-7319,,Private,0,,,WELD COUNTY,,86,,PROFIT-CORPORATION,,,,,,5300 W 29TH STREET,,GREELEY,CO,80634,USA,Assisted Living
USA-CO-72-AssistedLiving-72-AssistedLiving-460,MEDALLION VILLAS,,,,,,,,,,,, Mr MARK GARDNER, (719)381-4963,, (719)381-4998,,Medicaid, PROFIT-CORPORATION,,,EL PASO COUNTY,,44,, (719)471-7080,,,,,,1719 E BIJOU STREET,,COLORADO SPRINGS,CO,80909,USA,Assisted Living
USA-CO-72-AssistedLiving-72-AssistedLiving-461,MESA HOUSE,,,,,,,,,,,, Ms AMELIA FAN, (303)853-3644,, (303)853-3717,,Medicaid, CORPORATE NON-PROFIT,,,ADAMS COUNTY,,10,, (303)480-5624, COMMUNITY REACH CENTER,11285 HIGHLINE DRIVE,NORTHGLENN,CO,80233,5831 EAST 74TH AVENUE,,COMMERCE CITY,CO,80022,USA,Assisted Living
USA-CO-72-AssistedLiving-72-AssistedLiving-462,MESA VIEW RETIREMENT HOME INC,,,,,,,,,,,, MS INA WARREN, (970)564-0716,, (970)882-7997,,Medicaid, PROFIT-CORPORATION,,,MONTEZUMA COUNTY,,16,, (970)259-1967," MESA VIEW RETIREMENT HOME, INC.",16200 RD 31,MANCOS,CO,81328,24760 ROAD G,,CORTEZ,CO,81321,USA,Assisted Living
USA-CO-72-AssistedLiving-72-AssistedLiving-463,MESA VISTA ASSISTED LIVING RESIDENCE,,,,,,,,,,,, Ms KATHY GERMANO, (970)285-1844,, (970)285-6351,,Medicaid, CORPORATE NON-PROFIT,,,GARFIELD COUNTY,,32,, (970)248-2717, SENIOR HOUSING OPTIONS,1510 17TH STREET,DENVER,CO,80202,0072 E SIPPRELLE DR,,PARACHUTE,CO,81635,USA,Assisted Living
USA-CO-72-AssistedLiving-72-AssistedLiving-464,"MEZZANINE-ASSISTED LIVING AT GOLDEN WEST, THE",,,,,,,,,,,, Ms STEPHANIE SCHULER, (303)444-3967,, (303)939-0808,,Medicaid, CORPORATE NON-PROFIT,,,BOULDER COUNTY,,56,, (303)441-1173,,,,,,1055 ADAMS CIRCLE,,BOULDER,CO,80303,USA,Assisted Living
USA-CO-72-AssistedLiving-72-AssistedLiving-465,MILLBROOK HOMES-COVE,,,,,,,,,,,, Ms TAMARI GOOD, (303)774-9296,, (303)220-0380,,Private,,,,BOULDER COUNTY,,5,,LIMITED LIABILITY,,,,,,1746 COVE CT,,LONGMONT,CO,80501,USA,Assisted Living
USA-CO-72-AssistedLiving-72-AssistedLiving-466,MILLBROOK HOMES-FILLMORE,,,,,,,,,,,, Ms JANET CORNELL, (303)221-8353,, (303)220-0380,,Private,,,,ARAPAHOE COUNTY,,8,,LIMITED LIABILITY,,,,,,7364 S FILLMORE CIRCLE,,CENTENNIAL,CO,80122,USA,Assisted Living
USA-CO-72-AssistedLiving-72-AssistedLiving-467,MILLBROOK HOMES-FOX HILL,,,,,,,,,,,, Ms JANET CORNELL, (303)772-2488,, (303)220-0380,,Private,,,,BOULDER COUNTY,,5,,LIMITED LIABILITY,,,,,,5011 FOXHILL DR,,LONGMONT,CO,80501,USA,Assisted Living
USA-CO-72-AssistedLiving-72-AssistedLiving-468,MILLBROOK HOMES-HERITAGE,,,,,,,,,,,, Ms KELLY HAWK, (303)796-8615,, (303)220-0380,,Private,,,,ARAPAHOE COUNTY,,5,,LIMITED LIABILITY,,,,,,6462 S HERITAGE PLACE,,CENTENNIAL,CO,80111,USA,Assisted Living
USA-CO-72-AssistedLiving-72-AssistedLiving-469,MILLBROOK HOMES-KENTON,,,,,,,,,,,, Ms JANET CORNELL, (303)267-0393,, (303)220-0380,,Medicaid, LIMITED LIABILITY,,,ARAPAHOE COUNTY,,5,, (303)480-5624, MILLBROOK HOMES INC,"5650 DTC PARKWAY, SUITE 130",GREENWOOD VILLAGE,CO,80111,5809 S KENTON WAY,,ENGLEWOOD,CO,80111,USA,Assisted Living
USA-CO-72-AssistedLiving-72-AssistedLiving-470,MILLBROOK HOMES-PORTLAND,,,,,,,,,,,, Ms JANET CORNELL, (303)932-1004,, (303)220-0380,,Medicaid, LIMITED LIABILITY,,,JEFFERSON COUNTY,,8,, (303)480-5624, MILLBROOK HOMES INC,"5650 DTC PARKWAY, SUITE 130",GREENWOOD VILLAGE,CO,80111,6731 W PORTLAND PLACE,,LITTLETON,CO,80123,USA,Assisted Living
USA-CO-72-AssistedLiving-72-AssistedLiving-471,MILLBROOK HOMES-WABASH,,,,,,,,,,,,  KELLY HAWK, (303)221-7196,, (303)220-0380,,Private,,,,ARAPAHOE COUNTY,,5,,LIMITED LIABILITY,,,,,,7997 S WABASH COURT,,CENTENNIAL,CO,80111,USA,Assisted Living
USA-CO-72-AssistedLiving-72-AssistedLiving-472,MILLER HOUSE RTF,,,,,,,,,,,, Ms JOANN TONEY, (303)321-2482,, (303)504-7991,,-, CORPORATE NON-PROFIT,,,DENVER COUNTY,,8,, (303)480-5624, MENTAL HEALTH CENTER OF DENVER,4455 EAST 12TH AVE,DENVER,CO,80220,1920 E 13TH AVENUE,,DENVER,CO,80206,USA,Assisted Living
USA-CO-72-AssistedLiving-72-AssistedLiving-473,MIRABELLA ASSISTED LIVING LTD,,,,,,,,,,,, Ms SVETLANA IZMODENOVA, (303)423-8154,, (720)519-0230,,Private, LIMITED LIABILITY,,,JEFFERSON COUNTY,,8,, (303)480-5624,,,,,,8010 WEST 63RD AVENUE,,ARVADA,CO,80004,USA,Assisted Living
USA-CO-72-AssistedLiving-72-AssistedLiving-474,MONACO HOUSE RTF,,,,,,,,,,,, Ms JOANN TONEY, (303)355-4008,, (303)355-0958,,-, CORPORATE NON-PROFIT,,,DENVER COUNTY,,8,, (303)480-5624, MENTAL HEALTH CORPORATION OF DENVER,4455 EAST 12TH AVE,DENVER,CO,80220,1512 MONACO PARKWAY,,DENVER,CO,80220,USA,Assisted Living
USA-CO-72-AssistedLiving-72-AssistedLiving-475,MONARCH GREENS ASSISTED LIVING,,,,,,,,,,,, Ms TAMRA MEURER, (970)449-5644,, (970)449-5645,,Private, LIMITED LIABILITY,,,LARIMER COUNTY,,8,, (303)862-3524, MONARCH GREENS ASSISTED LIVING,1137 WYNDHAM HILL ROAD,FORT COLLINS,CO,80525,1725 LAKEVIEW DRIVE,,FORT COLLINS,CO,80524,USA,Assisted Living
USA-CO-72-AssistedLiving-72-AssistedLiving-476,MONARCH MANOR,,,,,,,,,,,, Mr GARY SPARKS, (303)861-4301,, (303)861-4507,,Medicaid, PROFIT-CORPORATION,,,DENVER COUNTY,,39,, (303)480-5624,,,,,,555 E 11TH AVE,,DENVER,CO,80203,USA,Assisted Living
USA-CO-72-AssistedLiving-72-AssistedLiving-477,MONROE HOUSE RTF,,,,,,,,,,,, Ms JOANN TONEY, (303)377-2586,, (303)504-7991,,-, CORPORATE NON-PROFIT,,,DENVER COUNTY,,12,, (303)480-5624, MENTAL HEALTH CORPORATION OF DENVER,4455 E. 12TH AVE.,DENVER,CO,80220,1425 MONROE STREET,,DENVER,CO,80206,USA,Assisted Living
USA-CO-72-AssistedLiving-72-AssistedLiving-478,MONUMENT ASSISTED LIVING,,,,,,,,,,,, Ms VALERIE SILER, (970)241-6562,, (970)241-7494,,Medicaid, LIMITED LIABILITY,,,MESA COUNTY,,8,, (970)248-2717, MONUMENT ASSISTED LIVING,P.O. BOX 3966,GRAND JUNCTION,CO,81502,2194 MCKINLEY DRIVE,,GRAND JUNCTION,CO,81507,USA,Assisted Living
USA-CO-72-AssistedLiving-72-AssistedLiving-479,MORNINGSTAR ASSISTED LIVING OF LITTLETON,,,,,,,,,,,,  CARA O'CONNOR, (303)972-3030,, (303)979-0680,,Private,0,,,JEFFERSON COUNTY,,112,,LIMITED LIABILITY,,,,,,5344 SOUTH KIPLING PARKWAY,,LITTLETON,CO,80127,USA,Assisted Living
USA-CO-72-AssistedLiving-72-AssistedLiving-480,MORNINGSTAR AT BEAR CREEK,,,,,,,,,,,, Ms SUZANNE CHAPPLE, (719)684-1411,, (303)750-3367,,Private,0,,,EL PASO COUNTY,,60,,LIMITED LIABILITY,,,,,,2450 LOWER GOLD CAMP RD,,COLORADO SPRINGS,CO,80906,USA,Assisted Living
USA-CO-72-AssistedLiving-72-AssistedLiving-481,MORNINGSTAR AT JORDAN,,,,,,,,,,,, Ms DENA MACKEY (P), (303)321-3277,, (303)750-3376,,Private,8,,,ARAPAHOE COUNTY,,105,,LIMITED LIABILITY,,,,,,14301 EAST ARAPAHOE ROAD,,CENTENNIAL,CO,80112,USA,Assisted Living
USA-CO-72-AssistedLiving-72-AssistedLiving-482,MORNINGSTAR AT MOUNTAIN SHADOWS,,,,,,,,,,,, Mr MATT LUCERO, (719)260-5605,, (719)260-5569,,Private,4,,,EL PASO COUNTY,,78,,LIMITED LIABILITY,,,,,,5355 CENTENNIAL BLVD,,COLORADO SPRINGS,CO,80919,USA,Assisted Living
USA-CO-72-AssistedLiving-72-AssistedLiving-483,MORNINGSTAR AT RIDGEGATE,,,,,,,,,,,, Ms RONDA LUNNON, (720)545-1645,, (303)799-8900,,Private,6,,,DOUGLAS COUNTY,,135,,LIMITED LIABILITY,,,,,,10100  COMMONS STREET,,LONE TREE,CO,80124,USA,Assisted Living
USA-CO-72-AssistedLiving-72-AssistedLiving-484,MORNINGSTAR OF BOULDER,,,,,,,,,,,, Ms BRIANNA WESTLAKE, (720)545-1575,,,,Private,8,,,BOULDER COUNTY,,118,,LIMITED LIABILITY,,,,,,575 TANTRA DRIVE,,BOULDER,CO,80305,USA,Assisted Living
USA-CO-72-AssistedLiving-72-AssistedLiving-485,MORNINGSTAR OF FORT COLLINS,,,,,,,,,,,, Ms CHERYL DAVIS, (970)999-8790,,,,Private,0,,,LARIMER COUNTY,,96,,LIMITED LIABILITY,,,,,,3509 LOCHWOOD DRIVE,,FORT COLLINS,CO,80525,USA,Assisted Living
USA-CO-72-AssistedLiving-72-AssistedLiving-486,MORNINGSTAR OF WHEAT RIDGE,,,,,,,,,,,, Mr ERIC ADOLPH, (720)250-9405,, (303)750-3376,,Private,4,,,JEFFERSON COUNTY,,79,,LIMITED LIABILITY,,,,,,10100 W 38TH AVENUE,,LAKEWOOD,CO,80033,USA,Assisted Living
USA-CO-72-AssistedLiving-72-AssistedLiving-487,MORNINGSTAR SENIOR LIVING AT DAYTON PLACE LLC,,,,,,,,,,,, Ms IVA PRINSEN, (303)751-5150,, (303)751-9252,,Private,0,,,ARAPAHOE COUNTY,,122,,LIMITED LIABILITY,,,,,,2000 S DAYTON STREET,,DENVER,CO,80247,USA,Assisted Living
USA-CO-72-AssistedLiving-72-AssistedLiving-488,MOUNTAINVIEW GARDENS,,,,,,,,,,,, Ms NATALIJA FINLAY, (303)659-8670,, (303)374-2820,,Medicaid, LIMITED LIABILITY,,,ADAMS COUNTY,,13,, (303)480-5624, MOUNTAINVIEW GARDENS,4472 MT HARVARD STREET,BRIGHTON,CO,80601,1594 WALNUT DRIVE,,BRIGHTON,CO,80601,USA,Assisted Living
USA-CO-72-AssistedLiving-72-AssistedLiving-489,"MYRON STRATTON HOME, THE",,,,,,,,,,,, MS LINDA SANDEN, (719)540-3113,, (719)579-0447,,Medicaid, CORPORATE NON-PROFIT,,,EL PASO COUNTY,,25,, (719)471-7080, THE MYRON STRATTON HOME,555 GOLD PASS HEIGHTS,COLORADO SPRINGS,CO,80906,2950 HIDDEN TREASURE PT,,COLORADO SPRINGS,CO,80906,USA,Assisted Living
USA-CO-72-AssistedLiving-72-AssistedLiving-490,NARCISSUS HOUSE RTF,,,,,,,,,,,, Ms JOANN TONEY, (303)639-9728,, (303)377-1105,,-, CORPORATE NON-PROFIT,,,DENVER COUNTY,,6,, (303)480-5624, NARCISSUS HOUSE/RTF,4455 EAST 12TH AVE,DENVER,CO,80220,3940 S NARCISSUS WAY,,DENVER,CO,80237,USA,Assisted Living
USA-CO-72-AssistedLiving-72-AssistedLiving-491,NEW DAWN MEMORY CARE,,,,,,,,,,,, Ms. MANDY HAGER (P), (303)997-2929,, (303)997-2930,,Private,8,,,ARAPAHOE COUNTY,,48,,LIMITED LIABILITY,,,,,,2020 S BLACKHAWK STREET,,AURORA,CO,80014,USA,Assisted Living
USA-CO-72-AssistedLiving-72-AssistedLiving-492,NEW DAWN MEMORY CARE BUILDING A,,,,,,,,,,,,,,,,,,,,,,NEW DAWN MEMORY CARE,,,,,,,,,2010 S BLACKHAWK STREET,,AURORA,CO,80014,USA,Assisted Living
USA-CO-72-AssistedLiving-72-AssistedLiving-493,NEW DAWN MEMORY CARE BUILDING B,,,,,,,,,,,,,,,,,,,,,,NEW DAWN MEMORY CARE,,,,,,,,,2020 S BLACKHAWK STREET,,AURORA,CO,80014,USA,Assisted Living
USA-CO-72-AssistedLiving-72-AssistedLiving-494,NEW DAWN MEMORY CARE BUILDING C,,,,,,,,,,,,,,,,,,,,,,NEW DAWN MEMORY CARE,,,,,,,,,2000 S BLACKHAWK STREET,,AURORA,CO,80014,USA,Assisted Living
USA-CO-72-AssistedLiving-72-AssistedLiving-495,NEW DAWN MEMORY CARE-COLORADO SPRINGS,,,,,,,,,,,, Ms NANCY BRITTON, (719)433-3732,, (719)218-9531,,Private,8,,,EL PASO COUNTY,,48,,LIMITED LIABILITY,,,,,,4185 BRIARGATE PARKWAY,,COLORADO SPRINGS,CO,80920,USA,Assisted Living
USA-CO-72-AssistedLiving-72-AssistedLiving-496,NEW DAY COTTAGES AT PINE CREEK,,,,,,,,,,,, Mr STEVE FELDMAN, (719)266-1100,, (719)264-7761,,Private, PROFIT-CORPORATION,,,EL PASO COUNTY,,12,, (719)471-7080, NEW DAY COTTAGES AT PINE CREEK,1577 TURNER ROAD,COLORADO SPRINGS,CO,80920,10975 HOWELLS ROAD,,COLORADO SPRINGS,CO,80908,USA,Assisted Living
USA-CO-72-AssistedLiving-72-AssistedLiving-497,NEW DAY COTTAGES AT TURNER,,,,,,,,,,,, Mr STEVE FELDMAN, (719)266-1100,, (719)264-7761,,Medicaid, PROFIT-CORPORATION,,,EL PASO COUNTY,,11,, (719)471-7080,,,,,,1577 TURNER ROAD,,COLORADO SPRINGS,CO,80920,USA,Assisted Living
USA-CO-72-AssistedLiving-72-AssistedLiving-498,NEW MERCER COMMONS,,,,,,,,,,,,  GINA DIGIALLONARDO, (970)495-1000,, (970)495-0626,,Private,8,,,LARIMER COUNTY,,134,,PROFIT-CORPORATION,,,,,,900 CENTRE AVENUE,,FORT COLLINS,CO,80526,USA,Assisted Living
USA-CO-72-AssistedLiving-72-AssistedLiving-499,NEW VISIONS RTF,,,,,,,,,,,, Ms JOANN TONEY, (303)936-8105,, (303)377-1105,,-, CORPORATE NON-PROFIT,,,DENVER COUNTY,,8,, (303)480-5624, MENTAL HEALTH CORPORATION OF DENVER,4455 EAST 12TH AVE,DENVER,CO,80220,1810 S HOOKER,,DENVER,CO,80219,USA,Assisted Living
USA-CO-72-AssistedLiving-72-AssistedLiving-500,NIGHTINGALE LANE,,,,,,,,,,,, Ms KELLI MOSLEY, (303)424-8777,, (303)424-9642,,Private,8,,,JEFFERSON COUNTY,,28,,PARTNERSHIP,,,,,,12805 W 65TH WAY,,ARVADA,CO,80004,USA,Assisted Living
USA-CO-72-AssistedLiving-72-AssistedLiving-501,NIGHTINGALE SUITES,,,,,,,,,,,, Ms MARY BESSON, (303)424-4411,, (303)424-1469,,Private, PARTNERSHIP,,,JEFFERSON COUNTY,,72,, (303)480-5624,,,,,,12825 W 65TH WAY,,ARVADA,CO,80004,USA,Assisted Living
USA-CO-72-AssistedLiving-72-AssistedLiving-502,NORA PERSONAL CARE ASSISTED LIVING,,,,,,,,,,,, Mrs CAROLE ABAM, (303)617-8131,, (303)680-4549,,Private, LIMITED LIABILITY,,,ARAPAHOE COUNTY,,6,, (303)480-5624, NORA PERSONAL CARE ASSISTED LIVING,21991 EAST RIDGE TRAIL CIRCLE,AURORA,CO,80016,17419 EAST FLORA PLACE,,AURORA,CO,80013,USA,Assisted Living
USA-CO-72-AssistedLiving-72-AssistedLiving-503,NORTH POINTE GARDENS,,,,,,,,,,,, Ms KRISS PRADO, (719)545-6222,, (719)545-6990,,Medicaid, LIMITED LIABILITY,,,PUEBLO COUNTY,,53,, (719)583-6123,,,,,,3777 PARKER BLVD,,PUEBLO,CO,81008,USA,Assisted Living
USA-CO-72-AssistedLiving-72-AssistedLiving-504,NORTHGLENN HEIGHTS ASSISTED LIVING COMMUNITY,,,,,,,,,,,, Mr MICHAEL HOLBROOK, (303)452-0501,, (303)452-4462,,Medicaid,2,,,ADAMS COUNTY,,172,,LIMITED LIABILITY,,,,,,11475 PEARL STREET,,NORTHGLENN,CO,80233,USA,Assisted Living
USA-CO-72-AssistedLiving-72-AssistedLiving-505,NURTURING CARE HOME ASSISTED LIVING,,,,,,,,,,,, Ms LAURIE HENDREN, (303)986-1807,, (303)980-1460,,Private, PROFIT-CORPORATION,,,JEFFERSON COUNTY,,10,, (303)480-5624, NURTURING CARE HOME ASSISTED LIVING,4665 S XAVIER STREET,DENVER,CO,80236,6010 W JEWELL AVENUE,,LAKEWOOD,CO,80227,USA,Assisted Living
USA-CO-72-AssistedLiving-72-AssistedLiving-506,NURTURING CARE HOME ASSISTED LIVING AT STANFORD,,,,,,,,,,,, Ms LAURIE HENDREN, (303)933-2971,, (303)933-2245,,Private, LIMITED PARTNERSHIP,,,JEFFERSON COUNTY,,12,, (303)480-5624, NURTURING CARE HOME ASSISTED LIVING AT STANFORD,4665 S XAVIER ST,DENVER,CO,80236,7052 W STANFORD AVENUE,,LAKEWOOD,CO,80123,USA,Assisted Living
USA-CO-72-AssistedLiving-72-AssistedLiving-507,NURTURING CARE HOME FEDERAL HEIGHTS,,,,,,,,,,,, Ms LAURIE HENDREN, (303)710-2874,, (303)429-1045,,Private, LIMITED LIABILITY,,,ADAMS COUNTY,,16,, (303)480-5624, NURTURING CARE HOME,4665 S XAVIER ST,DENVER,CO,80236,2599 W 90TH AVE,,FEDERAL HEIGHTS,CO,80260,USA,Assisted Living
USA-CO-72-AssistedLiving-72-AssistedLiving-508,NURTURING CARE HOME OTIS,,,,,,,,,,,, Ms LAURIE HENDREN, (303)710-2874,,,,Private,4,,,JEFFERSON COUNTY,,14,,LIMITED LIABILITY,,,,,,5375 OTIS STREET,,ARVADA,CO,80003,USA,Assisted Living
USA-CO-72-AssistedLiving-72-AssistedLiving-509,"OAKS, THE",,,,,,,,,,,, Mr JASON DAVIS, (970)858-2178,, (970)858-4241,,Medicaid, CORPORATE NON-PROFIT,,,MESA COUNTY,,70,, (970)248-2717,,,,,,805 WEST OTTLEY AVE,,FRUITA,CO,81521,USA,Assisted Living
USA-CO-72-AssistedLiving-72-AssistedLiving-510,OAKSHIRE GARDENS,,,,,,,,,,,,  LORELEI JIMENEZ, (719)544-3001,, (719)586-9256,,Medicaid, LIMITED LIABILITY,,,PUEBLO COUNTY,,19,, (719)583-6123, OAKSHIRE GARDENS,33 HEATHER COURT,PUEBLO,CO,81001,2400 OAKSHIRE LANE,,PUEBLO,CO,81001,USA,Assisted Living
USA-CO-72-AssistedLiving-72-AssistedLiving-511,"OASIS, THE",,,,,,,,,,,, Mr JEREMY IDLER, (719)547-3109,, (719)547-3139,,Medicaid, LIMITED LIABILITY,,,PUEBLO COUNTY,,10,, (719)583-6123,,,,,,972 S PURCELL BLVD,,PUEBLO,CO,81001,USA,Assisted Living
USA-CO-72-AssistedLiving-72-AssistedLiving-512,"OBERON HOUSE, THE",,,,,,,,,,,, Mr GREGG DIRKS, (303)420-7258,, (303)420-6375,,Medicaid, LIMITED LIABILITY,,,JEFFERSON COUNTY,,66,, (303)480-5624,,,,,,9160 W 64TH AVENUE,,ARVADA,CO,80004,USA,Assisted Living
USA-CO-72-AssistedLiving-72-AssistedLiving-513,OPEN GATE ASSISTED LIVING,,,,,,,,,,,, Ms HEATHER WOOD, (970)945-9338,, (970)945-8230,,Medicaid, LIMITED LIABILITY,,,GARFIELD COUNTY,,16,, (970)248-2717, MADISON CREEK PARTNERS LLC,"114 PACIFICA, SUITE 230",IRVINE,CA,92618,402 23RD STREET,,GLENWOOD SPRINGS,CO,81601,USA,Assisted Living
USA-CO-72-AssistedLiving-72-AssistedLiving-514,ORCHARDS AT CRESTVIEW,,,,,,,,,,,, Mr RICK SIMPSON, (719)473-6339,, (719)448-9301,,Private, PROFIT-CORPORATION,,,EL PASO COUNTY,,11,, (719)471-7080," ORCHARDS AT CRESTVIEW, THE",1414 N HANCOCK AVE,COLORADO SPRINGS,CO,80903,1409 E BUENA VENTURA ST,,COLORADO SPRINGS,CO,80909,USA,Assisted Living
USA-CO-72-AssistedLiving-72-AssistedLiving-515,OUR FAMILY CARE HOME ASSISTED LIVING LLC,,,,,,,,,,,, Ms MELISSA MOYLAN, (303)237-1536,, (303)237-1690,,Medicaid, LIMITED LIABILITY,,,JEFFERSON COUNTY,,8,, (303)480-5624,,,,,,1169 JOHNSON STREET,,LAKEWOOD,CO,80215,USA,Assisted Living
USA-CO-72-AssistedLiving-72-AssistedLiving-516,P.A.L'S ACF,,,,,,,,,,,, Ms LISA WALDERO, (719)543-4108,, (719)543-4108,,Medicaid, PROFIT-CORPORATION,,,PUEBLO COUNTY,,15,, (719)583-6123,,,,,,232 BROADWAY,,PUEBLO,CO,81004,USA,Assisted Living
USA-CO-72-AssistedLiving-72-AssistedLiving-517,PALISADES AT BROADMOOR PARK,,,,,,,,,,,, Ms TARA MILLER, (719)226-2273,, (719)355-3220,,Private,5,,,EL PASO COUNTY,,77,,LIMITED LIABILITY,,,,,,4531 PALISADES PARK VIEW,,COLORADO SPRINGS,CO,80906,USA,Assisted Living
USA-CO-72-AssistedLiving-72-AssistedLiving-518,PARK HILL RESIDENCE,,,,,,,,,,,, Ms ANGELA SHELTON-BENNETT (P), (303)388-9437,, (303)370-1063,,Medicaid, CORPORATE NON-PROFIT,,,DENVER COUNTY,,36,, (303)480-5624, SENIOR HOUSING OPTIONS,1510 SEVENTEENTH STREET,DENVER,CO,80202,1901 EUDORA STREET,,DENVER,CO,80220,USA,Assisted Living
USA-CO-72-AssistedLiving-72-AssistedLiving-519,PARK PLACE RTF,,,,,,,,,,,, Ms JOANN TONEY, (303)433-3944,, (303)504-7991,,-, CORPORATE NON-PROFIT,,,DENVER COUNTY,,16,, (303)480-5624, MENTAL HEALTH CENTER OF DENVER,4455 EAST 12TH AVE,DENVER,CO,80220,2829 W 33RD AVENUE,,DENVER,CO,80211,USA,Assisted Living
USA-CO-72-AssistedLiving-72-AssistedLiving-520,PARK REGENCY LOVELAND,,,,,,,,,,,, Ms KRISTEN VASQUEZ, (970)461-1100,, (970)461-4650,,Medicaid, LIMITED LIABILITY,,,LARIMER COUNTY,,118,, (303)862-3524, PARK REGENCY LOVELAND,15475 GLENEAGLE DR,COLORADO SPRINGS,CO,80921,1875 FALL RIVER DRIVE,,LOVELAND,CO,80538,USA,Assisted Living
USA-CO-72-AssistedLiving-72-AssistedLiving-521,PARK REGENCY THORNTON,,,,,,,,,,,, Mr ED SEILER, (303)350-5820,, (303)350-5821,,Private,2,,,ADAMS COUNTY,,130,,LIMITED LIABILITY,,,,,,12610 HUDSON,,THORNTON,CO,80241,USA,Assisted Living
USA-CO-72-AssistedLiving-72-AssistedLiving-522,PARKER ASSISTED LIVING BY MORNINGSTAR,,,,,,,,,,,, Mr STEVE MCCONAGHIE, (303)805-0818,, (303)805-8111,,Private,6,,,DOUGLAS COUNTY,,167,,LIMITED LIABILITY,,,,,,18900 E MAINSTREET,,PARKER,CO,80134,USA,Assisted Living
USA-CO-72-AssistedLiving-72-AssistedLiving-523,PARRISH CARE CENTER,,,,,,,,,,,, Ms CHARLENE SVITAK, (970)848-8444,, (970)848-2272,,Medicaid, PROFIT-CORPORATION,,,YUMA COUNTY,,28,, (970)867-9409,,,,,,600 W 10TH AVE,,YUMA,CO,80759,USA,Assisted Living
USA-CO-72-AssistedLiving-72-AssistedLiving-524,PEACE HOUSE,,,,,,,,,,,,,(970)454-2219,,,,,,,,,TRIANGLE CROSS RANCH,,,,,,,,,36053 WELD COUNTY ROAD 51,,GALETON,CO,80622,USA,Assisted Living
USA-CO-72-AssistedLiving-72-AssistedLiving-525,PEACHTREE ASSISTED LIVING LLC #1,,,,,,,,,,,, MR RONNY ORIBELLO, (970)434-7062,, (970)434-0485,,Medicaid, INDIVIDUAL,,,MESA COUNTY,,16,, (970)248-2717,,,,,,3450 F ROAD,,CLIFTON,CO,81520,USA,Assisted Living
USA-CO-72-AssistedLiving-72-AssistedLiving-526,PEACHTREE ASSISTED LIVING LLC #2,,,,,,,,,,,, MR RONNY ORIBELLO, (970)434-6764,, (970)434-0485,,Medicaid, PROFIT-CORPORATION,,,MESA COUNTY,,15,, (970)248-2717,,,,,,3452 F ROAD,,CLIFTON,CO,81520,USA,Assisted Living
USA-CO-72-AssistedLiving-72-AssistedLiving-527,"PEAKS ASSISTED LIVING CENTER, THE",,,,,,,,,,,, Ms JERUSHA SIEGEL, (303)776-2814,, (303)776-5362,,Medicaid, LIMITED LIABILITY,,,BOULDER COUNTY,,16,, (303)441-1173,,,,,,1440 COFFMAN STREET,,LONGMONT,CO,80501,USA,Assisted Living
USA-CO-72-AssistedLiving-72-AssistedLiving-528,"PEAKS AT OLD LARAMIE TRAIL, THE",,,,,,,,,,,, Mr MATTHEW WISTREICH, (303)440-6050,, (303)440-6070,,Private,4,,,BOULDER COUNTY,,95,,LIMITED PARTNERSHIP,,,,,,660 OLD LARAMIE TRAIL,,LAFAYETTE,CO,80026,USA,Assisted Living
USA-CO-72-AssistedLiving-72-AssistedLiving-529,PEAKVIEW ASSISTED LIVING AND MEMORY CARE,,,,,,,,,,,, Ms DANA ANDRESKI, (303)589-9962,, (720)870-0253,,Private,4,,,ARAPAHOE COUNTY,,85,,LIMITED LIABILITY,,,,,,6021 SOUTH LIVERPOOL STREET,,AURORA,CO,80016,USA,Assisted Living
USA-CO-72-AssistedLiving-72-AssistedLiving-530,PEARL ASSISTED LIVING LLC,,,,,,,,,,,, Mr MICHAEL YATES, (303)646-1156,, (303)646-8757,,Medicaid, LIMITED LIABILITY,,,ELBERT COUNTY,,8,, (719)348-5562, PEARL ASSISTED LIVING LLC,5333 PINON DRIVE,ELIZABETH,CO,80107,350 S PEARL STREET,,ELIZABETH,CO,80107,USA,Assisted Living
USA-CO-72-AssistedLiving-72-AssistedLiving-531,PEASE GUEST HOME,,,,,,,,,,,, MS CAREN PEASE, (719)546-0104,,,,Medicaid, INDIVIDUAL,,,PUEBLO COUNTY,,8,, (719)583-6123,,,,,,401 W 13TH STREET,,PUEBLO,CO,81003,USA,Assisted Living
USA-CO-72-AssistedLiving-72-AssistedLiving-532,PENNY LANE ASSISTED LIVING RESIDENCE,,,,,,,,,,,, Ms LAURIE WILSON, (303)961-4382,, (303)933-5981,,Medicaid, PROFIT-CORPORATION,,,ARAPAHOE COUNTY,,8,, (303)480-5624, PENNY LANE ASSISTED LIVING INC,2760 W RIVERWALK CR UNIT B,LITTLETON,CO,80123,7463 E COSTILLA PLACE,,CENTENNIAL,CO,80112,USA,Assisted Living
USA-CO-72-AssistedLiving-72-AssistedLiving-533,PEREGRINE SENIOR LIVING AT AURORA,,,,,,,,,,,, Mr SCOTT MACDONALD, (303)766-8867,, (303)693-2266,,Private,4,,,ARAPAHOE COUNTY,,64,,LIMITED LIABILITY,,,,,,7475 SHAWNEE STREET,,AURORA,CO,80016,USA,Assisted Living
USA-CO-72-AssistedLiving-72-AssistedLiving-534,PEREGRINE SENIOR LIVING AT GLENWOOD SPRINGS,,,,,,,,,,,, Ms STEPHANIE KELLER, (970)355-3345,, (315)475-9729,,Private,4,,,GARFIELD COUNTY,,34,,LIMITED LIABILITY,,,,,,2800 MIDLAND AVE,,GLENWOOD SPRINGS,CO,81601,USA,Assisted Living
USA-CO-72-AssistedLiving-72-AssistedLiving-535,PILGRIM HOUSE ASSISTED LIVING,,,,,,,,,,,, Mr MICHAEL BONDS, (970)255-8345,, (970)255-8437,,Medicaid, LIMITED LIABILITY,,,MESA COUNTY,,9,, (970)248-2717," PILGRIM HOUSE, LLC",563 20 ROAD,GRAND JUNCTION,CO,81507,405 W MAYFIELD DR,,GRAND JUNCTION,CO,81507,USA,Assisted Living
USA-CO-72-AssistedLiving-72-AssistedLiving-536,PINE TRAILS AT CASTLE ROCK,,,,,,,,,,,, Ms KIMBERLY BACKES, (720)708-4475,, (720)708-4480,,Private,4,,,DOUGLAS COUNTY,,48,,LIMITED LIABILITY,,,,,,864 BARRANCA DRIVE,,CASTLE ROCK,CO,80104,USA,Assisted Living
USA-CO-72-AssistedLiving-72-AssistedLiving-537,PINEY CREEK ASSISTED LIVING,,,,,,,,,,,, Ms CAROLYN COLLEEN OMITERU, (303)797-9110,, (720)204-2652,,Medicaid, PROFIT-CORPORATION,,,ADAMS COUNTY,,8,, (303)480-5624, ANDIRA LLC,P.O. BOX 631053,AURORA,CO,80163,6666 S PINEY CREEK CIRCLE,,CENTENNIAL,CO,80016,USA,Assisted Living
USA-CO-72-AssistedLiving-72-AssistedLiving-538,PLANET VIEW ASSISTED LIVING LLC,,,,,,,,,,,, Mr CHUKWUMA EMEH, (505)231-5585,, (505)231-5585,,Private, LIMITED LIABILITY,,,ARAPAHOE COUNTY,,5,, (303)480-5624,,,,,,18931 E BRUNSWICK PLACE,,AURORA,CO,80013,USA,Assisted Living
USA-CO-72-AssistedLiving-72-AssistedLiving-539,POINT OF THE PINES GARDENS ASSISTED LIVING,,,,,,,,,,,, Ms RODA SANTIAGO, (719)265-0030,, (719)260-5518,,Medicaid, LIMITED LIABILITY,,,EL PASO COUNTY,,115,, (719)471-7080,,,,,,330 ELKTON DRIVE,,COLORADO SPRINGS,CO,80907,USA,Assisted Living
USA-CO-72-AssistedLiving-72-AssistedLiving-540,POPPY'S PLACE,,,,,,,,,,,, MS DELANE MURPHY, (303)741-2413,, (303)282-9424,,Medicaid, PROFIT-CORPORATION,,,ARAPAHOE COUNTY,,8,, (303)480-5624, POPPY'S PLACE,1280 S WILLIAMS,DENVER,CO,80210,6088 S LOCUST ST,,CENTENNIAL,CO,80111,USA,Assisted Living
USA-CO-72-AssistedLiving-72-AssistedLiving-541,PORTER PLACE INC,,,,,,,,,,,, Ms KRYSTINA ENRIQUEZ (P), (303)765-6800,, (303)765-6808,,Private,9,,,DENVER COUNTY,,175,,CORPORATE NON-PROFIT,,,,,,1001 E YALE AVENUE,,DENVER,CO,80210,USA,Assisted Living
USA-CO-72-AssistedLiving-72-AssistedLiving-542,PRAIRIE CREEKS LIVING CENTER,,,,,,,,,,,, MS MARGARET COZZA, (303)622-6262,, (303)622-6263,,Medicaid, CORPORATE NON-PROFIT,,,ADAMS COUNTY,,19,, (303)480-5624,,,,,,56175 SUNSET AVE,,STRASBURG,CO,80136,USA,Assisted Living
USA-CO-72-AssistedLiving-72-AssistedLiving-543,PRAIRIE PINES ASSISTED LIVING COMMUNITY,,,,,,,,,,,,  TINA KRAFT, (719)438-2141,, (719)438-2140,,Medicaid, CORPORATE NON-PROFIT,,,KIOWA COUNTY,,24,, (719)383-3167, PRAIRIE PINES ASSISTED LIVING COMMUNITY,PO BOX 787,EADS,CO,81036,101 E LOWELL AVENUE,,EADS,CO,81036,USA,Assisted Living
USA-CO-72-AssistedLiving-72-AssistedLiving-544,PRAIRIE VIEW VILLAGE OF LAS ANIMAS,,,,,,,,,,,, Ms CANDICE PATTON, (719)456-1340,, (719)456-1993,,Medicaid, CITY-COUNTY,,,BENT COUNTY,,16,, (719)383-3167, PRAIRIE VIEW VILLAGE OF LAS ANIMAS,810 THIRD ST,LAS ANIMAS,CO,81054,821 SECOND ST,,LAS ANIMAS,CO,81054,USA,Assisted Living
USA-CO-72-AssistedLiving-72-AssistedLiving-545,PRIMROSE PLACE,,,,,,,,,,,, MS VALERIE BOYCE, (970)667-5962,, (970)667-2834,,Medicaid, PROFIT-CORPORATION,,,LARIMER COUNTY,,20,, (303)862-3524,,,,,,1330 E 1ST ST,,LOVELAND,CO,80537,USA,Assisted Living
USA-CO-72-AssistedLiving-72-AssistedLiving-546,PRIMROSE RETIREMENT COMMUNITY OF PUEBLO,,,,,,,,,,,, Ms GLINDA MACKENZIE, (719)543-3300,, (719)696-8175,,Private, LIMITED LIABILITY,,,PUEBLO COUNTY,,45,, (719)583-6123,,,,,,5055 OUTLOOK BOULEVARD,,PUEBLO,CO,81008,USA,Assisted Living
USA-CO-72-AssistedLiving-72-AssistedLiving-547,PUEBLO WEST GARDENS ASSISTED LIVING,,,,,,,,,,,, Ms TRISCHA SANTIAGO, (719)924-8624,, (719)924-8993,,Medicaid, LIMITED LIABILITY,,,PUEBLO COUNTY,,65,, (719)583-6123,,,,,,960 E SAXONY DRIVE,,PUEBLO WEST,CO,81007,USA,Assisted Living
USA-CO-72-AssistedLiving-72-AssistedLiving-548,RANDOLPH ASSISTED LIVING LLC,,,,,,,,,,,, Ms MONALISA RANDOLPH, (303)574-0674,, (303)375-0674,,Medicaid, LIMITED LIABILITY,,,DENVER COUNTY,,7,, (303)480-5624,,,,,,12974 ELGIN DRIVE,,DENVER,CO,80239,USA,Assisted Living
USA-CO-72-AssistedLiving-72-AssistedLiving-549,RAQUITA'S HOME AWAY FROM HOME ASSISTED LIVING,,,,,,,,,,,, MS ADRIENNE WILLIAMS, (303)745-1415,, (303)745-1415,,Medicaid, LIMITED LIABILITY,,,ARAPAHOE COUNTY,,6,, (303)480-5624,,,,,,2412 S GENOA WAY,,AURORA,CO,80013,USA,Assisted Living
USA-CO-72-AssistedLiving-72-AssistedLiving-550,RENAISSANCE MEMORY CARE 1 LLC,,,,,,,,,,,, Ms RACHEL VAZQUEZ, (720)648-7454,, (720)549-7561,,Private, LIMITED LIABILITY,,,ADAMS COUNTY,,8,, (303)480-5624, RENAISSANCE MEMORY CARE,4833 FRONT STREET UNIT B #462,CASTLE ROCK,CO,80104,9896 KEENAN STREET,,HIGHLANDS RANCH,CO,80130,USA,Assisted Living
USA-CO-72-AssistedLiving-72-AssistedLiving-551,RENAISSANCE MEMORY CARE 2 LLC,,,,,,,,,,,, Mr KENAN FYFE, (720)648-7454,, (720)549-7561,,Private, LIMITED LIABILITY,,,DOUGLAS COUNTY,,14,, (303)480-5624, RENAISSANCE MEMORY CARE LLC,2409 MORNINGVIEW LANE,CASTLE ROCK,CO,80109,572 EVENINGSONG DR.,,CASTLE ROCK,CO,80104,USA,Assisted Living
USA-CO-72-AssistedLiving-72-AssistedLiving-552,RENAISSANCE MEMORY CARE 3 LLC,,,,,,,,,,,, Ms RACHEL VAZQUEZ, (720)648-7454,, (720)549-7561,,Private, LIMITED LIABILITY,,,DOUGLAS COUNTY,,8,, (303)480-5624,,,,,,17618 GROUSEBERRY WAY,,PARKER,CO,80134,USA,Assisted Living
USA-CO-72-AssistedLiving-72-AssistedLiving-553,RENAISSANCE MEMORY CARE 4 LLC,,,,,,,,,,,, Mr KENAN FYFE, (720)965-0484,, (720)549-7561,,Private, LIMITED LIABILITY,,,DOUGLAS COUNTY,,8,, (303)480-5624, RENAISSANCE MEMORY CARE LLC,4833 FRONT ST. UNIT B #462,CASTLE ROCK,CO,80104,8788 S FORREST DRIVE,,HIGHLANDS RANCH,CO,80126,USA,Assisted Living
USA-CO-72-AssistedLiving-72-AssistedLiving-554,RENAISSANCE MEMORY CARE LLC,,,,,,,,,,,, Ms ASHLEY FYFE, (303)284-5018,, (720)549-7561,,Private, LIMITED LIABILITY,,,DOUGLAS COUNTY,,8,, (303)480-5624, RENAISSANCE MEMORY CARE LLC,4833 FRONT STREET UNIT B 462,CASTLE ROCK,CO,80104,2951 CLAIRTON DR,,HIGHLANDS RANCH,CO,80126,USA,Assisted Living
USA-CO-72-AssistedLiving-72-AssistedLiving-555,RESIDENCE AT GRAND MESA,,,,,,,,,,,, Mr SCOTT SAUNDERS, (970)241-8893,, (970)242-1770,,Medicaid, PARTNERSHIP,,,MESA COUNTY,,65,, (970)248-2717,,,,,,565 28 1/4 ROAD,,GRAND JUNCTION,CO,81501,USA,Assisted Living
USA-CO-72-AssistedLiving-72-AssistedLiving-556,"RESIDENCE AT OAKRIDGE, THE",,,,,,,,,,,, MS CLAUDIA HART, (970)229-5800,, (970)229-5802,,Medicaid, PROFIT-CORPORATION,,,LARIMER COUNTY,,68,, (303)862-3524,,,,,,4750 WHEATON DRIVE,,FORT COLLINS,CO,80525,USA,Assisted Living
USA-CO-72-AssistedLiving-72-AssistedLiving-557,"RESIDENCE AT SKYWAY PARK, LLC",,,,,,,,,,,, MR RICHARD LARSEN, (719)227-7340,, (719)227-7344,,Medicaid, LIMITED LIABILITY,,,EL PASO COUNTY,,68,, (719)471-7080,,,,,,886 ARCTURUS DRIVE,,COLORADO SPRINGS,CO,80905,USA,Assisted Living
USA-CO-72-AssistedLiving-72-AssistedLiving-558,RESIDENCE AT VILLAGE GREEN,,,,,,,,,,,, Ms JULIE HENDERSON, (719)999-5744,, (719)999-5721,,Medicaid, LIMITED LIABILITY,,,EL PASO COUNTY,,68,, (719)471-7080,,,,,,3455 N CAREFREE CIRCLE,,COLORADO SPRINGS,CO,80917,USA,Assisted Living
USA-CO-72-AssistedLiving-72-AssistedLiving-559,"RETREAT AT CHURCH RANCH, THE",,,,,,,,,,,, Ms CINDY AVERY, (303)469-7178,, (303)464-7658,,Medicaid, LIMITED LIABILITY,,,JEFFERSON COUNTY,,55,, (303)480-5624,,,,,,10190 WADSWORTH BLVD,,WESTMINSTER,CO,80021,USA,Assisted Living
USA-CO-72-AssistedLiving-72-AssistedLiving-560,RETREAT AT HARBOR COVE,,,,,,,,,,,, Ms ANNETTE MARCUM, (970)243-7224,, (970)243-0533,,Medicaid, PROFIT-CORPORATION,,,MESA COUNTY,,76,, (970)248-2717,,,,,,2835 PATTERSON RD,,GRAND JUNCTION,CO,81506,USA,Assisted Living
USA-CO-72-AssistedLiving-72-AssistedLiving-561,RETREAT AT HIGHLANDS THE,,,,,,,,,,,, Ms SARETTA RAMOS, (303)462-0934,, (303)462-0943,,Medicaid, LIMITED LIABILITY,,,JEFFERSON COUNTY,,46,, (303)480-5624,,,,,,3315 SHERIDAN BLVD,,WHEAT RIDGE,CO,80212,USA,Assisted Living
USA-CO-72-AssistedLiving-72-AssistedLiving-562,"RETREAT AT PALISADE, THE",,,,,,,,,,,,  AMBER SCHULTZ, (970)464-5167,, (970)464-1007,,Medicaid, PROFIT-CORPORATION,,,MESA COUNTY,,81,, (970)248-2717,,,,,,3781 HERITAGE LANE,,PALISADE,CO,81526,USA,Assisted Living
USA-CO-72-AssistedLiving-72-AssistedLiving-563,RISING SUN SENIOR HOME AT BELMAR INC THE,,,,,,,,,,,, Ms SANDRA KUSI-APPIAH, (303)989-0301,, (303)989-0450,,Private, PROFIT-CORPORATION,,,JEFFERSON COUNTY,,12,, (303)480-5624,,,,,,835 S FLOWER STREET,,LAKEWOOD,CO,80226,USA,Assisted Living
USA-CO-72-AssistedLiving-72-AssistedLiving-564,"RISING SUN SENIOR HOME, THE",,,,,,,,,,,,  NANA BOGYAH, (303)937-3473,, (303)937-5350,,Medicaid, PROFIT-CORPORATION,,,JEFFERSON COUNTY,,15,, (303)480-5624,,,,,,421 &amp; 431 S FENTON STREET,,LAKEWOOD,CO,80226,USA,Assisted Living
USA-CO-72-AssistedLiving-72-AssistedLiving-565,ROBERT RUSSELL BUILDING,,,,,,,,,,,,,(303)111-1111,,,,,,,,,"ROBERT RUSSELL EASTERN STAR-MASONIC CENTER OF COLORADO, INC",,,,,,,,,2445 S QUEBEC ST,,DENVER,CO,80231,USA,Assisted Living
USA-CO-72-AssistedLiving-72-AssistedLiving-566,"ROBERT RUSSELL EASTERN STAR-MASONIC CENTER OF COLORADO, INC",,,,,,,,,,,, MR LARRY LILLO, (303)756-9489,, (303)753-2102,,Medicaid,0,,,DENVER COUNTY,,111,,CORPORATE NON-PROFIT,,,,,,2445 S QUEBEC STREET,,DENVER,CO,80231,USA,Assisted Living
USA-CO-72-AssistedLiving-72-AssistedLiving-567,ROCK CREEK ASSISTED LIVING AT SOMERSET VILLAGE,,,,,,,,,,,, Mr WILLIAM FLYNN, (303)596-3300,, (303)338-0133,,Medicaid, LIMITED LIABILITY,,,ARAPAHOE COUNTY,,10,, (303)480-5624, ROCK CREEK ASSISTED LIVING AT SOMERSET VILLAGE,8101 E DARTMOUTH AVENUE  #60,DENVER,CO,80231,1109 S RIFLE STREET,,AURORA,CO,80017,USA,Assisted Living
USA-CO-72-AssistedLiving-72-AssistedLiving-568,ROCK CREEK ASSISTED LIVING ON KENTON,,,,,,,,,,,, Mr WILLIAM FLYNN, (303)632-8393,, (303)337-6025,,Medicaid, LIMITED LIABILITY,,,ARAPAHOE COUNTY,,10,, (303)480-5624, ROCK CREEK ASSISTED LIVING @ KENTON,8101 EAST DARTMOUTH AVENUE #60,DENVER,CO,80234,1994 S KENTON COURT,,AURORA,CO,80014,USA,Assisted Living
USA-CO-72-AssistedLiving-72-AssistedLiving-569,ROCK CREEK ASSISTED LIVING ON NIAGARA,,,,,,,,,,,, Mr WILLIAM FLYNN, (303)999-0040,, (303)757-2805,,Medicaid, LIMITED LIABILITY,,,ARAPAHOE COUNTY,,8,, (303)480-5624, ROCK CREEK ASSISTED LIVING ON NIAGARA,8101 E DARTMOUTH AVENUE #60,DENVER,CO,80234,1721 S NIAGARA WAY,,DENVER,CO,80224,USA,Assisted Living
USA-CO-72-AssistedLiving-72-AssistedLiving-570,ROCKY MOUNTAIN ASSISTED LIVING,,,,,,,,,,,, Mr ERIC LEWIS, (303)471-1914,, (303)284-2487,,Medicaid, LIMITED LIABILITY,,,ARAPAHOE COUNTY,,10,, (303)480-5624, ROCKY MOUNTAIN ASSISTED LIVING,6143 S WILLOW DR STE 401,GREENWOOD VILLAGE,CO,80111,9970 SILVER MAPLE ROAD,,HIGHLANDS RANCH,CO,80129,USA,Assisted Living
USA-CO-72-AssistedLiving-72-AssistedLiving-571,ROCKY MOUNTAIN ASSISTED LIVING - CHESTNUT,,,,,,,,,,,, Mr DAVID LEWIS, (303)996-6886,, (303)756-3263,,Private, LIMITED LIABILITY,,,ADAMS COUNTY,,16,, (303)480-5624, ROCKY MOUNTAIN ASSISTED LIVING,6143 S WILLOW DRIVE SUITE 401,GREENWOOD VILLAGE,CO,80111,6824 CHESTNUT HILL STREET,,HIGHLANDS RANCH,CO,80130,USA,Assisted Living
USA-CO-72-AssistedLiving-72-AssistedLiving-572,ROCKY MOUNTAIN ASSISTED LIVING - GLENCOE,,,,,,,,,,,, Mr ERIC LEWIS, (303)996-6886,, (303)756-3263,,Private, LIMITED LIABILITY,,,ARAPAHOE COUNTY,,10,, (303)480-5624, ROCKY MOUNTAIN ASSISTED LIVING,6143 S WILLOW DR STE 401,GREENWOOD VILLAGE,CO,80111,6002 S GLENCOE WAY,,CENTENNIAL,CO,80121,USA,Assisted Living
USA-CO-72-AssistedLiving-72-AssistedLiving-573,ROCKY MOUNTAIN ASSISTED LIVING 44TH AVE AL,,,,,,,,,,,, Ms JESSICA HARMON, (303)996-6886,, (303)217-8025,,Private, LIMITED LIABILITY,,,JEFFERSON COUNTY,,18,, (303)480-5624, ROCKY MOUNTAIN ASSISTED LIVING LLC,6143 S WILLOW DRIVE SUITE 401,GREENWOOD VILLAGE,CO,80111,7850 W 44TH AVE,,WHEAT RIDGE,CO,80033,USA,Assisted Living
USA-CO-72-AssistedLiving-72-AssistedLiving-574,ROCKY MOUNTAIN ASSISTED LIVING 44TH AVE MC,,,,,,,,,,,, Ms JESSICA HARMON, (303)996-6886,, (303)217-8025,,Private,8,,,JEFFERSON COUNTY,,18,,LIMITED LIABILITY,,,,,,7860 W 44TH AVE,,WHEAT RIDGE,CO,80033,USA,Assisted Living
USA-CO-72-AssistedLiving-72-AssistedLiving-575,ROCKY MOUNTAIN ASSISTED LIVING- EUCLID,,,,,,,,,,,, Mr ERIC LEWIS, (303)996-6886,, (303)756-3263,,Private, PROFIT-CORPORATION,,,ARAPAHOE COUNTY,,12,, (303)480-5624, ROCKY MOUNTAIN ASSISTED LIVING-EUCLID,6143 S WILLOW DR STE 401,GREENWOOD VILLAGE,CO,80111,3638 E EUCLID AVE,,CENTENNIAL,CO,80121,USA,Assisted Living
USA-CO-72-AssistedLiving-72-AssistedLiving-576,ROCKY MOUNTAIN ASSISTED LIVING- MILWAUKEE,,,,,,,,,,,, Mr ERIC LEWIS, (303)996-6886,, (303)217-8025,,Private,2,,,ARAPAHOE COUNTY,,12,,CORPORATE NON-PROFIT,,,,,,5905 S MILWAUKEE WAY,,CENTENNIAL,CO,80121,USA,Assisted Living
USA-CO-72-AssistedLiving-72-AssistedLiving-577,ROCKY MOUNTAIN ASSISTED LIVING QUINCY,,,,,,,,,,,, Mr ERIC LEWIS, (303)996-6886,, (303)217-8025,,Private, LIMITED LIABILITY,,,JEFFERSON COUNTY,,16,, (303)480-5624, ROCKY MOUNTAIN ASSISTED LIVING,"6143 S WILLOW DRIVE, SUITE 401",GREENWOOD VILLAGE,CO,80111,7975 W QUINCY AVENUE,,LAKEWOOD,CO,80123,USA,Assisted Living
USA-CO-72-AssistedLiving-72-AssistedLiving-578,ROCKY MOUNTAIN ASSISTED LIVING- VIRGINIA,,,,,,,,,,,, Mr ERIC LEWIS, (303)996-6886,, (303)756-3263,,Private, PROFIT-CORPORATION,,,JEFFERSON COUNTY,,12,, (303)480-5624, ROCKY MOUNTAIN ASSISTED LIVING- VIRGINIA,"6143 S WILLOW DR., STE. 401",GREENWOOD VILLAGE,CO,80111,9000 W VIRGINIA AVE,,LAKEWOOD,CO,80226,USA,Assisted Living
USA-CO-72-AssistedLiving-72-AssistedLiving-579,ROCKY MOUNTAIN ASSISTED LIVING-NEWLAND,,,,,,,,,,,, Mr ERIC LEWIS, (303)996-6886,, (303)756-3263,,Private,2,,,JEFFERSON COUNTY,,12,,PROFIT-CORPORATION,,,,,,1570 S NEWLAND ST,,LAKEWOOD,CO,80232,USA,Assisted Living
USA-CO-72-AssistedLiving-72-AssistedLiving-580,ROCKY MOUNTAIN ASSISTED LIVING-QUINCY WEST,,,,,,,,,,,, Ms JESSICA HARMON, (303)996-6886,, (303)217-8025,,Private, LIMITED LIABILITY,,,JEFFERSON COUNTY,,16,, (303)480-5624, ROCKY MOUNTAIN ASSISTED LIVING LLC,6143 S WILLOW DRIVE SUITE 401,GREENWOOD VILLAGE,CO,80111,7985 W QUINCY AVENUE,,LAKEWOOD,CO,80123,USA,Assisted Living
USA-CO-72-AssistedLiving-72-AssistedLiving-581,ROCKY MOUNTAIN SOLSTICE I,,,,,,,,,,,, MS PAULA SIMONSEN, (303)238-2588,, (303)238-4767,,Medicaid,0,,,JEFFERSON COUNTY,,10,,CORPORATE NON-PROFIT,,,,,,225 N MARSHALL ST,,LAKEWOOD,CO,80226,USA,Assisted Living
USA-CO-72-AssistedLiving-72-AssistedLiving-582,ROCKY MOUNTAIN SOLSTICE II,,,,,,,,,,,, MS PAULA SIMONSEN, (303)973-4003,, (303)973-4290,,Medicaid, CORPORATE NON-PROFIT,,,JEFFERSON COUNTY,,8,, (303)480-5624, ROCKY MOUNTAIN SOLSTICE II,10459 W. EXPOSITION AVENUE,LAKEWOOD,CO,80226,12057 W QUINCY PL,,MORRISON,CO,80465,USA,Assisted Living
USA-CO-72-AssistedLiving-72-AssistedLiving-583,ROSE OF SHARON ASSISTED LIVING,,,,,,,,,,,, Ms LINNA TANNY, (303)730-3825,, (303)730-0773,,Private, PROFIT-CORPORATION,,,ARAPAHOE COUNTY,,8,, (303)480-5624, ROSE OF SHARON ASSISTED LIVING,"5082 EAST HAMPDEN AVENUE, SUITE 247",DENVER,CO,80222,5853 SOUTH SHERMAN WAY,,CENTENNIAL,CO,80121,USA,Assisted Living
USA-CO-72-AssistedLiving-72-AssistedLiving-584,ROSE OF SHARON DETROIT ASSISTED LIVING,,,,,,,,,,,, Mr HANNY TANNY, (303)770-4900,, (303)220-2554,,Private, PROFIT-CORPORATION,,,ADAMS COUNTY,,8,, (303)480-5624, ROSE OF SHARON ASSISTED LIVING INC,5082 E. HAMPDEN AVENUE SUITE 247,DENVER,CO,80222,7521 S DETROIT STREET,,CENTENNIAL,CO,80122,USA,Assisted Living
USA-CO-72-AssistedLiving-72-AssistedLiving-585,ROSE OF SHARON SNOWBERRY ASSISTED LIVING,,,,,,,,,,,, Mr HANNY TANNY, (303)730-3113,, (303)795-7011,,Private, PROFIT-CORPORATION,,,ARAPAHOE COUNTY,,8,, (303)480-5624, ROSE OF SHARON SNOWBERRY ASSISTED LIVING,5082 E HAMPDEN AVENUE  #247,DENVER,CO,80222,5890 SNOWBERRY DRIVE,,LITTLETON,CO,80123,USA,Assisted Living
USA-CO-72-AssistedLiving-72-AssistedLiving-586,ROSE OF SHARON VALENTIA,,,,,,,,,,,, Ms LINNA TANNY, (720)482-2223,, (720)482-2228,,Private, PROFIT-CORPORATION,,,ARAPAHOE COUNTY,,7,, (303)480-5624, ROSE OF SHARON VALENTIA,"5082 EAST HAMPDEN AVENUE, SUITE 247",DENVER,CO,80222,6988 SOUTH VALENTIA STREET,,CENTENNIAL,CO,80112,USA,Assisted Living
USA-CO-72-AssistedLiving-72-AssistedLiving-587,ROSE OF SHARON WASHINGTON ASSISTED LIVING,,,,,,,,,,,, Mr HANNY TANNY, (303)794-3262,, (303)794-3468,,Private, PROFIT-CORPORATION,,,ARAPAHOE COUNTY,,8,, (303)480-5624, ROSE OF SHARON WASHINGTON ASSISTED LIVING,5082 E HAMPDEN AVENUE 247,DENVER,CO,80222,7487 S WASHINGTON STREET,,CENTENNIAL,CO,80122,USA,Assisted Living
USA-CO-72-AssistedLiving-72-AssistedLiving-588,ROSE OF SHARON WEAVER ASSISTED LIVING,,,,,,,,,,,, Mr HANNY TANNY, (303)627-3772,, (303)766-3693,,Private, PROFIT-CORPORATION,,,ARAPAHOE COUNTY,,8,, (303)480-5624, ROSE OF SHARON WEAVER ASSISTED LIVING,5082 E HAMPDEN AVENUE #247,DENVER,CO,80222,17495 E WEAVER DRIVE,,AURORA,CO,80016,USA,Assisted Living
USA-CO-72-AssistedLiving-72-AssistedLiving-589,ROSE OF SHARON YUKON ASSISTED LIVING,,,,,,,,,,,, Mr HANNY TANNY, (303)973-7123,, (303)979-0976,,Private, PROFIT-CORPORATION,,,ARAPAHOE COUNTY,,8,, (303)480-5624, ROSE OF SHARON YUKON ASSISTED LIVING,5082 E HAMPDEN AVENUE   #247,DENVER,CO,80222,7762 S YUKON WAY,,LITTLETON,CO,80128,USA,Assisted Living
USA-CO-72-AssistedLiving-72-AssistedLiving-590,ROSEMARK AT MAYFAIR PARK,,,,,,,,,,,, Ms VANESSA TUCKER, (303)770-7673,, (303)399-1396,,Private, LIMITED LIABILITY,,,DENVER COUNTY,,98,, (303)480-5624,,,,,,833 N JERSEY STREET,,DENVER,CO,80220,USA,Assisted Living
USA-CO-72-AssistedLiving-72-AssistedLiving-591,RUSTIC ROSE ASSISTED LIVING LLC,,,,,,,,,,,, Ms ROSALINE JOHNSON, (303)627-4675,, (303)627-2809,,Medicaid, LIMITED LIABILITY,,,ARAPAHOE COUNTY,,8,, (303)480-5624,,,,,,19458 EAST EUCLID DRIVE,,CENTENNIAL,CO,80016,USA,Assisted Living
USA-CO-72-AssistedLiving-72-AssistedLiving-592,SAFE HARBOR ASSISTED LIVING LLC,,,,,,,,,,,,  MELINDA NAVA, (303)776-4384,, (303)772-0947,,Private, PROFIT-CORPORATION,,,BOULDER COUNTY,,6,, (303)441-1173,,,,,,1424 16TH AVENUE,,LONGMONT,CO,80501,USA,Assisted Living
USA-CO-72-AssistedLiving-72-AssistedLiving-593,SCS ASSISTED LIVING DENVER,,,,,,,,,,,, Ms REBECCA GRAY, (303)363-7246,, (720)216-0154,,Medicaid, PROFIT-CORPORATION,,,DENVER COUNTY,,8,, (303)480-5624, SCS ASSISTED LIVING DENVER,PO BOX 270523,LOUISVILLE,CO,80027,941 S FULTON AVE,,DENVER,CO,80247,USA,Assisted Living
USA-CO-72-AssistedLiving-72-AssistedLiving-594,SECOND STREET RTF,,,,,,,,,,,, Ms JOANN TONEY, (303)765-2480,, (303)504-7991,,-, CORPORATE NON-PROFIT,,,DENVER COUNTY,,9,, (303)480-5624, MENTAL HEALTH CENTER OF DENVER,4455 EAST 12TH AVE,DENVER,CO,80220,200 S SHERMAN STREET,,DENVER,CO,80209,USA,Assisted Living
USA-CO-72-AssistedLiving-72-AssistedLiving-595,"SECURITY ALTERNATIVE CARE, INC.",,,,,,,,,,,, Mr JEFFREY GRAY, (719)390-4721,, (719)390-4721,,Medicaid, PROFIT-CORPORATION,,,EL PASO COUNTY,,8,, (719)471-7080,,,,,,68 SECURITY BLVD,,SECURITY,CO,80911,USA,Assisted Living
USA-CO-72-AssistedLiving-72-AssistedLiving-596,SENIOR CARE ASSISTED LIVING,,,,,,,,,,,, Mr HOKBENG KHO, (720)328-5013,, (303)741-2119,,Private, LIMITED LIABILITY,,,ARAPAHOE COUNTY,,8,, (303)480-5624,,,,,,8108 S HARRISON WAY,,CENTENNIAL,CO,80122,USA,Assisted Living
USA-CO-72-AssistedLiving-72-AssistedLiving-597,SENIOR LIVING AT LAFAYETTE,,,,,,,,,,,, Ms TERESA TEESLINK, (303)730-8000,, (303)890-5851,,Private, LIMITED LIABILITY,,,BOULDER COUNTY,,30,, (303)441-1173, SENIOR LIVING AT LAFAYETTE,101 SUN AVENUE NE,ALBUQUERQUE,NM,87109,329 EXEMPLA CIRCLE,,LAFAYETTE,CO,80026,USA,Assisted Living
USA-CO-72-AssistedLiving-72-AssistedLiving-598,SENIOR LIVING AT THE PINERY LLC,,,,,,,,,,,, Ms JAYADEVI SEENICHAMY, (303)841-2136,, (720)984-0570,,Medicaid, LIMITED LIABILITY,,,DOUGLAS COUNTY,,8,, (303)480-5624, ILA SENIOR LIVING,PO BOX 630696,HIGHLANDS RANCH,CO,80216,6875 N WINDVIEW CIRCLE,,PARKER,CO,80134,USA,Assisted Living
USA-CO-72-AssistedLiving-72-AssistedLiving-599,SENIOR LIVING AT THE SIERRA RIDGE LLC,,,,,,,,,,,, Ms JAYADEVI SEENICHAMY, (303)808-4047,, (303)617-1341,,Private, LIMITED LIABILITY,,,DOUGLAS COUNTY,,8,, (303)480-5624,,,,,,10136 ISLE STREET,,PARKER,CO,80134,USA,Assisted Living
USA-CO-72-AssistedLiving-72-AssistedLiving-600,SERENITY HOUSE ASSISTED LIVING APPLEWOOD,,,,,,,,,,,, Ms SONIA ADNANI, (303)462-1096,, (303)584-9508,,Medicaid, PROFIT-CORPORATION,,,JEFFERSON COUNTY,,8,, (303)480-5624, SERENITY HOUSE ASSISTED LIVING INC,5290 E YALE CIRCLE #209,DENVER,CO,80222,11975 W 22ND PLACE,,LAKEWOOD,CO,80215,USA,Assisted Living
USA-CO-72-AssistedLiving-72-AssistedLiving-601,SERENITY HOUSE ASSISTED LIVING CENTENNIAL,,,,,,,,,,,, MR MICHAEL ZISLIS, (303)771-3066,, (303)584-9508,,Medicaid, PROFIT-CORPORATION,,,ARAPAHOE COUNTY,,8,, (303)480-5624, SERENITY HOUSE ASSISTED LIVING INC,5290 E YALE CIRCLE  #209,DENVER,CO,80222,2947 E DRYCREEK PLACE,,CENTENNIAL,CO,80122,USA,Assisted Living
USA-CO-72-AssistedLiving-72-AssistedLiving-602,SERENITY HOUSE ASSISTED LIVING HINSDALE,,,,,,,,,,,, MR MICHAEL ZISLIS, (303)741-4573,, (303)584-9508,,Medicaid, PROFIT-CORPORATION,,,ARAPAHOE COUNTY,,8,, (303)480-5624, SERENITY HOUSE ASSISTED LIVING INC,5290 E YALE CIRCLE #209,DENVER,CO,80222,3197 E HINSDALE AVENUE,,CENTENNIAL,CO,80122,USA,Assisted Living
USA-CO-72-AssistedLiving-72-AssistedLiving-603,SERENITY HOUSE ASSISTED LIVING HOYT STREET,,,,,,,,,,,, MR MICHAEL ZISLIS, (303)233-0090,, (303)232-2435,,Private,2,,,JEFFERSON COUNTY,,12,,PROFIT-CORPORATION,,,,,,155 S HOYT STREET,,LAKEWOOD,CO,80226,USA,Assisted Living
USA-CO-72-AssistedLiving-72-AssistedLiving-604,SERENITY HOUSE ASSISTED LIVING HUNTERS HILL,,,,,,,,,,,, MR MICHAEL ZISLIS, (303)584-8926,, (303)584-9508,,Medicaid, PROFIT-CORPORATION,,,ARAPAHOE COUNTY,,8,, (303)480-5624, SERENITY HOUSE ASSISTED LIVING INC,5290 E YALE CIRCLE  #209,DENVER,CO,80222,8352 E HUNTERS HILL DRIVE,,CENTENNIAL,CO,80112,USA,Assisted Living
USA-CO-72-AssistedLiving-72-AssistedLiving-605,SERENITY HOUSE ASSISTED LIVING I,,,,,,,,,,,, MR MICHAEL ZISLIS, (303)584-8926,, (303)584-9508,,Medicaid, PROFIT-CORPORATION,,,DENVER COUNTY,,8,, (303)480-5624, SERENITY HOUSE ASSISTED LIVING INC,5290 E. YALE CIRCLE   #209,DENVER,CO,80222,3075 CARTER CIRCLE,,DENVER,CO,80222,USA,Assisted Living
USA-CO-72-AssistedLiving-72-AssistedLiving-606,SERENITY HOUSE ASSISTED LIVING II,,,,,,,,,,,, MR MICHAEL ZISLIS, (303)694-4003,, (303)584-9508,,Medicaid, PROFIT-CORPORATION,,,ARAPAHOE COUNTY,,7,, (303)480-5624, SERENITY HOUSE ASSISTED LIVING INC,5290 EAST YALE CIRCLE #209,DENVER,CO,80222,10760 E IDA COURT,,ENGLEWOOD,CO,80111,USA,Assisted Living
USA-CO-72-AssistedLiving-72-AssistedLiving-607,SERENITY HOUSE ASSISTED LIVING III,,,,,,,,,,,, MR MICHAEL ZISLIS, (303)758-1932,, (303)584-9508,,Medicaid, PROFIT-CORPORATION,,,ARAPAHOE COUNTY,,8,, (303)480-5624, SERENITY HOUSE ASSISTED LIVING INC.,5290 EAST YALE CIRCLE #209,DENVER,CO,80222,2480 S HOLLY STREET,,DENVER,CO,80222,USA,Assisted Living
USA-CO-72-AssistedLiving-72-AssistedLiving-608,SERENITY HOUSE ASSISTED LIVING IV,,,,,,,,,,,, MR MICHAEL ZISLIS, (303)584-8926,, (303)584-9508,,Medicaid, PROFIT-CORPORATION,,,ARAPAHOE COUNTY,,7,, (303)480-5624, SERENITY HOUSE ASSISTED LIVING INC,5290 E. YALE CIRCLE #209,DENVER,CO,80222,5841 SOUTH KINGSTON WAY,,ENGLEWOOD,CO,80111,USA,Assisted Living
USA-CO-72-AssistedLiving-72-AssistedLiving-609,SERENITY HOUSE ASSISTED LIVING IX,,,,,,,,,,,, MR MICHAEL ZISLIS, (303)721-6144,, (303)584-9508,,Medicaid, PROFIT-CORPORATION,,,ARAPAHOE COUNTY,,8,, (303)480-5624, SERENITY HOUSE ASSISTED LIVING,"5290 E YALE CIRCLE, #209",DENVER,CO,80222,6128 SOUTH IOLA WAY,,ENGLEWOOD,CO,80111,USA,Assisted Living
USA-CO-72-AssistedLiving-72-AssistedLiving-610,SERENITY HOUSE ASSISTED LIVING KIT CARSON,,,,,,,,,,,,  SONIA IDNANI, (303)798-0475,, (303)584-9508,,Medicaid, PROFIT-CORPORATION,,,ARAPAHOE COUNTY,,8,, (303)480-5624, SERENITY HOUSE ASSISTED LIVING INC,5290 E YALE CIRCLE  #209,DENVER,CO,80222,6770 S KIT CARSON CIRCLE E,,CENTENNIAL,CO,80122,USA,Assisted Living
USA-CO-72-AssistedLiving-72-AssistedLiving-611,SERENITY HOUSE ASSISTED LIVING LITTLETON,,,,,,,,,,,, MR MICHAEL ZISLIS, (303)972-0827,, (303)589-9508,,Medicaid, PROFIT-CORPORATION,,,ARAPAHOE COUNTY,,8,, (303)480-5624, SERENITY HOUSE ASSISTED LIVING INC,5290 E YALE CIRCLE #209,DENVER,CO,80222,5310 W GEDDES AVENUE,,LITTLETON,CO,80128,USA,Assisted Living
USA-CO-72-AssistedLiving-72-AssistedLiving-612,SERENITY HOUSE ASSISTED LIVING PORTLAND DRIVE,,,,,,,,,,,, MR MICHAEL ZISLIS, (303)584-8926,, (303)584-9508,,Medicaid, PROFIT-CORPORATION,,,JEFFERSON COUNTY,,8,, (303)480-5624, SERENITY HOUSE ASSISTED LIVING INC,"5290 E YALE CIRCLE, SUITE 209",DENVER,CO,80222,5286 W PORTLAND DRIVE,,LITTLETON,CO,80128,USA,Assisted Living
USA-CO-72-AssistedLiving-72-AssistedLiving-613,SERENITY HOUSE ASSISTED LIVING V,,,,,,,,,,,, MR MICHAEL ZISLIS, (303)758-7403,, (303)584-9508,,Medicaid, PROFIT-CORPORATION,,,ARAPAHOE COUNTY,,8,, (303)480-5624, SERENITY HOUSE ASSISTED LIVING INC,5290 E YALE CIRCLE #209,DENVER,CO,80222,3068 S KEARNEY STREET,,DENVER,CO,80222,USA,Assisted Living
USA-CO-72-AssistedLiving-72-AssistedLiving-614,SERENITY HOUSE ASSISTED LIVING VI,,,,,,,,,,,, MR MICHAEL ZISLIS, (303)761-9336,, (303)584-9508,,Medicaid, PROFIT-CORPORATION,,,ARAPAHOE COUNTY,,8,, (303)480-5624, SERENITY HOUSE ASSISTED LIVING INC,5290 EAST YALE CIRCLE #209,DENVER,CO,80222,3235 S HIGH STREET,,ENGLEWOOD,CO,80113,USA,Assisted Living
USA-CO-72-AssistedLiving-72-AssistedLiving-615,SERENITY HOUSE ASSISTED LIVING VII,,,,,,,,,,,, MR MICHAEL ZISLIS, (303)757-0830,, (303)584-9508,,Medicaid, PROFIT-CORPORATION,,,ARAPAHOE COUNTY,,8,, (303)480-5624, SERENITY HOUSE ASSISTED LIVING INC,5290 EAST YALE CIRCLE #209,DENVER,CO,80222,2337 SOUTH FOREST DRIVE,,DENVER,CO,80222,USA,Assisted Living
USA-CO-72-AssistedLiving-72-AssistedLiving-616,SERENITY HOUSE ASSISTED LIVING VIII,,,,,,,,,,,, MR MICHAEL ZISLIS, (303)741-4381,, (303)584-9508,,Medicaid, PROFIT-CORPORATION,,,ARAPAHOE COUNTY,,7,, (303)480-5624, SERENITY HOUSE ASSISTED LIVING INC,5290 E YALE CIRCLE #209,DENVER,CO,80222,5750 S KENTON WAY,,ENGLEWOOD,CO,80111,USA,Assisted Living
USA-CO-72-AssistedLiving-72-AssistedLiving-617,SEVA ASSISTED LIVING LLC,,,,,,,,,,,, Ms NEERU KHATTER, (303)340-5753,, (303)340-0499,,Private,0,,,ARAPAHOE COUNTY,,10,,LIMITED LIABILITY,,,,,,21 DELMAR CIRCLE,,AURORA,CO,80011,USA,Assisted Living
USA-CO-72-AssistedLiving-72-AssistedLiving-618,SEVEN LAKES MEMORY CARE,,,,,,,,,,,, Ms CINDY FRICK, (970)461-5918,, (970)461-5919,,Private,8,,,LARIMER COUNTY,,48,,LIMITED LIABILITY,,,,,,1990 PIKES PEAK DRIVE,,LOVELAND,CO,80538,USA,Assisted Living
USA-CO-72-AssistedLiving-72-AssistedLiving-619,SEVENS RESIDENTIAL MEMORY CARE,,,,,,,,,,,, Mr FRANCIS LEGASSE, (720)477-1727,, (720)477-1727,,Private,2,,,JEFFERSON COUNTY,,12,,LIMITED LIABILITY,,,,,,1085 VIVIAN ST,,LAKEWOOD,CO,80401,USA,Assisted Living
USA-CO-72-AssistedLiving-72-AssistedLiving-620,SHALOM HOME CARE,,,,,,,,,,,, Ms MELANY WONG, (719)542-2715,, (719)543-6358,,Medicaid, LIMITED LIABILITY,,,PUEBLO COUNTY,,12,, (719)583-6123, SHALOM HOME CARE LLC,PO BOX 274,PARKER,CO,80134,134 LAMAR AVENUE,,PUEBLO,CO,81004,USA,Assisted Living
USA-CO-72-AssistedLiving-72-AssistedLiving-621,SHAWNEE GARDENS,,,,,,,,,,,, MS CONSTANCE KEOGH-DWYER, (303)494-1123,, (720)221-4468,,Private, PROFIT-CORPORATION,,,BOULDER COUNTY,,7,, (303)441-1173,,,,,,4755 SHAWNEE PLACE,,BOULDER,CO,80303,USA,Assisted Living
USA-CO-72-AssistedLiving-72-AssistedLiving-622,SILVER ROSE,,,,,,,,,,,, Mr RODNEY KING, (303)420-4295,, (303)420-4272,,Medicaid, PROFIT-CORPORATION,,,JEFFERSON COUNTY,,10,, (303)480-5624, TKC SILVER ROSE INC,P.O. BOX 39225,DENVER,CO,80239,5420 FIELD COURT,,ARVADA,CO,80002,USA,Assisted Living
USA-CO-72-AssistedLiving-72-AssistedLiving-623,SLP COLORADO,,,,,,,,,,,, Ms TEDDY SAMUEL, (720)412-5730,, (720)412-5730,,Medicaid, LIMITED LIABILITY,,,DOUGLAS COUNTY,,8,, (303)480-5624,,,,,,10706 FLAGLER DRIVE,,PARKER,CO,80134,USA,Assisted Living
USA-CO-72-AssistedLiving-72-AssistedLiving-624,SOARING HOUSE,,,,,,,,,,,,  VALERIE TORRES, (719)466-8777,, (719)314-2103,,Medicaid, CORPORATE NON-PROFIT,,,EL PASO COUNTY,,8,, (719)471-7080, SOARING HOUSE,310 S 14TH ST,COLO SPRINGS,CO,80918,6243 SOARING DRIVE,,COLORADO SPRINGS,CO,80918,USA,Assisted Living
USA-CO-72-AssistedLiving-72-AssistedLiving-625,SOLANGE ASSISTED LIVING INC,,,,,,,,,,,, Mr CHRISTEL AIME, (719)382-4844,, (719)382-0442,,Medicaid, PROFIT-CORPORATION,,,EL PASO COUNTY,,10,, (719)471-7080,,,,,,10102 ROLLING RIDGE RD,,COLORADO SPRINGS,CO,80925,USA,Assisted Living
USA-CO-72-AssistedLiving-72-AssistedLiving-626,SOLANGE AT THE WOODLANDS,,,,,,,,,,,, Ms ELIZABETH WEST, (719)282-1155,, (719)391-5777,,Private, PROFIT-CORPORATION,,,DOUGLAS COUNTY,,9,, (303)480-5624,,,,,,1605 WHITETAIL DR,,CASTLE ROCK,CO,80104,USA,Assisted Living
USA-CO-72-AssistedLiving-72-AssistedLiving-627,SOLANGE HIGHLAND PARK INC,,,,,,,,,,,, Ms ELIZABETH WEST, (719)282-1155,, (719)391-5777,,Medicaid, PROFIT-CORPORATION,,,EL PASO COUNTY,,8,, (719)471-7080,,,,,,2107 PRINCETON WAY,,COLORADO SPRINGS,CO,80909,USA,Assisted Living
USA-CO-72-AssistedLiving-72-AssistedLiving-628,SOMEREN GLEN ASSISTED LIVING,,,,,,,,,,,, Mr TIMOTHY ROGERS, (303)741-5555,, (303)713-9874,,Private, CORPORATE NON-PROFIT,,,ARAPAHOE COUNTY,,55,, (303)480-5624,,,,,,4761 E COSTILLA AVE,,CENTENNIAL,CO,80122,USA,Assisted Living
USA-CO-72-AssistedLiving-72-AssistedLiving-629,"SOPHIA ASSISTED LIVING, INC",,,,,,,,,,,, Ms PURNAMA SIMAN, (303)955-0353,, (303)759-3811,,Medicaid, PROFIT-CORPORATION,,,ARAPAHOE COUNTY,,16,, (303)480-5624, SOPHIA ASSISTED LIVING LLC,18203 E WESLEY PLACE,AURORA,CO,80013,3828 S EAGLE STREET,,AURORA,CO,80014,USA,Assisted Living
USA-CO-72-AssistedLiving-72-AssistedLiving-630,SPRING RIDGE PARK ASSISTED LIVING,,,,,,,,,,,, Ms STACIE NASLUND, (303)233-8518,, (303)233-8541,,Private,7,,,JEFFERSON COUNTY,,37,,LIMITED LIABILITY,,,,,,5361 W 26TH AVE,,WHEAT RIDGE,CO,80214,USA,Assisted Living
USA-CO-72-AssistedLiving-72-AssistedLiving-631,SPRINGBROOKE RETIREMENT AND ASSISTED LIVING,,,,,,,,,,,, MS ELAINE FLEMING, (303)331-9963,, (303)331-9413,,Private,5,,,DENVER COUNTY,,151,,LIMITED LIABILITY,,,,,,6800 LEETSDALE DR,,DENVER,CO,80224,USA,Assisted Living
USA-CO-72-AssistedLiving-72-AssistedLiving-632,SPRUCE HOUSE,,,,,,,,,,,,  VALERIE TORRES, (719)574-5894,, (719)457-0766,,Medicaid, CORPORATE NON-PROFIT,,,EL PASO COUNTY,,8,, (719)471-7080, ROCKY MOUNTAIN HEALTH CARE SERVICES,310 S 14TH STREET,COLORADO SPRINGS,CO,80904,2535 BRADY DRIVE,,COLORADO SPRINGS,CO,80917,USA,Assisted Living
USA-CO-72-AssistedLiving-72-AssistedLiving-633,ST ANDREWS VILLAGE,,,,,,,,,,,, Ms KATHRYN MCCUNE, (303)695-9300,, (303)695-8101,,Private, LIMITED LIABILITY,,,ADAMS COUNTY,,72,, (303)480-5624,,,,,,2670 SOUTH ABILENE STREET EAST,,AURORA,CO,80014,USA,Assisted Living
USA-CO-72-AssistedLiving-72-AssistedLiving-634,ST ANNA'S HOME,,,,,,,,,,,,  HYUN SOOK SOH, (303)627-2986,, (720)379-6308,,Medicaid, CORPORATE NON-PROFIT,,,ARAPAHOE COUNTY,,16,, (303)480-5624,,,,,,13901 E QUINCY AVENUE,,AURORA,CO,80015,USA,Assisted Living
USA-CO-72-AssistedLiving-72-AssistedLiving-635,ST BERNADETTE ASSISTED LIVING,,,,,,,,,,,, Mr LYLE CAMPBELL, (303)694-5743,, (303)694-5743,,Medicaid, LIMITED LIABILITY,,,ARAPAHOE COUNTY,,7,, (303)480-5624,,,,,,4468 E LAKE CIRCLE S,,CENTENNIAL,CO,80121,USA,Assisted Living
USA-CO-72-AssistedLiving-72-AssistedLiving-636,ST FRANCIS ASSISTED LIVING FACILITY,,,,,,,,,,,, Dr ARTHUR FERRER, (720)612-4813,, (720)379-7293,,Private, PROFIT-CORPORATION,,,ARAPAHOE COUNTY,,8,, (303)480-5624, ST FRANCIS ASSISTED LIVING FACILITY,2450 ROCKBRIDGE DRIVE,HIGHLANDS RANCH,CO,80129,6694 S FRANKLIN STREET,,CENTENNIAL,CO,80121,USA,Assisted Living
USA-CO-72-AssistedLiving-72-AssistedLiving-637,ST PETRO LAUREL HAUS,,,,,,,,,,,, Mr LYLE CAMPBELL, (303)770-0600,, (303)770-0600,,Private,,,,ADAMS COUNTY,,7,,LIMITED LIABILITY,,,,,,7032  S FRANKLIN ST,,CENTENNIAL,CO,80122,USA,Assisted Living
USA-CO-72-AssistedLiving-72-AssistedLiving-638,STAGES ASSISTED LIVING RESIDENCE,,,,,,,,,,,, Ms AMANDA JONES, (303)287-7270,, (303)853-4778,,-, CORPORATE NON-PROFIT,,,ADAMS COUNTY,,16,, (303)480-5624, COMMUNITY REACH CENTER,11285 HIGHLINE DRIVE,NORTHGLENN,CO,80233,11275 HIGHLINE DRIVE,,NORTHGLENN,CO,80233,USA,Assisted Living
USA-CO-72-AssistedLiving-72-AssistedLiving-639,STARLIGHT MANOR AT NEWLAND STREET,,,,,,,,,,,,  DAVID WEINGARDT (P), (303)420-9181,, (303)425-3262,,Medicaid, LIMITED LIABILITY,,,JEFFERSON COUNTY,,8,, (303)480-5624,,,,,,6845 NEWLAND STREET,,ARVADA,CO,80003,USA,Assisted Living
USA-CO-72-AssistedLiving-72-AssistedLiving-640,SUITES AT HOLLY CREEK ASSISTED LIVING,,,,,,,,,,,, Mr GARY DICKEY, (720)266-5888,, (720)684-4555,,Private,2,,,ARAPAHOE COUNTY,,46,,CORPORATE NON-PROFIT,,,,,,5590 E PEAKVIEW AVENUE,,CENTENNIAL,CO,80121,USA,Assisted Living
USA-CO-72-AssistedLiving-72-AssistedLiving-641,"SUITES FORT COLLINS LLC, THE",,,,,,,,,,,, Mr BRIAN RUPERT, (801)601-1450,, (385)202-7172,,Private, LIMITED LIABILITY,,,LARIMER COUNTY,,21,, (303)862-3524, EDURO HEALTHCARE LLC,1376 E 3300 S,SALT LAKE CITY,UT,84106,4880 ZIEGLER ROAD,,FORT COLLINS,CO,80528,USA,Assisted Living
USA-CO-72-AssistedLiving-72-AssistedLiving-642,SUN VALLEY ASSISTED LIVING,,,,,,,,,,,, Ms SARASATY SOEKARSO, (303)932-6187,, (720)287-1005,,Medicaid, LIMITED LIABILITY,,,JEFFERSON COUNTY,,5,, (303)480-5624,,,,,,7631 S DEPEW WAY,,LITTLETON,CO,80128,USA,Assisted Living
USA-CO-72-AssistedLiving-72-AssistedLiving-643,SUNNYSLOPE ESTATE VILLA,,,,,,,,,,,, Mr DENNIS QUINN, (720)663-7141,, (303)452-1446,,Medicaid, LIMITED LIABILITY,,,ADAMS COUNTY,,32,, (303)480-5624, SUNNYSLOPE ESTATE VILLA,P.O. BOX 934,BROOMFIELD,CO,80038,11275 GRANT DRIVE,,NORTHGLENN,CO,80233,USA,Assisted Living
USA-CO-72-AssistedLiving-72-AssistedLiving-644,SUNRISE ASSISTED LIVING AT CHERRY CREEK,,,,,,,,,,,,  CATHERINE AGER, (303)333-1166,, (303)333-8877,,Private,3,,,DENVER COUNTY,,110,,LIMITED LIABILITY,,,,,,251 S COLORADO BLVD,,DENVER,CO,80246,USA,Assisted Living
USA-CO-72-AssistedLiving-72-AssistedLiving-645,SUNRISE ASSISTED LIVING AT ORCHARD,,,,,,,,,,,, Ms STEPHANIE HERM, (303)773-1609,, (303)773-3191,,Private,4,,,ARAPAHOE COUNTY,,108,,LIMITED LIABILITY,,,,,,5975 S HOLLY ST,,LITTLETON,CO,80121,USA,Assisted Living
USA-CO-72-AssistedLiving-72-AssistedLiving-646,SUNRISE ASSISTED LIVING AT PINEHURST,,,,,,,,,,,, Ms SAMANTHA ARCHIBALD, (303)984-1431,, (303)738-1970,,Private,8,,,DENVER COUNTY,,108,, (303)480-5624,,,,,,5195 W QUINCY AVE,,DENVER,CO,80236,USA,Assisted Living
USA-CO-72-AssistedLiving-72-AssistedLiving-647,SUNRISE ASSISTED LIVING AT UNIVERSITY PARK,,,,,,,,,,,, Mr SHAUN ANDERSON, (719)268-1818,, (719)268-1801,,Private,8,,,EL PASO COUNTY,,70,,PROFIT-CORPORATION,,,,,,2105 UNIVERSITY PARK BOULEVARD,,COLORADO SPRINGS,CO,80918,USA,Assisted Living
USA-CO-72-AssistedLiving-72-AssistedLiving-648,SUNRISE ASSISTED LIVING OF BOULDER,,,,,,,,,,,, Ms CLAUDIA RODRIGUEZ, (720)406-1000,, (720)406-1003,,Private,6,,,BOULDER COUNTY,,110,,LIMITED LIABILITY,,,,,,3955 28TH STREET,,BOULDER,CO,80304,USA,Assisted Living
USA-CO-72-AssistedLiving-72-AssistedLiving-649,SUNRISE ASSISTED LIVING OF WESTMINSTER,,,,,,,,,,,, Ms SHANELLE ARMAS, (303)410-0500,, (303)410-0600,,Private,0,,,ADAMS COUNTY,,109,,LIMITED LIABILITY,,,,,,10280 N SHERIDAN BLVD,,WESTMINSTER,CO,80020,USA,Assisted Living
USA-CO-72-AssistedLiving-72-AssistedLiving-650,SUNRISE AT FLATIRONS,,,,,,,,,,,, Mr JOHN GOODWIN, (303)466-2422,, (303)466-2488,,Private,7,,,JEFFERSON COUNTY,,114,,LIMITED LIABILITY,,,,,,400 SUMMIT BOULEVARD,,BROOMFIELD,CO,80021,USA,Assisted Living
USA-CO-72-AssistedLiving-72-AssistedLiving-651,"SUNSHINE GARDENS COUNTRY HOME, LLC",,,,,,,,,,,, Ms ANGELA FLANDERS, (970)259-7999,, (970)247-8978,,Private, LIMITED LIABILITY,,,LA PLATA COUNTY,,16,, (970)259-1967,,,,,,2518 HIGHWAY 172,,DURANGO,CO,81303,USA,Assisted Living
USA-CO-72-AssistedLiving-72-AssistedLiving-652,SUNSHINE GARDENS WEST ASSISTED LIVING,,,,,,,,,,,,  MELISSA SWANSON (HUMBLE), (970)385-4090,, (970)385-0108,,Medicaid, LIMITED LIABILITY,,,LA PLATA COUNTY,,70,, (970)259-1967,,,,,,25 SUNSHINE COURT,,DURANGO,CO,81301,USA,Assisted Living
USA-CO-72-AssistedLiving-72-AssistedLiving-653,SUPERIOR ELDERLY CARE I,,,,,,,,,,,, MS CLEOPHA PHILLIPS, (303)758-1004,, (303)758-1434,,Medicaid, INDIVIDUAL,,,ARAPAHOE COUNTY,,8,, (303)480-5624, SUPERIOR ELDERLY CARE I,2641 S KEARNEY STREET,DENVER,CO,80222,2408 S KEARNEY STREET,,DENVER,CO,80222,USA,Assisted Living
USA-CO-72-AssistedLiving-72-AssistedLiving-654,"TAMMY AND MARTYS COZY ADULT CARE HOME, LLC II",,,,,,,,,,,, Mr MARTY REDMOND, (719)566-1189,, (719)566-1189,,Medicaid, LIMITED LIABILITY,,,PUEBLO COUNTY,,15,, (719)583-6123,,,,,,523 WEST COKEDALE DRIVE,,PUEBLO WEST,CO,81007,USA,Assisted Living
USA-CO-72-AssistedLiving-72-AssistedLiving-655,TELLER PLACE RTF,,,,,,,,,,,, MR PAUL KIMMICH, (303)232-8047,, (303)232-1979,,-, CORPORATE NON-PROFIT,,,JEFFERSON COUNTY,,15,, (303)480-5624, JEFFERSON CENTER FOR MENTAL HEALTH,5801 WEST ALAMEDA,LAKEWOOD,CO,80226,7290 WEST 14TH AVENUE,,LAKEWOOD,CO,80215,USA,Assisted Living
USA-CO-72-AssistedLiving-72-AssistedLiving-656,TEMENOS ASSISTED LIVING,,,,,,,,,,,, Ms VICTORINA SUPIT, (720)429-2355,, (303)993-6264,,Medicaid, LIMITED LIABILITY,,,JEFFERSON COUNTY,,7,, (303)480-5624, TEMENOS ASSISTED LIVING,PO BOX 24902,DENVER,CO,80224,12363 W 65TH AVENUE,,ARVADA,CO,80004,USA,Assisted Living
USA-CO-72-AssistedLiving-72-AssistedLiving-657,TEMENOS ELDER CARE COMPANY,,,,,,,,,,,, Ms VICTORINA SUPIT, (303)233-2882,, (303)232-8010,,Medicaid, PROFIT-CORPORATION,,,JEFFERSON COUNTY,,8,, (303)480-5624, TEMENOS ELDER CARE COMPANY,PO BOX 24902,DENVER,CO,80224,3113 TELLER STREET,,WHEAT RIDGE,CO,80033,USA,Assisted Living
USA-CO-72-AssistedLiving-72-AssistedLiving-658,TENDERCARE ASSISTED LIVING LLC,,,,,,,,,,,, Ms MARY VARGAS, (303)935-2448,, (303)922-2505,,Medicaid, LIMITED LIABILITY,,,DENVER COUNTY,,9,, (303)480-5624,,,,,,3241 S MABRY WAY,,DENVER,CO,80236,USA,Assisted Living
USA-CO-72-AssistedLiving-72-AssistedLiving-659,TENDERCARE AT PINEHURST LLC,,,,,,,,,,,, Ms MARY VARGAS, (303)988-5295,, (303)988-5295,,Private, LIMITED LIABILITY,,,DENVER COUNTY,,8,, (303)480-5624, BETHANY ATKINS,2912 S ZENOBIA STREET,DENVER,CO,80236,5290 W PRINCETON,,DENVER,CO,80235,USA,Assisted Living
USA-CO-72-AssistedLiving-72-AssistedLiving-660,TERRY LAKE ASSISTED LIVING INC,,,,,,,,,,,, Mr DOUGLAS MACALLISTER, (970)484-1299,, (970)221-2346,,Private, CORPORATE NON-PROFIT,,,LARIMER COUNTY,,8,, (303)862-3524, TERRY LAKE ASSISTED LIVING INC,1214 CATALPA PLACE,FT COLLINS,CO,80521,3629 WOODRIDGE ROAD,,FORT COLLINS,CO,80524,USA,Assisted Living
USA-CO-72-AssistedLiving-72-AssistedLiving-661,THE RETREAT AT PALISADE I,,,,,,,,,,,,,(970)243-7224,,,,,,,,,"RETREAT AT PALISADE, THE",,,,,,,,,3781 HERITAGE LN,,PALISADE,CO,81526,USA,Assisted Living
USA-CO-72-AssistedLiving-72-AssistedLiving-662,THE RETREAT AT PALISADE II,,,,,,,,,,,,,(970)243-7224,,,,,,,,,"RETREAT AT PALISADE, THE",,,,,,,,,3781 HERITAGE LN,,PALISADE,CO,81526,USA,Assisted Living
USA-CO-72-AssistedLiving-72-AssistedLiving-663,TIMBERLINE LODGE,,,,,,,,,,,, Ms RACHEL LEAVITT (P), (303)776-7215,, (303)776-4409,,Medicaid, INDIVIDUAL,,,BOULDER COUNTY,,11,, (303)441-1173,,,,,,9198 JOTIPA DR,,LONGMONT,CO,80503,USA,Assisted Living
USA-CO-72-AssistedLiving-72-AssistedLiving-664,"TOWERS, THE",,,,,,,,,,,, Ms GINGER WILLIAMS (P), (970)332-4856,, (970)332-4882,,Medicaid, CORPORATE NON-PROFIT,,,YUMA COUNTY,,24,, (970)867-9409,,,,,,360 CANYON RIDGE DR,,WRAY,CO,80758,USA,Assisted Living
USA-CO-72-AssistedLiving-72-AssistedLiving-665,TRIANGLE CROSS RANCH,,,,,,,,,,,,  SUSAN LABONDE, (970)454-2219,, (970)454-5390,,Private, CORPORATE NON-PROFIT,,,WELD COUNTY,,24,, (970)353-3800,,,,,,36047 WELD COUNTY ROAD 51,,GALETON,CO,80622,USA,Assisted Living
USA-CO-72-AssistedLiving-72-AssistedLiving-666,TRINITY LIFE GARDENS,,,,,,,,,,,, Ms KRISS PRADO (P), (719)542-2223,, (719)586-9256,,Medicaid, LIMITED LIABILITY,,,PUEBLO COUNTY,,51,, (719)583-6123,,,,,,2430 OAKSHIRE LANE,,PUEBLO,CO,81001,USA,Assisted Living
USA-CO-72-AssistedLiving-72-AssistedLiving-667,TURNBERRY PLACE ASSISTED LIVING,,,,,,,,,,,, Ms TAMARA MEURER, (970)482-2215,, (970)484-8887,,Private, LIMITED LIABILITY,,,LARIMER COUNTY,,8,, (303)862-3524,,,,,,2401 TURNBERRY ROAD,,FORT COLLINS,CO,80524,USA,Assisted Living
USA-CO-72-AssistedLiving-72-AssistedLiving-668,TY'S HOUSE LLC,,,,,,,,,,,, Ms CAROLYN SHOCKLEY, (303)307-8332,, (303)261-1112,,Medicaid, LIMITED LIABILITY,,,DENVER COUNTY,,8,, (303)480-5624,,,,,,5050 TROY,,DENVER,CO,80239,USA,Assisted Living
USA-CO-72-AssistedLiving-72-AssistedLiving-669,UNION COURT ASSISTED LIVING,,,,,,,,,,,, Mr GREGORY GREEN, (303)456-4485,, (720)949-7408,,Private, LIMITED LIABILITY,,,JEFFERSON COUNTY,,8,, (303)480-5624,,,,,,7587 UNION COURT,,ARVADA,CO,80005,USA,Assisted Living
USA-CO-72-AssistedLiving-72-AssistedLiving-670,UNION PRINTERS HOME,,,,,,,,,,,, Ms DEE HEROUX, (719)634-3711,, (719)475-2246,,Medicaid, LIMITED LIABILITY,,,EL PASO COUNTY,,45,, (719)471-7080,,,,,,101 S UNION BOULEVARD,,COLORADO SPRINGS,CO,80910,USA,Assisted Living
USA-CO-72-AssistedLiving-72-AssistedLiving-671,"VALLEY ASSISTED LIVING, INC.",,,,,,,,,,,, Ms MARYANNE HAMMOND, (719)783-4401,, (719)783-4402,,Medicaid, CORPORATE NON-PROFIT,,,CUSTER COUNTY,,16,, (719)539-3341,,,,,,30 MAIN STREET,,SILVER CLIFF,CO,81252,USA,Assisted Living
USA-CO-72-AssistedLiving-72-AssistedLiving-672,VALLEY HI ASSISTED LIVING,,,,,,,,,,,, Ms YOLUNDUS MURRIEL, (719)447-8719,, (719)447-9201,,Medicaid, PROFIT-CORPORATION,,,EL PASO COUNTY,,12,, (719)471-7080,,,,,,3116 WELLSHIRE BLVD,,COLORADO SPRINGS,CO,80910,USA,Assisted Living
USA-CO-72-AssistedLiving-72-AssistedLiving-673,VALLEY HOUSE ASSISTED LIVING,,,,,,,,,,,, Mr DENNIS SCOTT, (303)814-0668,, (303)814-0667,,Medicaid, CORPORATE NON-PROFIT,,,DOUGLAS COUNTY,,22,, (303)480-5624,,,,,,255 S VALLEY DRIVE,,CASTLE ROCK,CO,80104,USA,Assisted Living
USA-CO-72-AssistedLiving-72-AssistedLiving-674,VERANDA'S ASSISTED LIVING AT WHEAT RIDGE II,,,,,,,,,,,,,(303)940-9707,,,,,,,,,VERANDAS ASSISTED LVG AT WHEAT RIDGE,,,,,,,,,9515 WEST 49TH AVENUE,,WHEAT RIDGE,CO,80033,USA,Assisted Living
USA-CO-72-AssistedLiving-72-AssistedLiving-675,VERANDA'S ASSISTED LIVING AT WHEATRIDGE I,,,,,,,,,,,,,(303)425-6328,,,,,,,,,VERANDAS ASSISTED LVG AT WHEAT RIDGE,,,,,,,,,9495 W 49TH AVENUE,,WHEAT RIDGE,CO,80033,USA,Assisted Living
USA-CO-72-AssistedLiving-72-AssistedLiving-676,VERANDAS ASSISTED LVG AT WHEAT RIDGE,,,,,,,,,,,, Ms ANNABELLE DEMAREST (P), (303)425-6328,, (303)940-4733,,Medicaid, LIMITED LIABILITY,,,JEFFERSON COUNTY,,32,, (303)480-5624,,,,,,9495 W 49TH AVE,,WHEAT RIDGE,CO,80033,USA,Assisted Living
USA-CO-72-AssistedLiving-72-AssistedLiving-677,VI AT HIGHLANDS RANCH ASSISTED LIVING,,,,,,,,,,,, Ms MARY GRACE SMIGIEL, (720)348-7900,, (720)348-7999,,Private,2,,,DOUGLAS COUNTY,,36,,PROFIT-CORPORATION,,,,,,9085 RANCH RIVER CIRCLE,,HIGHLANDS RANCH,CO,80126,USA,Assisted Living
USA-CO-72-AssistedLiving-72-AssistedLiving-678,VICTORIAN HOUSE ASSISTED LIVING,,,,,,,,,,,, Mr DENNIS SCOTT, (303)805-9866,, (303)805-1857,,Medicaid, CORPORATE NON-PROFIT,,,DOUGLAS COUNTY,,26,, (303)480-5624,,,,,,19600 VICTORIAN DR,,PARKER,CO,80138,USA,Assisted Living
USA-CO-72-AssistedLiving-72-AssistedLiving-679,VIEWPOINTE,,,,,,,,,,,, Ms ROBYN PARKER, (719)528-8000,, (719)528-8476,,Private,2,,,EL PASO COUNTY,,107,,CORPORATE NON-PROFIT,,,,,,555 S ROCKRIMMON BLVD,,COLORADO SPRINGS,CO,80919,USA,Assisted Living
USA-CO-72-AssistedLiving-72-AssistedLiving-680,VILLA GROVE ASSISTED LIVING,,,,,,,,,,,,  PAUL SPICOLA, (719)544-1561,, (719)542-6539,,Medicaid, PROFIT-CORPORATION,,,PUEBLO COUNTY,,16,, (719)583-6123,,,,,,715 EAST B STREET,,PUEBLO,CO,81003,USA,Assisted Living
USA-CO-72-AssistedLiving-72-AssistedLiving-681,VILLA PUEBLO ASSISTED LIVING,,,,,,,,,,,, Ms ANGELINA VALDEZ, (719)253-3723,, (719)253-3701,,Medicaid, LIMITED LIABILITY,,,PUEBLO COUNTY,,11,, (719)583-6123,,,,,,855 HUNTER DR,,PUEBLO,CO,81001,USA,Assisted Living
USA-CO-72-AssistedLiving-72-AssistedLiving-682,"VILLAGE ASSISTED LIVING, THE",,,,,,,,,,,,  DATIR MARINI, (303)367-0700,, (303)367-0800,,Medicaid, LIMITED LIABILITY,,,ARAPAHOE COUNTY,,8,, (303)480-5624,,,,,,209 S REVERE ST,,AURORA,CO,80012,USA,Assisted Living
USA-CO-72-AssistedLiving-72-AssistedLiving-683,VILLAGE AT BELMAR,,,,,,,,,,,, Ms BONNIE BACHMAN, (303)333-0482,, (303)333-0459,,Private,7,,,JEFFERSON COUNTY,,115,,LIMITED LIABILITY,,,,,,7825 W ALAMEDA AVE,,LAKEWOOD,CO,80226,USA,Assisted Living
USA-CO-72-AssistedLiving-72-AssistedLiving-684,VILLAGE AT SKYLINE - VILLAGE GARDENS I,,,,,,,,,,,,,(719)667-5360,,,,,,,,,BROOKDALE SKYLINE-ALR,,,,,,,,,2365 PATRIOT HEIGHTS,,COLORADO SPRINGS,CO,80904,USA,Assisted Living
USA-CO-72-AssistedLiving-72-AssistedLiving-685,VILLAGE AT SKYLINE - VILLAGE GARDENS II,,,,,,,,,,,,,(719)667-5360,,,,,,,,,BROOKDALE SKYLINE-ALR,,,,,,,,,2305 PATRIOT HEIGHTS,,COLORADO SPRINGS,CO,80904,USA,Assisted Living
USA-CO-72-AssistedLiving-72-AssistedLiving-686,VILLAGIO OF BROOMFIELD,,,,,,,,,,,, Ms STACI SCUDDER, (720)634-2535,, (888)753-6262,,Private,5,,,BOULDER COUNTY,,75,,LIMITED LIABILITY,,,,,,11952 GRAY STREET,,BROOMFIELD,CO,80020,USA,Assisted Living
USA-CO-72-AssistedLiving-72-AssistedLiving-687,VILLAS AT ROCK CANYON,,,,,,,,,,,, Ms PATRICIA NELSON, (719)404-1015,, (719)404-1080,,Medicaid, PROFIT-CORPORATION,,,PUEBLO COUNTY,,17,, (719)583-6123, VILLAS AT ROCK CANYON,27101 PUERTA REAL STE 450,MISSION VIEJO,CA,92691,1611 ALMA AVE,,PUEBLO,CO,81004,USA,Assisted Living
USA-CO-72-AssistedLiving-72-AssistedLiving-688,"VILLAS AT SUNNY ACRES, THE",,,,,,,,,,,, Mr BRIAN RUPERT, (720)977-1707,, (720)977-1768,,Medicaid, PROFIT-CORPORATION,,,ADAMS COUNTY,,36,, (303)480-5624, ENDURA HEALTHCARE,27101 PUERTA REAL SUITE 450,MISSION VIEJO,CA,92691,2515 E 104TH AVENUE,,THORNTON,CO,80233,USA,Assisted Living
USA-CO-72-AssistedLiving-72-AssistedLiving-689,"VINEYARDS MEMORY CARE, THE",,,,,,,,,,,, Ms SARAH SMITH, (970)623-7126,, (970)243-0533,,Private,6,,,MESA COUNTY,,16,,LIMITED LIABILITY,,,,,,1530 WALNUT,,GRAND JUNCTION,CO,81506,USA,Assisted Living
USA-CO-72-AssistedLiving-72-AssistedLiving-690,VISTA MESA ASSISTED LIVING RESIDENCE,,,,,,,,,,,, Ms TERRILL SCHMITT, (970)564-1888,, (970)565-1273,,Medicaid,8,,,MONTEZUMA COUNTY,,57,,PROFIT-CORPORATION,,,,,,1206 N MILDRED RD,,CORTEZ,CO,81321,USA,Assisted Living
USA-CO-72-AssistedLiving-72-AssistedLiving-691,VISTA VILLAGE ASSISTED LIVING,,,,,,,,,,,, Ms MARY SAWYER-WINTERS (ADMIN), (303)420-4192,, (303)463-1392,,Medicaid,2,,,JEFFERSON COUNTY,,76,,CORPORATE NON-PROFIT,,,,,,11800 AND 11830 W 49TH AVE,,WHEAT RIDGE,CO,80033,USA,Assisted Living
USA-CO-72-AssistedLiving-72-AssistedLiving-692,WARNER HOUSE,,,,,,,,,,,, Ms SUSANNA MANDICS, (303)449-2217,, (303)786-9247,,-, CORPORATE NON-PROFIT,,,BOULDER COUNTY,,16,, (303)441-1173, MENTAL HEALTH PARTNERS,1333 IRIS AVENUE,BOULDER,CO,80302,2833 N BROADWAY,,BOULDER,CO,80304,USA,Assisted Living
USA-CO-72-AssistedLiving-72-AssistedLiving-693,"WELL HOUSE ASSISTED LIVING LLC, THE",,,,,,,,,,,, Ms KRISTI ZAKRZEWSKI, (303)424-6433,, (720)287-2063,,Private, PROFIT-CORPORATION,,,JEFFERSON COUNTY,,12,, (303)480-5624, THE WELL HOUSE ASSISTED LIVING,8080 S UPHAM ST,LITTLETON,CO,80128,6501 W 60TH AVENUE,,ARVADA,CO,80003,USA,Assisted Living
USA-CO-72-AssistedLiving-72-AssistedLiving-694,WESTSIDE ASSISTED LIVING,,,,,,,,,,,, Ms KAYLA MARTINEZ, (719)578-1355,, (719)578-5889,,Medicaid, LIMITED LIABILITY,,,EL PASO COUNTY,,16,, (719)471-7080, WESTSIDE ASSISTED LIVING,7174 E BRIARWOOD DR,CENTENNIAL,CO,80112,816 W KIOWA ST,,COLORADO SPRINGS,CO,80905,USA,Assisted Living
USA-CO-72-AssistedLiving-72-AssistedLiving-695,WHISPERING PINES AT CRESTVIEW,,,,,,,,,,,, Mr RICK SIMPSON, (719)473-4239,, (719)448-9301,,Medicaid, PROFIT-CORPORATION,,,EL PASO COUNTY,,11,, (719)471-7080, PARENT CARE LIFE INC,1414 N HANCOCK AVENUE,COLORADO SPRINGS,CO,80903,1209 E CARAMILLO ST,,COLORADO SPRINGS,CO,80909,USA,Assisted Living
USA-CO-72-AssistedLiving-72-AssistedLiving-696,WHITCOMB TERRACE,,,,,,,,,,,, Ms MARGARET GERARDI, (970)544-1530,, (970)544-1364,,Medicaid, DISTRICT,,,PITKIN COUNTY,,15,, (970)468-0295,,,,,,0275 CASTLE CREEK ROAD,,ASPEN,CO,81611,USA,Assisted Living
USA-CO-72-AssistedLiving-72-AssistedLiving-697,WILLOWBROOK PLACE,,,,,,,,,,,, Mr JAY JOHNSON, (303)948-3838,, (720)630-7200,,Private,6,,,ARAPAHOE COUNTY,,76,,LIMITED LIABILITY,,,,,,5275 S KIPLING PARKWAY,,LITTLETON,CO,80127,USA,Assisted Living
USA-CO-72-AssistedLiving-72-AssistedLiving-698,"WILLOWS AT CRESTVIEW, THE",,,,,,,,,,,, Mr RICK SIMPSON, (719)473-1362,, (719)448-9301,,Medicaid, PROFIT-CORPORATION,,,EL PASO COUNTY,,11,, (719)471-7080, PARENT CARE LIFE INC,1414 N HANCOCK AVENUE,COLORADO SPRINGS,CO,80903,1410 E BUENA VENTURA STREET,,COLORADO SPRINGS,CO,80909,USA,Assisted Living
USA-CO-72-AssistedLiving-72-AssistedLiving-699,"WILLOWS, THE",,,,,,,,,,,, Ms KAYREN GOSS, (970)858-2184,, (970)858-8509,,Private,6,,,MESA COUNTY,,26,,CORPORATE NON-PROFIT,,,,,,243 N CHERRY STREET,,FRUITA,CO,81521,USA,Assisted Living
USA-CO-72-AssistedLiving-72-AssistedLiving-700,WINSLOW COURT RETIREMENT COMMUNITY,,,,,,,,,,,, Ms MICHELLE BOILES, (719)597-1700,, (719)574-6074,,Medicaid, LIMITED LIABILITY,,,EL PASO COUNTY,,128,, (719)471-7080,,,,,,3920 E SAN MIGUEL,,COLORADO SPRINGS,CO,80909,USA,Assisted Living
USA-CO-72-AssistedLiving-72-AssistedLiving-701,XANADU ASSISTED LIVING RESIDENCE,,,,,,,,,,,, Ms ELSA MERRITT, (303)364-9630,, (303)364-9868,,Medicaid, LIMITED LIABILITY,,,ARAPAHOE COUNTY,,8,, (303)480-5624,,,,,,1391-1395  XANADU STREET,,AURORA,CO,80011,USA,Assisted Living
USA-CO-72-AssistedLiving-72-AssistedLiving-702,YAMPA MAKARIOS ASSISTED LIVING,,,,,,,,,,,, Mr FNU SUYATNO, (720)404-1445,, (303)696-9176,,Medicaid, LIMITED LIABILITY,,,ARAPAHOE COUNTY,,8,, (303)480-5624, YAMPA MAKARIOS ASSISITED LIVING,14691 E. LEIGH AVENUE,AURORA,CO,80014,2936 S YAMPA WAY,,AURORA,CO,80013,USA,Assisted Living
USA-CO-72-AssistedLiving-72-AssistedLiving-703,YOUR 2ND HOME LLC,,,,,,,,,,,, Ms KAYLA MARTINEZ, (303)424-1266,, (303)423-8047,,Medicaid, LIMITED LIABILITY,,,JEFFERSON COUNTY,,8,, (303)480-5624, YOUR 2ND HOME LLC,7174 BRIARWOOD DR,CENTENNIAL,CO,80112,3880 DOVER ST,,WHEAT RIDGE,CO,80033,USA,Assisted Living
