row_id,Facility Name,Region,Address1,Address2,City,Province,Postal Code,Contact,Phone,Language,Space,Country,facility_type
Canada-NB-9-SpecialCareHomes-output-1,CENTRE DE SERVICES-RESEAU SERVICES CHALEUR,CHALEUR,68 RUE BOUDREAU ,,BERESFORD,NB,E8K 2G2,LISE BOULANGER,(506) 542-9406,BILINGUAL,19,Canada,Special Care Home
Canada-NB-9-SpecialCareHomes-output-2,FOYER ALVINA ALLAIN,CHALEUR,2  CHAMBERLAIN SETTLEMENT ROAD,,CHAMBERLAIN SETTLEMENT,NB,E2A 6G4,ALVINA ALLAIN,(506) 548-3229,BILINGUAL,4,Canada,Special Care Home
Canada-NB-9-SpecialCareHomes-output-3,FOYER CHEZ ANNIE  DE ROBERTVILLE,CHALEUR,741 ROUTE 322 ,,ROBERTVILLE,NB,E8K 2T6,ANNIE FRENETTE ET STEVEN SISK,(506) 430-5600,BILINGUAL,30,Canada,Special Care Home
Canada-NB-9-SpecialCareHomes-output-4,FOYER CHEZ ANNIE FRENETTE,CHALEUR,60  MURRAY AVENUE,,BATHURST,NB,E2A 1T7,ANNIE FRENETTE ET STEVEN SISK,(506) 350-5600,BILINGUAL,15,Canada,Special Care Home
Canada-NB-9-SpecialCareHomes-output-5,FOYER CHEZ JENNY INC.,CHALEUR,14  CHAMPLAIN STREET,,PETIT-ROCHER,NB,E8J 1R7,ARSENEAU JENNY,(506) 430-4300,BILINGUAL,8,Canada,Special Care Home
Canada-NB-9-SpecialCareHomes-output-6,FOYER CHEZ LINE MORRISON,CHALEUR,40 STREET DOUCET ,,BERESFORD,NB,E8K 0A9,LINE MORRISON,(506) 542-7161,FRENCH,10,Canada,Special Care Home
Canada-NB-9-SpecialCareHomes-output-7,FOYER CHEZ MONICK,CHALEUR,39 STREET PRINCIPALE ,,PETIT-ROCHER,NB,E8J 1L9,MONIQUE BOUCHARD,(506) 783-3050,FRENCH,20,Canada,Special Care Home
Canada-NB-9-SpecialCareHomes-output-8,FOYER DENISE AUBIE,CHALEUR,85 RUE COUTURE ,,BATHURST,NB,E2A 2E8,DENISE AUBIE,(506) 548-4705,FRENCH,3,Canada,Special Care Home
Canada-NB-9-SpecialCareHomes-output-9,FOYER LA BERCEUSE,CHALEUR,0 CHEMIN LAPLANTE ,,LAPLANTE,NB,E8J 1Z4,MONIQUE GUIGNARD,(506) 783-4614,FRENCH,10,Canada,Special Care Home
Canada-NB-9-SpecialCareHomes-output-10,FOYER LISE & JACQUES ROY,CHALEUR,34 RUE PRINCIPALE ,,POINTE-VERTE,NB,E8J 3A1,LISE ROY,(506) 783-2878,FRENCH,2,Canada,Special Care Home
Canada-NB-9-SpecialCareHomes-output-11,FOYER LUCIE SAVOIE,CHALEUR,003 ROUTE 134 ,,ALLARDVILLE,NB,E8L 1S3,LUCIE SAVOIE,(506) 725-5583,FRENCH,2,Canada,Special Care Home
Canada-NB-9-SpecialCareHomes-output-12,FOYER MARIE-MAY PITRE,CHALEUR,22 STREET MAPLE ST. APT. 1 ,,BATHURST,NB,E2A 1J2,MARIE-MAY PITRE,(506) 548-5343,FRENCH,2,Canada,Special Care Home
Canada-NB-9-SpecialCareHomes-output-13,FOYER NOTRE-DAME DU SOURIRE (2015) INC.,CHALEUR,65 ROUTE 160 ,,ALLARVILLE,NB,E8L 1J9,REJEANNE DUGUAY-DAVID,(506) 725-5493,FRENCH,15,Canada,Special Care Home
Canada-NB-9-SpecialCareHomes-output-14,FOYER ROBICHAUD LA MAISON BLANCHE (2016) LTEE,CHALEUR,75  ARCHIBALD STREET,,BATHURST,NB,E2A 4E1,MELISSA OR DINO SIMONE,(506) 548-3773,ENGLISH,14,Canada,Special Care Home
Canada-NB-9-SpecialCareHomes-output-15,L & B RESIDENCE INC,CHALEUR,20  ST-ANNE STREET,,BATHURST,NB,E2A 2N4,LUCILLE LAVIOLETTE,(506) 226-0436,BILINGUAL,10,Canada,Special Care Home
Canada-NB-9-SpecialCareHomes-output-16,MAISON ROY-DUGUAY,CHALEUR,5 STREET LAPLANTE NORD ,,LAPLANTE,NB,E8J 2A1,NADIA ROY-DUGUAY,(506) 783-3524,FRENCH,10,Canada,Special Care Home
Canada-NB-9-SpecialCareHomes-output-17,MANOIR BIENVEILLANCE INC.,CHALEUR,31  RUE DU PARC EST ,,BERESFORD,NB,E8K 1V9,MARCELLA HINTON,(506) 542-2094,FRENCH,30,Canada,Special Care Home
Canada-NB-9-SpecialCareHomes-output-18,MANOIR BRISE DE L'OASIS,CHALEUR,90 RUE UNION ,,BATHURST,NB,E2A 1H4,KEVIN ET LINDA VIENNEAU,(506) 547-1100,BILINGUAL,46,Canada,Special Care Home
Canada-NB-9-SpecialCareHomes-output-19,MANOIR DU ROCHER,CHALEUR,72 RUE PRINCIPALE ,,PETIT-ROCHER,NB,E8J 1N4,ANNIK GUITARD,(506) 783-8879,FRENCH,30,Canada,Special Care Home
Canada-NB-9-SpecialCareHomes-output-20,MANOIR OASIS DE LA BAIE,CHALEUR,60 RUE QUEEN ,,BATHURST,NB,E2A 2J7,GUY TREMBLAY,(506) 548-3077,BILINGUAL,36,Canada,Special Care Home
Canada-NB-9-SpecialCareHomes-output-21,MELANSON SPECIAL CARE HOME,CHALEUR,15  ST. PATRICK STREET,,BATHURST,NB,E2A 1C9,MARY MELANSON,(506) 548-8546,BILINGUAL,14,Canada,Special Care Home
Canada-NB-9-SpecialCareHomes-output-22,RESIDENCE ARSENEAU LTEE,CHALEUR,30  PRINCIPALE STREET,,POINTE-VERTE,NB,E8J 2Z6,ERIC ARSENEAU,(506) 783-9009,BILINGUAL,8,Canada,Special Care Home
Canada-NB-9-SpecialCareHomes-output-23,RESIDENCE CHEZ CHANTAL LTEE,CHALEUR,89 RUE SUNSET ,,BERESFORD,NB,E8K 2G5,CHANTAL LAVIGNE,(506) 542-9399,FRENCH,10,Canada,Special Care Home
Canada-NB-9-SpecialCareHomes-output-24,RÉSIDENCE CHEZ SYLVIE INC.,CHALEUR,62  PRINCIPALE STREET,,PETIT-ROCHER,NB,E8J 1N8,SYLVIE LAGACÉ,(506) 543-2975,BILINGUAL,8,Canada,Special Care Home
Canada-NB-9-SpecialCareHomes-output-25,RESIDENCE D.M. BOUDREAU (2013) LIMITEE,CHALEUR,80  COLLEGE STREET,,BATHURST,NB,E2A 2T6,RACHEL CORMIER,(506) 548-5538,BILINGUAL,35,Canada,Special Care Home
Canada-NB-9-SpecialCareHomes-output-26,RESIDENCE LISA GUIGNARD,CHALEUR,15 RUE CHALEUR ,,BATHURST,NB,E2A 3H9,LISA GUIGNARD,(506) 548-9423,BILINGUAL,15,Canada,Special Care Home
Canada-NB-9-SpecialCareHomes-output-27,RESIDENCE MCGRAW LTEE,CHALEUR,60  RIVERSIDE DRIVE,,BATHURST,NB,E2A 2M6,NATHALIE BLANCHARD,(506) 546-2483,BILINGUAL,44,Canada,Special Care Home
Canada-NB-9-SpecialCareHomes-output-28,RESIDENCE ROSS,CHALEUR,50 RUE JEAN-LOUIS ,,TREMBLAY,NB,E8J 3B7,SONIA ANNE ROSS,(506) 783-8847,BILINGUAL,10,Canada,Special Care Home
Canada-NB-9-SpecialCareHomes-output-29,RESIDENCE ROSS-BATHURST,CHALEUR,250  OCEAN RIDGE STREET,,BATHURST,NB,E2A 4R7,SONIA ANNE ROSS,(506) 350-1772,BILINGUAL,24,Canada,Special Care Home
Canada-NB-9-SpecialCareHomes-output-30,RESIDENCE STEVER,CHALEUR,143  ALCIDA ROAD,,ALCIDA,NB,E8J 2C2,CLAUDIA STEVER,(506) 430-0515,BILINGUAL,3,Canada,Special Care Home
Canada-NB-9-SpecialCareHomes-output-31,RESIDENCE VERO,CHALEUR,224 ROAD ALCIDA ,,ALCIDA,NB,E8J 2B4,SUSIE PITRE,(506) 783-9115,FRENCH,3,Canada,Special Care Home
Canada-NB-9-SpecialCareHomes-output-32,RESIDENCE VIENNEAU INC.,CHALEUR,00 RUE CHALEUR ,,BATHURST,NB,E2A 3J2,KEVIN VIENNEAU,(506) 544-5185,BILINGUAL,30,Canada,Special Care Home
Canada-NB-9-SpecialCareHomes-output-33,SOUTHERN COMFORT VILLA,CHALEUR,394  KING AVENUE,,BATHURST,NB,E2A 1S8,LILLIAN DRAPEAU,(506) 350-9000,BILINGUAL,30,Canada,Special Care Home
Canada-NB-9-SpecialCareHomes-output-34,ANNE DIONNE,EDMUNDSTON, RUE ST JOSEPH ,,ST-ANNE -DE MADAWASKA,NB,E7E1L1,ANNE DIONNE,(506) 445-2755,FRENCH,17,Canada,Special Care Home
Canada-NB-9-SpecialCareHomes-output-35,AUBERGE DES GOUVERNEURS,EDMUNDSTON,3 RUE DES GOUVERNEURS ,,EDMUNDSTON,NB,E3V 4E8,MICHAEL KIRBY,(506) 735-5727,FRENCH,74,Canada,Special Care Home
Canada-NB-9-SpecialCareHomes-output-36,AUBERGE LE MONTAGNARD,EDMUNDSTON,5 RUE LE MONTAGNARD ,,EDMUNDSTON,NB,E3V 0B2,MICHAEL KIRBY,(506) 737-4120,FRENCH,60,Canada,Special Care Home
Canada-NB-9-SpecialCareHomes-output-37,BARD SOLANGE,EDMUNDSTON, RUE DES ORMES ,,BAKER BROOK,NB,E7A 1T4,SOLANGE BARD,(506) 258-1994,FRENCH,1,Canada,Special Care Home
Canada-NB-9-SpecialCareHomes-output-38,BERUBE DANNY ET SYLVIE,EDMUNDSTON,355 ROUTE 205 ,,CLAIR,NB,E7A 1Y1,SYLVIE BERUBE,(506) 992-2646,FRENCH,24,Canada,Special Care Home
Canada-NB-9-SpecialCareHomes-output-39,BLAQUIERE PARISE,EDMUNDSTON,4 RUE PRINCIPALE ,,SAINT-JACQUES,NB,E7B 1V7,PARISE BLAQUIERE,(506) 735-7715,FRENCH,8,Canada,Special Care Home
Canada-NB-9-SpecialCareHomes-output-40,BOUCHARD DIANE,EDMUNDSTON,9 CHEMIN LEVASSEUR ,,CLAIR,NB,E7A 1Y9,DIANE BOUCHARD,(506) 992-2566,FRENCH,7,Canada,Special Care Home
Canada-NB-9-SpecialCareHomes-output-41,CARON YVON,EDMUNDSTON,01 AVENUE 2E ,,GRAND-SAULT,NB,E3Z 1A2,HUGUETTE CARON,(506) 473-5235,FRENCH,5,Canada,Special Care Home
Canada-NB-9-SpecialCareHomes-output-42,CHEZ SOI,EDMUNDSTON,61 RUE PRINCIPALE ,,SAINT-BASILE,NB,E7C 1K9,ALLEN BOUCHARD,(506) 263-5542,FRENCH,12,Canada,Special Care Home
Canada-NB-9-SpecialCareHomes-output-43,CORMIER THERESE,EDMUNDSTON,35 CHEMIN PRICE ,,DRUMMOND,NB,E3Y 2A7,THERESE CORMIER,(506) 473-4434,FRENCH,5,Canada,Special Care Home
Canada-NB-9-SpecialCareHomes-output-44,COUTURIER DORIANNE,EDMUNDSTON,68 RUE RINGUETTE ,,SAINT-BASILE,NB,E7C 2G6,DORIANNE COUTURIER,(506) 263-8713,FRENCH,8,Canada,Special Care Home
Canada-NB-9-SpecialCareHomes-output-45,CYR KARINE,EDMUNDSTON,308 ROUTE 17 ,,SAINT-LEONARD PARENT,NB,E7E 2N8,KARINE CYR,(506) 423-6910,FRENCH,16,Canada,Special Care Home
Canada-NB-9-SpecialCareHomes-output-46,DENISE LEVESQUE,EDMUNDSTON,10 RUE LEVESQUE ,,SAINT-ANDRE,NB,E3Y 3C7,DENISE LEVESQUE,(506) 473-5756,FRENCH,2,Canada,Special Care Home
Canada-NB-9-SpecialCareHomes-output-47,FOYER A. RINGUETTE INC.,EDMUNDSTON,73 RUE PRINCIPALE ,,SAINTE-ANNE-DE-MADAWASKA,NB,E7E 1B1,LISE CYR ET LINDA RINGUETTE,(506) 445-2168,FRENCH,31,Canada,Special Care Home
Canada-NB-9-SpecialCareHomes-output-48,FOYER BERTIN BOSSE,EDMUNDSTON,30 RUE PRINCIPAL ,,ST-JACQUES,NB,E7B1V9,BERTIN BOSSE,(506) 739-8202,FRENCH,15,Canada,Special Care Home
Canada-NB-9-SpecialCareHomes-output-49,FOYER BRENDA PELLETIER,EDMUNDSTON,9 CHEMIN DESPRES ,,SAINT-ANDRE,NB,E3Y 2Y8,BRENDA PELLETIER,(506) 473-2143,FRENCH,10,Canada,Special Care Home
Canada-NB-9-SpecialCareHomes-output-50,FOYER CHEZ MÉLANIE,EDMUNDSTON,1 RUE DU PARC ,,SAINT-BASILE,NB,E7C 1R9,MELANIE MICHAUD,(506) 735-4418,FRENCH,10,Canada,Special Care Home
Canada-NB-9-SpecialCareHomes-output-51,FOYER CINDY ROY,EDMUNDSTON,94 CHEMIN TOBIQUE ,,GRAND-SAULT,NB,E3Y 1E9,CINDY ROY,(506) 473-2337,FRENCH,30,Canada,Special Care Home
Canada-NB-9-SpecialCareHomes-output-52,FOYER DENISE PAGE,EDMUNDSTON,07 RUE STEPHEN ,,GRAND-SAULT,NB,E3Z 3B2,DENISE PAGE,(506) 473-2735,FRENCH,5,Canada,Special Care Home
Canada-NB-9-SpecialCareHomes-output-53,FOYER JACINTHE LECLERC,EDMUNDSTON,13 RUE VICTORIA ,,GRAND-SAULT,NB,E3Z 3C3,JACINTHE LECLERC,(506) 473-5194,BILINGUAL,11,Canada,Special Care Home
Canada-NB-9-SpecialCareHomes-output-54,FOYER L & L LAFORGE NO 2,EDMUNDSTON,78 AVENUE 3E ,,GRAND-SAULT,NB,E3Z 1A4,LISA ET LUC LAFORGE,(506) 475-8846,FRENCH,8,Canada,Special Care Home
Canada-NB-9-SpecialCareHomes-output-55,FOYER L'OASIS DE PAIX,EDMUNDSTON, RUE MONTREUIL ,,RIVIERE-VERTE,NB,E7C2S6,JANIE BOSSÉ-MORIN,(506) 263-8511,FRENCH,15,Canada,Special Care Home
Canada-NB-9-SpecialCareHomes-output-56,FOYER MARC MICHAUD,EDMUNDSTON,5 RUE BELAIR ,,GRAND-SAULT,NB,E3Z 3E9,MARC MICHAUD,(506) 473-5457,FRENCH,8,Canada,Special Care Home
Canada-NB-9-SpecialCareHomes-output-57,FOYER MARIETTE LADOUCEUR,EDMUNDSTON,6 CHEMIN DESJARDINS ,,SAINT-ANDRE,NB,E3Y 3A2,MARIETTE LADOUCEUR,(506) 473-5763,FRENCH,3,Canada,Special Care Home
Canada-NB-9-SpecialCareHomes-output-58,FOYER SONIA LISA INC,EDMUNDSTON,741 RUE PRINCIPALE ,,BAKER BROOK,NB,E7A 2A5,SONIA THIBODEAU,(506) 258-3322,BILINGUAL,19,Canada,Special Care Home
Canada-NB-9-SpecialCareHomes-output-59,FOYER ST JACQUES,EDMUNDSTON, RUE DEMERS ,,ST JACQUES,NB,E7B 1E8,LINE LEMIEUX SIROIS,(506) 735-5765,FRENCH,21,Canada,Special Care Home
Canada-NB-9-SpecialCareHomes-output-60,FOYER SYLVIE AUBUT,EDMUNDSTON,5830  ROUTE 105 ,,DSL DE DRUMMOND,NB,E3Y 2H6,,(506) 473-8101,FRENCH,8,Canada,Special Care Home
Canada-NB-9-SpecialCareHomes-output-61,GRONDIN RAYMONDE,EDMUNDSTON,6 CHEMIN RIVIERE-A-LA-TRUITE ,,SAINT-JACQUES,NB,E7B 1Y5,RAYMONDE GRONDIN,(506) 735-4970,FRENCH,6,Canada,Special Care Home
Canada-NB-9-SpecialCareHomes-output-62,LE PAVILLON LE ROYER,EDMUNDSTON,29 RUE PRINCIPALE ,,ST BASILE,NB,E7C1J2,MME MANON SOUCY,(506) 263-9023,FRENCH,27,Canada,Special Care Home
Canada-NB-9-SpecialCareHomes-output-63,LECLERC PAGE GINETTE A,EDMUNDSTON,351 CHEMIN TOBIQUE ,,DRUMMOND,NB,E3Y 2P4,GINETTE A PAGE LECLERC,(506) 473-3305,FRENCH,5,Canada,Special Care Home
Canada-NB-9-SpecialCareHomes-output-64,MAISON BELLE VUE,EDMUNDSTON,  AVENUE BATEMAN AVENUE,,EDMUNDSTON,NB,E3V4A9,GUY LONG,(506) 739-3663,BILINGUAL,30,Canada,Special Care Home
Canada-NB-9-SpecialCareHomes-output-65,MAISON LEMIEUX,EDMUNDSTON,5 RUE DES GOUVERNEURS ,,EDMUNDSTON,NB,E3V 4E8,MICHAEL KIRBY,(506) 735-8098,FRENCH,48,Canada,Special Care Home
Canada-NB-9-SpecialCareHomes-output-66,MANOIR ANNE LEMIEUX,EDMUNDSTON,5 RUE DES GOUVERNEURS ,,EDMUNDSTON,NB,E3V 4E8,MICHAEL KIRBY,(506) 739-0103,FRENCH,36,Canada,Special Care Home
Canada-NB-9-SpecialCareHomes-output-67,MANOIR BELLE VUE INC,EDMUNDSTON,  AVENUE BATEMAN AVENUE,,EDMUNDSTON,NB,E3V4A9,GUY LONG,(506) 739-3663,BILINGUAL,61,Canada,Special Care Home
Canada-NB-9-SpecialCareHomes-output-68,MICHAUD LYNN,EDMUNDSTON,98 AVENUE 2E ,,GRAND-SAULT,NB,E3Z 1A4,LYNN MICHAUD,(506) 473-6041,FRENCH,4,Canada,Special Care Home
Canada-NB-9-SpecialCareHomes-output-69,OUELLETTE MONIQUE,EDMUNDSTON,56 RUE ANDRE SUD ,,SAINT-ANDRE,NB,E3Y 2V9,MONIQUE OUELLETTE,(506) 473-5307,FRENCH,1,Canada,Special Care Home
Canada-NB-9-SpecialCareHomes-output-70,PAULETTE ALBERT,EDMUNDSTON,85 CHEMIN CHEMIN DE L'ÉGLISE ,,LAC BAKER,NB,E7A 1L1,PAULETTE ALBERT,(506) 992-2330,FRENCH,3,Canada,Special Care Home
Canada-NB-9-SpecialCareHomes-output-71,PAVILLON BELLE VUE,EDMUNDSTON, AVENUE AVENUE BATEMAN ,,EDMUNDSTON,NB,E3V4A9,GUY LONG,(506) 739-3663,BILINGUAL,30,Canada,Special Care Home
Canada-NB-9-SpecialCareHomes-output-72,RÉSIDENCE DU BONHEUR,EDMUNDSTON,89 CHEMIN OLD ROUTE 2 ,,DSL DE SAINT-ANDRE,NB,E3Y 3S5,APRIL ROUSSIE,(506) 473-7272,BILINGUAL,60,Canada,Special Care Home
Canada-NB-9-SpecialCareHomes-output-73,RESIDENCE ROLANDE LONG,EDMUNDSTON,20 CHEMIN CANADA ,,EDMUNDSTON,NB,E3V 1W4,ROLANDE LONG,(506) 735-4276,FRENCH,10,Canada,Special Care Home
Canada-NB-9-SpecialCareHomes-output-74,RESIDENCES ISABELLE,EDMUNDSTON,17 AVENUE 39E ,,EDMUNDSTON,NB,E3V 2X4,ISABELLE OUELLET,(506) 736-0891,FRENCH,10,Canada,Special Care Home
Canada-NB-9-SpecialCareHomes-output-75,THERIAULT DENISE,EDMUNDSTON,15 RUE LAFRANCE ,,GRAND SAULT,NB,E3Z 1B1,DENISE THERIAULT,(506) 473-5772,FRENCH,3,Canada,Special Care Home
Canada-NB-9-SpecialCareHomes-output-76,ALL NEEDS SPECIAL CARE HOME,FREDERICTON,52  DOUGLAS AVENUE,,FREDERICTON,NB,E3A 2N9,,(506) 459-2186,ENGLISH,7,Canada,Special Care Home
Canada-NB-9-SpecialCareHomes-output-77,ALLEIRA FREDERICTON,FREDERICTON,1  HAROLD DOHERTY COURT ,,FREDERICTON,NB,E3A 5P2,KATHY ARSENEAU,(506) 459-2273,ENGLISH,54,Canada,Special Care Home
Canada-NB-9-SpecialCareHomes-output-78,B&T COUNTRY HAVEN INC,FREDERICTON,816 ROUTE RTE 105 ,,MILL COVE,NB,E4C 3A6,TARA BEALE,(506) 488-2017,ENGLISH,8,Canada,Special Care Home
Canada-NB-9-SpecialCareHomes-output-79,BARRIE'S SPECIAL CARE HOME LTD,FREDERICTON,459 ROUTE 101 ,,NASONWORTH,NB,E3C 2C8,RENEE BOWERING,(506) 454-8177,ENGLISH,10,Canada,Special Care Home
Canada-NB-9-SpecialCareHomes-output-80,BARTLETT GARDENS CARE HOME,FREDERICTON,4  CRAIG STREET ,,RICHIBUCTO ROAD,NB,E3A6S9,WENDY SYMONDS,(506) 206-1111,ENGLISH,8,Canada,Special Care Home
Canada-NB-9-SpecialCareHomes-output-81,BIRCH HAVEN SPECIAL CARE HOME,FREDERICTON,263 ROUTE 560 ,,LAKEVILLE,NB,E7K 1T5,DARLENE OR BRIAN MURRAY,(506) 392-1801,ENGLISH,9,Canada,Special Care Home
Canada-NB-9-SpecialCareHomes-output-82,BOONE HOME,FREDERICTON,  MCGANN ROAD,,LIMESTONE,NB,E7N 2S9,LORRAINE BOONE,(506) 277-6328,ENGLISH,3,Canada,Special Care Home
Canada-NB-9-SpecialCareHomes-output-83,BRUNSWICK HALL,FREDERICTON,5  PATIENCE LANE,,FREDERICTON,NB,E3B 0K4,BOWEN PAMELA,(506) 460-8803,ENGLISH,60,Canada,Special Care Home
Canada-NB-9-SpecialCareHomes-output-84,BURPEE RESIDENTIAL CENTER,FREDERICTON,45 ROUTE 560 ,,JACKSONVILLE,NB,E7M 3H4,LELAH BURPEE,(506) 328-6827,ENGLISH,8,Canada,Special Care Home
Canada-NB-9-SpecialCareHomes-output-85,COLFORDS SENIOR CARE,FREDERICTON,126 ROUTE ROUTE 148 ,,NASHWAAK VILLAGE,NB,E6C 1L2,WILLIAMS ELISHA,(506) 459-7494,ENGLISH,8,Canada,Special Care Home
Canada-NB-9-SpecialCareHomes-output-86,COZY INN SPECIAL CARE HOME,FREDERICTON,200  CENTRAL HAINESVILLE ROAD ROAD,,UPPER HAINESVILLE,NB,E6E 1K1,COLLEEN BROSNAN,(506) 463-6244,ENGLISH,10,Canada,Special Care Home
Canada-NB-9-SpecialCareHomes-output-87,CRESCENT GARDEN GUEST HOME,FREDERICTON,1  CRESCENT GARDEN ,,HARTLAND,NB,E7P 1L9,DALE SHAW,(506) 375-9113,ENGLISH,3,Canada,Special Care Home
Canada-NB-9-SpecialCareHomes-output-88,CURTIS SPECIAL CARE HOME,FREDERICTON,73  CARLISLE ROAD,,DOUGLAS,NB,E3G 7M7,MICHELLE CURTIS,(506) 450-3957,ENGLISH,10,Canada,Special Care Home
Canada-NB-9-SpecialCareHomes-output-89,DIANE'S VILLA SPECIAL CARE HOME LTD.,FREDERICTON,587 ROUTE 109 ,,THREE BROOKS,NB,E7G 2W6,DIANE MURPHY,(506) 356-8327,ENGLISH,19,Canada,Special Care Home
Canada-NB-9-SpecialCareHomes-output-90,DICKINSON RESIDENCE,FREDERICTON,1  CLIFFORD STREET,,MCADAM,NB,E6J 1J7,HAROLD DICKINSON,(506) 784-2630,ENGLISH,2,Canada,Special Care Home
Canada-NB-9-SpecialCareHomes-output-91,DONNELLY HOME,FREDERICTON,9  JAFFREY STREET,,FREDERICTON,NB,E3A 2R2,TANYA DONNELLY,(506) 472-1504,ENGLISH,6,Canada,Special Care Home
Canada-NB-9-SpecialCareHomes-output-92,DOWNING PLACE,FREDERICTON,1  DOWNING STREET ,,FREDERICTON,NB,E3A4M8,SAMANTHA DAVENPORT,(506) 452-1996,ENGLISH,8,Canada,Special Care Home
Canada-NB-9-SpecialCareHomes-output-93,DOW'S SPECIAL CARE HOME,FREDERICTON,09  SCOTT SIDING ROAD ROAD,,SCOTT SIDING,NB,E6H 1W3,CARA ENGLISH,(506) 279-2963,ENGLISH,5,Canada,Special Care Home
Canada-NB-9-SpecialCareHomes-output-94,EDEN'S GARDEN SPECIAL CARE HOME LTD,FREDERICTON,001  ROUTE 620 ,,TAY CREEK,NB,E6B 1J7,RENEE BOWERING,(506) 367-3342,ENGLISH,12,Canada,Special Care Home
Canada-NB-9-SpecialCareHomes-output-95,EMILY'S SPECIAL CARE HOME,FREDERICTON,4  TITUS DRIVE,,PERTH-ANDOVER,NB,E7H 5B1,EMILY PELKEY,(506) 273-2190,ENGLISH,3,Canada,Special Care Home
Canada-NB-9-SpecialCareHomes-output-96,GAGETOWN SPECIAL CARE HOME (2007) LTD,FREDERICTON,42  TILLEY ROAD ,,GAGETOWN,NB,E5M 1H6,MARTY HOOD,(506) 488-2620,ENGLISH,5,Canada,Special Care Home
Canada-NB-9-SpecialCareHomes-output-97,HANWELL SPECIAL CARE & SENIORS HOME,FREDERICTON,434  HIGHWAY 640 HIGHWAY,,HANWELL,NB,E3E 2C7,KARLA ROBERTS,(506) 451-9814,ENGLISH,20,Canada,Special Care Home
Canada-NB-9-SpecialCareHomes-output-98,HEARNE STREET RESIDENCE,FREDERICTON,10  HEARNE STREET,,FREDERICTON,NB,E3B 6M3,SMITH MELINDA,(506) 450-0909,ENGLISH,10,Canada,Special Care Home
Canada-NB-9-SpecialCareHomes-output-99,HILLSIDE LODGE,FREDERICTON,55  TILLEY DRIVE DRIVE,,FREDERICTON,NB,E3B 5L2,SARAH JENKINS,(506) 450-7600,ENGLISH,8,Canada,Special Care Home
Canada-NB-9-SpecialCareHomes-output-100,HILLSLEY CARE HOME,FREDERICTON,34  DOBIE STREET ,,FREDERICTON,NB,E3A 2Z4,GILLIES  GLENNA,(506) 457-1953,ENGLISH,7,Canada,Special Care Home
Canada-NB-9-SpecialCareHomes-output-101,KEETCH'S SPECIAL CARE HOME,FREDERICTON,4  LOCKWOOD ROAD,,MILL COVE,NB,E4C 3E2,SHERRY KEETCH,(506) 488-3319,ENGLISH,14,Canada,Special Care Home
Canada-NB-9-SpecialCareHomes-output-102,KOZE CORNER SPECIAL CARE HOME,FREDERICTON,92 ROUTE 605 ,,TEMPERANCE VALE,NB,E6G 2C4,ADA SHARPE,(506) 575-2902,ENGLISH,8,Canada,Special Care Home
Canada-NB-9-SpecialCareHomes-output-103,LANG LODGE GRAFTON,FREDERICTON,495 ROUTE 585 ,,GRAFTON,NB,E7N 1H7,LYDIA LANG,(506) 328-4699,ENGLISH,10,Canada,Special Care Home
Canada-NB-9-SpecialCareHomes-output-104,LANSDOWNE SPECIAL CARE HOME,FREDERICTON,56  MELVILLE ROAD,,LANSDOWNE,NB,E7L 3W5,LORRAINE THOMAS,(506) 375-4229,ENGLISH,9,Canada,Special Care Home
Canada-NB-9-SpecialCareHomes-output-105,LASKEY HOME,FREDERICTON,95  HOULTON ROAD,,WOODSTOCK,NB,E7M 6B7,CATHY LASKEY,(506) 328-3422,ENGLISH,3,Canada,Special Care Home
Canada-NB-9-SpecialCareHomes-output-106,LOHNES SPECIAL CARE HOME,FREDERICTON,34  SMYTHE STREET,,FREDERICTON,NB,E3B 3C8,FRANCES LOHNES,(506) 455-4744,ENGLISH,7,Canada,Special Care Home
Canada-NB-9-SpecialCareHomes-output-107,LOIS'S SPECIAL CARE,FREDERICTON,4  EATON COURT,,HANWELL,NB,E3C 1M7,LOIS PELKEY,(506) 458-5718,ENGLISH,6,Canada,Special Care Home
Canada-NB-9-SpecialCareHomes-output-108,MAPLE VILLA SPECIAL CARE HOME,FREDERICTON,88 ROUTE 605 ,,TEMPERANCE VALE,NB,E6G 2C8,CINDY BOONE,(506) 575-8260,ENGLISH,6,Canada,Special Care Home
Canada-NB-9-SpecialCareHomes-output-109,MCKAY RESIDENCE,FREDERICTON,19  CANADA STREET,,FREDERICTON,NB,E3A 4A3,GLADYS MCKAY,(506) 472-8499,ENGLISH,4,Canada,Special Care Home
Canada-NB-9-SpecialCareHomes-output-110,MERCY'S RESIDENCE,FREDERICTON,4  KING STREET ,,MINTO,NB,E4B 3N5,,(506) 327-3394,ENGLISH,6,Canada,Special Care Home
Canada-NB-9-SpecialCareHomes-output-111,MOSS RESIDENCE,FREDERICTON,0  LOCKWOOD ROAD,,MILLCOVE,NB,E4C 3E2,JEAN MOSS,(506) 488-3132,ENGLISH,9,Canada,Special Care Home
Canada-NB-9-SpecialCareHomes-output-112,MOUNT HAVEN RESIDENTIAL HOME CARE INC.,FREDERICTON,215 ROUTE ROUTE 107 ,,GLASSVILLE,NB,E7L 1B9,CHRISTINA COX,(506) 246-1015,ENGLISH,9,Canada,Special Care Home
Canada-NB-9-SpecialCareHomes-output-113,MOUNTAIN VIEW CARE HOME,FREDERICTON,754 ROUTE 109 ,,ARTHURETTE,NB,E7H 4A9,ROWENA SMITH,(506) 273-9598,ENGLISH,6,Canada,Special Care Home
Canada-NB-9-SpecialCareHomes-output-114,NEW BEGINNINGS,FREDERICTON,300 ROUTE ROUTE 560 ,,RIVER DE CHUTE,NB,E7H 4S8,SUSAN OAKES,(506) 503-0289,ENGLISH,3,Canada,Special Care Home
Canada-NB-9-SpecialCareHomes-output-115,NEW BRUNSWICK COMMUNITY RESIDENCE,FREDERICTON,30  NEEDHAM ST ,,FREDERICTON,NB,E3B 1P3,STEPHANIE BREWER,(506) 454-9580,ENGLISH,8,Canada,Special Care Home
Canada-NB-9-SpecialCareHomes-output-116,NORTH MINTO RESIDENCE LTD,FREDERICTON,81  NORTHSIDE DRIVE,,MINTO,NB,E4B 3C7,PETITPAS MARIE,(506) 327-9000,ENGLISH,40,Canada,Special Care Home
Canada-NB-9-SpecialCareHomes-output-117,OROMOCTO SPECIAL CARE HOME,FREDERICTON,25  MITCHELL STREET,,OROMOCTO,NB,E2V 0H3,MARTY HOOD,(506) 422-8600,ENGLISH,14,Canada,Special Care Home
Canada-NB-9-SpecialCareHomes-output-118,PARADISE VILLA INC.,FREDERICTON,65  CLEMENTS DRIVE ,,FREDERICTON,NB,E3G 7J2,LOUISE PETITPAS,(506) 443-8000,BILINGUAL,60,Canada,Special Care Home
Canada-NB-9-SpecialCareHomes-output-119,PRINCE ALBERT LODGE,FREDERICTON,12  PRINCE ALBERT STREET,,WOODSTOCK,NB,E7M 2M1,LOCKE PERRY,(506) 328-3184,ENGLISH,24,Canada,Special Care Home
Canada-NB-9-SpecialCareHomes-output-120,PRINCE WILLIAM SPECIAL CARE HOME,FREDERICTON,2  GIBSON SETTLEMENT ROAD,,PRINCE WILLIAM,NB,E6K 3J8,KATHARINA GERE,(506) 366-3592,ENGLISH,3,Canada,Special Care Home
Canada-NB-9-SpecialCareHomes-output-121,RIPPLES CARE HOME,FREDERICTON,19 ROUTE 670 ,,RIPPLES,NB,E4B 1E6,CHERYL SMITH,(506) 385-2914,ENGLISH,3,Canada,Special Care Home
Canada-NB-9-SpecialCareHomes-output-122,RIVERSIDE COURT RETIREMENT RESIDENCE INC.,FREDERICTON,70  MAIN STREET,,WOODSTOCK,NB,E7M 0B2,RIVERSIDE COURT RETIREMENT RESIDENCE INC. BOARD,(506) 325-7200,ENGLISH,24,Canada,Special Care Home
Canada-NB-9-SpecialCareHomes-output-123,RIVERVIEW COMFORT SPECIAL CARE HOME,FREDERICTON,4  FRONT STREET,,GAGETOWN,NB,E5M 1A1,WAYNE EATMON,(506) 488-9015,ENGLISH,19,Canada,Special Care Home
Canada-NB-9-SpecialCareHomes-output-124,RUTH ANNA'S LADIES' HOME CARE,FREDERICTON,7  CLARK STREET,,HARTLAND,NB,E7P 1L3,RUTH SAWLER,(506) 375-9193,ENGLISH,12,Canada,Special Care Home
Canada-NB-9-SpecialCareHomes-output-125,SCOTT'S SPECIAL CARE HOME INC.,FREDERICTON,095 ROUTE ROUTE 103 ,,UPPER WOODSTOCK,NB,E7M 3C7,ANITA SCOTT,(506) 328-2997,ENGLISH,9,Canada,Special Care Home
Canada-NB-9-SpecialCareHomes-output-126,SHAW'S SPECIAL CARE HOME,FREDERICTON,08 ROUTE 590 ,,WATERVILLE,NB,E7P 1C3,TERRY OR VALERIE SLIPP,(506) 375-8865,ENGLISH,10,Canada,Special Care Home
Canada-NB-9-SpecialCareHomes-output-127,SOUTHSIDE SPECIAL NEEDS HOME INC,FREDERICTON,56  BEACONSFIELD STREET,,FREDERICTON,NB,E3B 5H2,ANGELA RAMSAY,(506) 206-3588,ENGLISH,10,Canada,Special Care Home
Canada-NB-9-SpecialCareHomes-output-128,STEVENSON'S SPECIAL CARE HOME,FREDERICTON,816  ROUTE 105 HIGHWAY,,MILLCOVE,NB,E4C 3A8,KAREN CARSON,(506) 488-2017,ENGLISH,8,Canada,Special Care Home
Canada-NB-9-SpecialCareHomes-output-129,SWANHAVEN ADULT RESIDENTIAL FACILITY LTD.,FREDERICTON,915  ROUTE 3 ,,HARVEY STATION,NB,E6K 3K1,MALCOLM CAIRNS,(506) 366-2950,ENGLISH,28,Canada,Special Care Home
Canada-NB-9-SpecialCareHomes-output-130,SWIM'S ADULT RESIDENTIAL FACILITY,FREDERICTON,48  WHITE ROAD,,AVONDALE,NB,E7K 1E5,EMILY SWIM,(506) 375-6613,ENGLISH,9,Canada,Special Care Home
Canada-NB-9-SpecialCareHomes-output-131,THE GUARDIANS SPECIAL CARE HOME,FREDERICTON,03  MACFARLANE STREET,,FREDERICTON,NB,E3A 1V7,VIRGINIA GERVAIS & LEONARD GERVAIS,(506) 458-8968,ENGLISH,10,Canada,Special Care Home
Canada-NB-9-SpecialCareHomes-output-132,UNDERHILL RESIDENCE,FREDERICTON,18  LINDEN CRESCENT,,FREDERICTON,NB,E3A 4Z9,MARION UNDERHILL,(506) 472-1762,ENGLISH,5,Canada,Special Care Home
Canada-NB-9-SpecialCareHomes-output-133,VICTORIA VILLA INC.,FREDERICTON,66  EAST RIVERSIDE DRIVE DRIVE,,PERTH-ANDOVER,NB,E7H 1Z4,JENNIFER EAGAN,(506) 273-9394,ENGLISH,18,Canada,Special Care Home
Canada-NB-9-SpecialCareHomes-output-134,VICTORY HOUSE,FREDERICTON,0  VICTORY AVENUE,,FREDERICTON,NB,E3A 3V5,JODY KEITH MUNN,(506) 260-3354,ENGLISH,7,Canada,Special Care Home
Canada-NB-9-SpecialCareHomes-output-135,WILLIAMS COZY MANOR INC.,FREDERICTON,263 ROUTE ROUTE 560 ,,LAKEVILLE,NB,E7K 3G2,LAURA SAUNDERS,(506) 392-1801,ENGLISH,9,Canada,Special Care Home
Canada-NB-9-SpecialCareHomes-output-136,YOUR AT HOME RETREAT LTD.,FREDERICTON,1  CHRISTOPHER DRIVE ,,BURTON,NB,E2V 3H4,RHONDA REID,(506) 357-6835,ENGLISH,11,Canada,Special Care Home
Canada-NB-9-SpecialCareHomes-output-137,ABBOTT RESIDENCE,MIRAMICHI,7  LOBBAN AVENUE,,MIRAMICHI,NB,E1N 2W8,CHERYL CRAIG,(506) 352-0069,ENGLISH,8,Canada,Special Care Home
Canada-NB-9-SpecialCareHomes-output-138,BAYSIDE SPECIAL CARE HOME INC.,MIRAMICHI,310  ROUTE 117 ,,MIRAMICHI BAY,NB,E1N 5M1,"MAUREEN STEWART (773-9300, 778-1857)",(506) 228-4704,ENGLISH,9,Canada,Special Care Home
Canada-NB-9-SpecialCareHomes-output-139,BLACKVILLE SPECIAL CARE HOME 1,MIRAMICHI,78  MAIN ST ,,BLACKVILLE,NB,E9B 1S4,ERIC WALLS,(506) 843-6724,ENGLISH,9,Canada,Special Care Home
Canada-NB-9-SpecialCareHomes-output-140,BLACKVILLE SPECIAL CARE HOME 2,MIRAMICHI,  STATION ROAD,,BLACKVILLE,NB,E9B 1R2,ERIC WALLS,(506) 843-9919,ENGLISH,9,Canada,Special Care Home
Canada-NB-9-SpecialCareHomes-output-141,CLARK'S CARE HOME LTD.,MIRAMICHI,94  EDWARD STREET,,MIRAMICHI,NB,E1V 2Y8,MONIQUE CLARK,(506) 622-1006,ENGLISH,7,Canada,Special Care Home
Canada-NB-9-SpecialCareHomes-output-142,COZY LODGE COMPLEX,MIRAMICHI,2  FERRY COURT,,MIRAMICHI,NB,E1V 6Y5,ANGELE MANUEL,(506) 624-9849,BILINGUAL,7,Canada,Special Care Home
Canada-NB-9-SpecialCareHomes-output-143,"DOUBLE ""H"" SPECIAL CARE HOME INC.",MIRAMICHI,31  OLD KING GEORGE HIGHWAY,,MIRAMICHI,NB,E1V 1K4,HEATHER HOGAN,(506) 836-7598,ENGLISH,10,Canada,Special Care Home
Canada-NB-9-SpecialCareHomes-output-144,EASTSIDE SPECIAL CARE HOME INC.,MIRAMICHI,44  WELLINGTON STREET,,MIRAMICHI,NB,E1N 3L6,GERALDINE MCINTYRE,(506) 773-7397,ENGLISH,10,Canada,Special Care Home
Canada-NB-9-SpecialCareHomes-output-145,ENCLOSURE SPECIAL CARE HOME,MIRAMICHI,6  ENCLOSURE ROAD,,DERBY JUNCTION,NB,E1V 5B2,SARAH AND MARK HARRIS,(506) 773-3783,ENGLISH,7,Canada,Special Care Home
Canada-NB-9-SpecialCareHomes-output-146,FOYER CARMEL BREAU,MIRAMICHI,70 RUE PRINCIPALE ,,NEGUAC,NB,E9G 1M7,CARMEL BREAU,(506) 776-8877,BILINGUAL,2,Canada,Special Care Home
Canada-NB-9-SpecialCareHomes-output-147,FOYER CLAIRE INC.,MIRAMICHI,1091 RUE PRINCIPALE ,,ROGERSVILLE,NB,E4Y 2L9,CLAIRE GALLANT,(506) 775-0189,BILINGUAL,10,Canada,Special Care Home
Canada-NB-9-SpecialCareHomes-output-148,FOYER CLAUDETTE DOIRON,MIRAMICHI,00 CHEMIN OUEST COLLETTE ,,COLLETTE,NB,E4Y 1K2,CLAUDETTE DOIRON,(506) 775-9018,BILINGUAL,2,Canada,Special Care Home
Canada-NB-9-SpecialCareHomes-output-149,FOYER PRIME BREAU,MIRAMICHI,4 CHEMIN COVEDELL ,,TABUSINTAC,NB,E9H 1E6,ROSE ANNA BREAU,(506) 779-4445,BILINGUAL,2,Canada,Special Care Home
Canada-NB-9-SpecialCareHomes-output-150,FOYER ST BERNARD LTEE,MIRAMICHI,50 RUE PRINCIPALE ,,NEGUAC,NB,E9G 1M7,JOANNE STRANG,(506) 776-3774,BILINGUAL,27,Canada,Special Care Home
Canada-NB-9-SpecialCareHomes-output-151,HARVEY VALERIE,MIRAMICHI,337 ROUTE 420 ,,CASSILIS,NB,E9E 2A7,VALERIE HARVEY,(506) 836-7906,ENGLISH,4,Canada,Special Care Home
Canada-NB-9-SpecialCareHomes-output-152,ISLANDVIEW SPECIAL CARE HOME,MIRAMICHI,  O'TOOLE CRESCENT,,MIRAMICHI,NB,E1N 6C1,CHERYL CRAIG,(506) 836-7759,ENGLISH,10,Canada,Special Care Home
Canada-NB-9-SpecialCareHomes-output-153,KELLY'S SPECIAL CARE HOME INC.,MIRAMICHI,553 ROUTE 108 ,,QUARRYVILLE,NB,E9E 2J6,DAIGNEAULT MELANIE,(506) 622-7169,ENGLISH,25,Canada,Special Care Home
Canada-NB-9-SpecialCareHomes-output-154,KING STREET SPECIAL CARE HOME (2016) INC.,MIRAMICHI,3  KING STREET,,MIRMICHI,NB,E1N 2N4,"MAUREEN STEWART (773-9300, 778-1857)",(506) 778-1857,ENGLISH,10,Canada,Special Care Home
Canada-NB-9-SpecialCareHomes-output-155,LA MAISON DES COLOMBES,MIRAMICHI,20 ROUTE 460 ,,STYMIEST,NB,E9G 3C5,ADNA LEBOUTHILLIER,(506) 779-8032,BILINGUAL,8,Canada,Special Care Home
Canada-NB-9-SpecialCareHomes-output-156,NINA MIZUIK,MIRAMICHI,27  HANSEN ROAD,,MIRAMICHI,NB,E1V 3T7,NINA MIZUIK,(506) 622-8661,ENGLISH,3,Canada,Special Care Home
Canada-NB-9-SpecialCareHomes-output-157,RESIDENCE COMMUNAUTAIRE DE L'ARC INC II,MIRAMICHI,9 RUE TÉLÉSPHORE ,,ROGERSVILLE,NB,E4Y 0A4,MELISSA CORMIER,(506) 775-6396,BILINGUAL,21,Canada,Special Care Home
Canada-NB-9-SpecialCareHomes-output-158,RÉSIDENCE DE PATTERSON INC.,MIRAMICHI,189  BEAVERBROOK ROAD,,BEAVERBROOK,NB,E1V 4R7,LINDA & SYLVIO MORRIS,(506) 622-6365,BILINGUAL,10,Canada,Special Care Home
Canada-NB-9-SpecialCareHomes-output-159,RESIDENCE LA BELLE VIE INC,MIRAMICHI,1  LABRANCHE CHEMIN,,BAIE SAINTE-ANNE,NB,E9A 1M3,TRACY WALSH,(506) 228-4647,ENGLISH,20,Canada,Special Care Home
Canada-NB-9-SpecialCareHomes-output-160,RESIDENCE LE SOLEIL LEVANT INC.,MIRAMICHI,5 RUE DE L'EGLISE ,,NEGUAC,NB,E9G 1B9,NICOLE BAISLEY,(506) 776-4838,BILINGUAL,10,Canada,Special Care Home
Canada-NB-9-SpecialCareHomes-output-161,ROSS RESIDENCE,MIRAMICHI,96  NEWCASTLE BOULEVARD,,MIRAMICHI,NB,E1V 2L3,CHERYL CRAIG,(506) 352-3525,ENGLISH,10,Canada,Special Care Home
Canada-NB-9-SpecialCareHomes-output-162,ROUSSEL LISE,MIRAMICHI,55 RUE SAVOIE ,,NEGUAC,NB,E9G 1X2,LISE ROUSSEL,(506) 776-8494,FRENCH,3,Canada,Special Care Home
Canada-NB-9-SpecialCareHomes-output-163,THE HOWE RESIDENCE,MIRAMICHI,1  HARPER ROAD,,MIRAMICHI,NB,E1N 4R7,LOIS FORAN,(506) 622-1471,ENGLISH,20,Canada,Special Care Home
Canada-NB-9-SpecialCareHomes-output-164,THE TLC FAMILY CARE HOME (MIRAMICHI) INC,MIRAMICHI,45  FRANCES STREET,,MIRAMICHI,NB,E1V 2V8,MARGARET (PEGGY) SAVOY,(506) 624-9366,ENGLISH,10,Canada,Special Care Home
Canada-NB-9-SpecialCareHomes-output-165,THIBODEAU'S SPECIAL CARE HOME,MIRAMICHI,876  P.O. BOX 377,ROUTE 420 ,RED BANK,NB,E9E 1A2,ELIZABETH & ANDRE THIBODEAU,(506) 836-1010,ENGLISH,3,Canada,Special Care Home
Canada-NB-9-SpecialCareHomes-output-166,VILLA DU PORTAGE INC.,MIRAMICHI,02 CHEMIN HACHE ,,HAUT-RIVIERE-DU-PORTAGE,NB,E9H 1P5,GEORGINA GIROUARD/ULYSSE BOUCHARD,(506) 393-1197,BILINGUAL,18,Canada,Special Care Home
Canada-NB-9-SpecialCareHomes-output-167,VILLA NEGUAC,MIRAMICHI,15 RUE HECTOR ,,NEGUAC,NB,E9G 1H9,JOANNE STRANG,(506) 776-4405,BILINGUAL,26,Canada,Special Care Home
Canada-NB-9-SpecialCareHomes-output-168,WILLIAM RESIDENCE,MIRAMICHI,98  NEWCASTLE BOULEVARD,,MIRAMICHI,NB,E1V 2L3,CHERYL CRAIG,(506) 352-3505,ENGLISH,10,Canada,Special Care Home
Canada-NB-9-SpecialCareHomes-output-169,ALOUETTE SPECIAL CARE HOME/FOYER DE SOINS SPECIAUX,MONCTON,100  AMIRAULT STREET,,DIEPPE,NB,E1A 7K4,ARTHUR MCDONOUGH,(506) 857-9200,BILINGUAL,55,Canada,Special Care Home
Canada-NB-9-SpecialCareHomes-output-170,AUBERGE DU SOLEIL,MONCTON,25  AUCOIN STREET,,DIEPPE,NB,E1A 0W5,MARC & PIERRE OUELLETTE,(506) 858-8558,BILINGUAL,130,Canada,Special Care Home
Canada-NB-9-SpecialCareHomes-output-171,AUTUMN LEE RETIREMENT HOME II,MONCTON,031  MOUNTAIN ROAD,,MONCTON,NB,E1B 1G1,WANDA PENNEY,(506) 384-7658,ENGLISH,45,Canada,Special Care Home
Canada-NB-9-SpecialCareHomes-output-172,AUTUMN LEE RETIREMENT HOME SACKVILLE,MONCTON,6  CHARLOTTE STREET,,SACKVILLE,NB,E4L 2Y7,AMANDA BETTS,(506) 536-0033,ENGLISH,23,Canada,Special Care Home
Canada-NB-9-SpecialCareHomes-output-173,BIRCHMOUNT LODGE,MONCTON,44  BIRCHMOUNT DRIVE,,MONCTON,NB,E1C 8E7,,(506) 384-7573,BILINGUAL,32,Canada,Special Care Home
Canada-NB-9-SpecialCareHomes-output-174,BRAE MANOR,MONCTON,01  ELLERDALE AVENUE,,MONCTON,NB,E1A 3M8,DINA MARCHETTI-GIROUARD,(506) 383-9228,ENGLISH,9,Canada,Special Care Home
Canada-NB-9-SpecialCareHomes-output-175,BURNS MANOR,MONCTON,6  BROMLEY AVENUE,,MONCTON,NB,E1C 5T9,JENNIFER BURNS,(506) 852-3554,BILINGUAL,15,Canada,Special Care Home
Canada-NB-9-SpecialCareHomes-output-176,CAREY HOUSE (THE),MONCTON,37  CAMERON STREET,,MONCTON,NB,E1C 5Z5,PATRICIA ANN MCCARTHY,(506) 388-2868,ENGLISH,10,Canada,Special Care Home
Canada-NB-9-SpecialCareHomes-output-177,CASTEL DES FLOTS BLEUS,MONCTON,3  RUE DE L'ESPOIR ,,CAP-PELE,NB,E4N 0B5,JACQUES LAFOREST & RONALD LEBLANC,(506) 577-8558,BILINGUAL,60,Canada,Special Care Home
Canada-NB-9-SpecialCareHomes-output-178,CEDARWOOD LODGE,MONCTON,8  MILTON LANE,,SACKVILLE,NB,E4L 3B7,JOAN LEBLANC,(506) 536-9097,ENGLISH,10,Canada,Special Care Home
Canada-NB-9-SpecialCareHomes-output-179,CHATEAU DU BEL AGE INC.,MONCTON,2  MCLAUGHLIN STREET,,BOUCTOUCHE,NB,E4S 3P9,ELIZABETH AND ANDRE HEBERT,(506) 743-8340,BILINGUAL,20,Canada,Special Care Home
Canada-NB-9-SpecialCareHomes-output-180,COUNTRY CARE,MONCTON,7  STEEVES ROAD,,INTERVALE,NB,E4Z 4Y9,NANCY BRACE,(506) 756-8985,ENGLISH,10,Canada,Special Care Home
Canada-NB-9-SpecialCareHomes-output-181,COUNTRYSIDE RESIDENCE,MONCTON,4  WEST MAIN STREET,,PORT ELGIN,NB,E4M1M1,CRYSTAL L SNOWDON,(506) 538-2968,ENGLISH,10,Canada,Special Care Home
Canada-NB-9-SpecialCareHomes-output-182,DALY'S HOME CARE INC.,MONCTON,8  TRIDER COURT,,RIVERVIEW,NB,E1B 4T9,ROBERTA BUCHANAN,(506) 874-0757,ENGLISH,10,Canada,Special Care Home
Canada-NB-9-SpecialCareHomes-output-183,DIXSON SPECIAL CARE HOME,MONCTON,1  ROUTE 915,DIXSON ROAD,HARVEY,NB,E4H 3P9,LYNN DIXSON,(506) 882-2667,ENGLISH,6,Canada,Special Care Home
Canada-NB-9-SpecialCareHomes-output-184,DOMAINE LA VALLEE DE MEMRAMCOOK,MONCTON,8 RUE MARCELLIN ,,MEMRAMCOOK,NB,E4K 2J7,MARC BOUDREAU,(506) 758-2110,BILINGUAL,28,Canada,Special Care Home
Canada-NB-9-SpecialCareHomes-output-185,EMERY HOUSE,MONCTON,8  EMERY STREET,,RIVERVIEW,NB,E1B 1B1,JEFF HUNTER,(506) 387-4518,ENGLISH,9,Canada,Special Care Home
Canada-NB-9-SpecialCareHomes-output-186,FAIRFIELD SPECIAL  CARE HOME,MONCTON,42  FAIRFIELD ROAD,,SACKVILLE,NB,E4L 2X9,RANDY MCCULLY & VICKI M,(506) 939-2127,ENGLISH,5,Canada,Special Care Home
Canada-NB-9-SpecialCareHomes-output-187,FAWCETT'S REST HOME,MONCTON,5  UNIT 1,CHURCH STREET,PETITCODIAC,NB,E4Z 4C9,BERNICE FAWCETT,(506) 756-2115,ENGLISH,22,Canada,Special Care Home
Canada-NB-9-SpecialCareHomes-output-188,FOWNES MANOR INC,MONCTON, 5482 ROUTE 114 ,,HOPEWELL HILL,NB,E4H 3N4,DONNA BARNETT,(506) 882-4663,ENGLISH,9,Canada,Special Care Home
Canada-NB-9-SpecialCareHomes-output-189,FOYER BOIS-JOLI INC.,MONCTON,30 CHEMIN SAINT-IGNACE ,,SAINT-LOUIS-DE-KENT,NB,E4X 2L9,LUCILLE JOHNSON,(506) 876-4335,FRENCH,42,Canada,Special Care Home
Canada-NB-9-SpecialCareHomes-output-190,FOYER CHEZ JEANNINE,MONCTON,6 CHEMIN DU COUVENT ,,BOUCTOUCHE,NB,E4S 3C1,JEANNINE CARROLL,(506) 743-5803,BILINGUAL,3,Canada,Special Care Home
Canada-NB-9-SpecialCareHomes-output-191,FOYER CHEZ NOUS MONCTON,MONCTON,0  BURLINGTON AVENUE,,MONCTON,NB,E1E 1Y7,DONALD B. VOSBURGH SR.,(506) 857-9863,BILINGUAL,13,Canada,Special Care Home
Canada-NB-9-SpecialCareHomes-output-192,FOYER COTE D'OR INC.,MONCTON, C.P. 1091 ,,COCAGNE,NB,E4R 1N6,M. GUY ARSENAULT,(506) 576-9140,BILINGUAL,30,Canada,Special Care Home
Canada-NB-9-SpecialCareHomes-output-193,FOYER DOMINIQUE SAVIO,MONCTON,5 BOULEVARD IRVING ,,BOUCTOUCHE,NB,E4S 3J7,LORRAINE LEBLANC,(506) 743-6892,BILINGUAL,9,Canada,Special Care Home
Canada-NB-9-SpecialCareHomes-output-194,FOYER JEAN MARIE ALLAIN INC,MONCTON,9 BOULEVARD IRVING ,,BOUCTOUCHE,NB,E4S 3J8,JEAN MARIE ALLAIN,(506) 743-5397,BILINGUAL,20,Canada,Special Care Home
Canada-NB-9-SpecialCareHomes-output-195,FOYER JOE,MONCTON,0  IRVING BOULEVARD,,BOUCTOUCHE,NB,E4S 3E3,JOE COLLETTE,(506) 743-6204,ENGLISH,18,Canada,Special Care Home
Canada-NB-9-SpecialCareHomes-output-196,FOYER LISA ALLAIN INC,MONCTON,60  IRVING BOULEVARD,,BOUCTOUCHE,NB,E4S 3L5,GABRIEL ALLAIN & JULIE ALLAIN,(506) 743-8434,ENGLISH,38,Canada,Special Care Home
Canada-NB-9-SpecialCareHomes-output-197,FOYER MAILLET,MONCTON,197 ROUTE 495 ,,SAINTE-MARIE-DE-KENT,NB,E4S 1Z4,JEANNITA MAILLET,(506) 955-3802,FRENCH,20,Canada,Special Care Home
Canada-NB-9-SpecialCareHomes-output-198,FOYER PAULINE 2012 INC.,MONCTON,1  PICARD AVENUE,,BOUCTOUCHE,NB,E4S 3S9,MATHIEU CAISSIE,(506) 743-5695,ENGLISH,31,Canada,Special Care Home
Canada-NB-9-SpecialCareHomes-output-199,FOYER P'TIT CHENOUS INC.,MONCTON,723 CHEMIN ST-GABRIEL ,,STE-ANNE-DE-KENT,NB,E4S 1L5,CAROLE BOURQUE,(506) 743-2213,BILINGUAL,15,Canada,Special Care Home
Canada-NB-9-SpecialCareHomes-output-200,FOYER SIMONNE,MONCTON,0499 RUE PRINCIPALE ,,SAINT-LOUIS,NB,E4X 1E6,MME SIMONNE GALLANT,(506) 876-3630,FRENCH,20,Canada,Special Care Home
Canada-NB-9-SpecialCareHomes-output-201,FOYER ST-FRANCOIS,MONCTON,056 ROUTE ROUTE 134 ,,BOUCTOUCHE,NB,E4S 2J2,BERNADETTE MELANSON,(506) 342-2891,FRENCH,7,Canada,Special Care Home
Canada-NB-9-SpecialCareHomes-output-202,FUNDY ROYAL MANOR,MONCTON,0  JERRY STREET,,HILLSBOROUGH,NB,E4H 0A9,JASON MARTIN,(506) 734-8100,ENGLISH,24,Canada,Special Care Home
Canada-NB-9-SpecialCareHomes-output-203,FUNDY ROYAL MANOR II,MONCTON,03  ACADEMY STREET,,HILLSBOROUGH,NB,E4H 2R3,JASON MARTIN,(506) 734-8100,ENGLISH,28,Canada,Special Care Home
Canada-NB-9-SpecialCareHomes-output-204,GOLDEN YEARS ESTATE LTD,MONCTON,5  JABEZ STREET,,MONCTON,NB,E1E 0B4,JASON LANE,(506) 854-7464,ENGLISH,80,Canada,Special Care Home
Canada-NB-9-SpecialCareHomes-output-205,GRASS HOME LTD.,MONCTON,74  COVERDALE ROAD,,RIVERVIEW,NB,E1B 3L5,JOHN OR LYNN GRASS,(506) 386-1740,ENGLISH,6,Canada,Special Care Home
Canada-NB-9-SpecialCareHomes-output-206,KELS-LEIGH MANOR,MONCTON,1  RIVERLEA DRIVE,,RIVERVIEW,NB,E1B 3N4,KATHERYN NILES,(506) 384-2664,ENGLISH,3,Canada,Special Care Home
Canada-NB-9-SpecialCareHomes-output-207,LA RÉSIDENCE DANNY & DIANE,MONCTON,448  ROUTE 132 ,,SCOUDOUC,NB,E4P 3S8,DANNY GOGUEN & DIANE LEBLANC,(506) 532-6147,ENGLISH,10,Canada,Special Care Home
Canada-NB-9-SpecialCareHomes-output-208,LA RÉSIDENCE SIESTA LTÉE,MONCTON,08  ELMWOOD DRIVE,,MONCTON,NB,E1A 2X3,CAROLE MELANSON,(506) 855-6736,ENGLISH,10,Canada,Special Care Home
Canada-NB-9-SpecialCareHomes-output-209,LA VILLA D'AURÉLIE INC.,MONCTON,057  ROUTE 480 ,,ACADIEVILLE,NB,E4Y 1Z3,GISLAINE GIROUARD,(506) 775-6088,BILINGUAL,13,Canada,Special Care Home
Canada-NB-9-SpecialCareHomes-output-210,LEFURGEY RESIDENCE,MONCTON,0  LEFURGEY AVENUE,,MONCTON,NB,E1C 7G3,RENEE BOWERING,(506) 855-4622,BILINGUAL,30,Canada,Special Care Home
Canada-NB-9-SpecialCareHomes-output-211,LES RESIDENCES DU HAVRE,MONCTON,527 RUE MAIN ,,RICHIBUCTO,NB,E4W 4C2,ADRIEN MAZEROLLE,(506) 523-9664,BILINGUAL,20,Canada,Special Care Home
Canada-NB-9-SpecialCareHomes-output-212,LJ JAILLET RESIDENCE INC.,MONCTON,0  LOCKHART AVENUE,,MONCTON,NB,E1C 6R1,JACQUELINE JAILLET,(506) 830-8175,BILINGUAL,10,Canada,Special Care Home
Canada-NB-9-SpecialCareHomes-output-213,MAISON BONHEUR,MONCTON,06  HIGH STREET,,MONCTON,NB,E1C 6C8,NORMAND GALLANT,(506) 854-3460,BILINGUAL,12,Canada,Special Care Home
Canada-NB-9-SpecialCareHomes-output-214,MAISON RENAISSANCE LTEE,MONCTON,2  BOTSFORD STREET,,MONCTON,NB,E1C 4X1,MARC LEGER,(506) 383-1280,BILINGUAL,20,Canada,Special Care Home
Canada-NB-9-SpecialCareHomes-output-215,MANOIR DE LA BUTTE,MONCTON,1 CHEMIN BUTTE A ELOI ,,CAP-PELE,NB,E4N 1N5,OMER GAUDET & PHILIPPE LEBLANC,(506) 577-2202,FRENCH,40,Canada,Special Care Home
Canada-NB-9-SpecialCareHomes-output-216,MANOIR NOTRE-DAME MANOR,MONCTON,10  MURPHY AVENUE,,MONCTON,NB,E1A 6Y2,V. ROBICHAUD,(506) 857-9011,BILINGUAL,120,Canada,Special Care Home
Canada-NB-9-SpecialCareHomes-output-217,MANOIR O'LEARY ART/CAFE INC.,MONCTON,402  MAIN RUE,,RICHIBUCTO,NB,E4W 4E1,CHARLYNE LAVOIE,(506) 524-3939,ENGLISH,9,Canada,Special Care Home
Canada-NB-9-SpecialCareHomes-output-218,MANOIR PASCAL POIRIER MANOR,MONCTON,66  PASCAL POIRIER STREET,,SHEDIAC,NB,E4P 2K9,MONIQUE LÉGER,(506) 533-9808,BILINGUAL,42,Canada,Special Care Home
Canada-NB-9-SpecialCareHomes-output-219,MAZEROLLE SPECIAL CARE HOME LTD.,MONCTON,48  GAUVIN ROAD,,DIEPPE,NB,E1A 1M1,DARLENE MAZEROLLE,(506) 861-9011,BILINGUAL,26,Canada,Special Care Home
Canada-NB-9-SpecialCareHomes-output-220,MCNAIR MANAGEMENT INC. ( 11 BEECHWOOD),MONCTON,1  BEECHWOOD AVENUE,,MONCTON,NB,E1A 5P7,AMY KLASSEN,(506) 857-4883,ENGLISH,14,Canada,Special Care Home
Canada-NB-9-SpecialCareHomes-output-221,NANCY'S SPECIAL CARE HOME,MONCTON,21  CAISSIE AVENUE,,SHEDIAC,NB,E4P1K5,,(506) 351-0612,BILINGUAL,6,Canada,Special Care Home
Canada-NB-9-SpecialCareHomes-output-222,OPEN ARMS SPECIAL CARE HOME,MONCTON,8  GLENGROVE ROAD,,MONCTON,NB,E1A 5X5,GEORGINA HUBBARD,(506) 204-8409,ENGLISH,8,Canada,Special Care Home
Canada-NB-9-SpecialCareHomes-output-223,RESIDENCE AU BENAISE INC.,MONCTON,6 AVENUE CLEMENT ,,SAINT-ANTOINE,NB,E4V 1E4,ANGELA SAULNIER,(506) 525-2354,FRENCH,55,Canada,Special Care Home
Canada-NB-9-SpecialCareHomes-output-224,RESIDENCE AVENTURE - ELMWOOD,MONCTON,076  ELMWOOD DRIVE,,MONCTON,NB,E1E 2H2,ROBERTA BUCHANAN,(506) 874-0757,ENGLISH,30,Canada,Special Care Home
Canada-NB-9-SpecialCareHomes-output-225,RESIDENCE BELLEVUE,MONCTON,6  CHARTERSVILLE STREET,,DIEPPE,NB,E1A 1K1,BERNIE OR LOUISE LEBLANC OR LIETTE LEBLANC-BREWER,(506) 857-2077,BILINGUAL,40,Canada,Special Care Home
Canada-NB-9-SpecialCareHomes-output-226,RÉSIDENCE CHÊNE DE MAMBRÉ,MONCTON,06  PROVIDENCE STREET,,SHEDIAC,NB,E4P 2N1,JASON MARTIN,(506) 532-2993,BILINGUAL,50,Canada,Special Care Home
Canada-NB-9-SpecialCareHomes-output-227,RESIDENCE COLLETTE RESIDENCE INC.,MONCTON,4  STEADMAN STREET,,MONCTON,NB,E1C 9X5,CONNIE WHITMAN,(506) 874-0757,ENGLISH,18,Canada,Special Care Home
Canada-NB-9-SpecialCareHomes-output-228,RESIDENCE DU MARAIS LTEE,MONCTON,71 RUE AMIRAULT ,,DIEPPE,NB,E1A 1G1,PHILIPPE J. LEBLANC ET OMER GAUDET,(506) 858-1318,FRENCH,65,Canada,Special Care Home
Canada-NB-9-SpecialCareHomes-output-229,RESIDENCE HELENE RESIDENCE INC,MONCTON,6  WINNIPEG STREET,,MONCTON,NB,E1C 7C4,ERIC BOURGOIN AND MARYSE AUBE,(506) 855-3366,BILINGUAL,20,Canada,Special Care Home
Canada-NB-9-SpecialCareHomes-output-230,RÉSIDENCE LE P'TIT CHEZ-NOUS,MONCTON,8  ROUTE 530 ,,GRAND-DIGUE,NB,E4R 5J3,,(506) 532-6017,FRENCH,45,Canada,Special Care Home
Canada-NB-9-SpecialCareHomes-output-231,RESIDENCE MCDOUGALL,MONCTON,7  MCDOUGALL AVENUE,,MONCTON,NB,E1C 6B1,"MARC LEGER, MONETTE DUGUAY",(506) 382-7520,BILINGUAL,30,Canada,Special Care Home
Canada-NB-9-SpecialCareHomes-output-232,RESIDENCE MONCTON - AILE CENTENNAIRE,MONCTON,40  JOHN STREET,,MONCTON,NB,E1C 0T5,MARC ET PIERRE OUELLETTE,(506) 389-0100,BILINGUAL,50,Canada,Special Care Home
Canada-NB-9-SpecialCareHomes-output-233,RESIDENCE MONCTON RESIDENCE I,MONCTON,70  JOHN STREET,,MONCTON,NB,E1C 0T5,MARC ET PIERRE OUELLETTE,(506) 389-0100,BILINGUAL,60,Canada,Special Care Home
Canada-NB-9-SpecialCareHomes-output-234,RESIDENCE MONCTON RESIDENCE II,MONCTON,70  JOHN STREET,,MONCTON,NB,E1C 0T5,MARC ET PIERRE OUELLETTE,(506) 389-0100,BILINGUAL,60,Canada,Special Care Home
Canada-NB-9-SpecialCareHomes-output-235,RESIDENCE O BON SOINS,MONCTON,30 RUE PASCAL POIRIER ,,SHEDIAC,NB,E4P 2K9,COLETTE DOUCETTE,(506) 533-8088,BILINGUAL,98,Canada,Special Care Home
Canada-NB-9-SpecialCareHomes-output-236,RÉSIDENCE OASIS RESIDENCE INC,MONCTON,55  AMIRAULT STREET,,DIEPPE,NB,E1A 1E1,MARC & PIERRE OUELLETTE,(506) 855-6676,ENGLISH,60,Canada,Special Care Home
Canada-NB-9-SpecialCareHomes-output-237,RESIDENCE REINE DE LA PAIX,MONCTON,00  CHAMPLAIN STREET,,DIEPPE,NB,E1A 1P5,HECTORINE SAVOIE,(506) 859-8707,BILINGUAL,21,Canada,Special Care Home
Canada-NB-9-SpecialCareHomes-output-238,RESIDENCE VIRGINIA INC,MONCTON,75 AVENUE VIRGINIA ,,DIEPPE,NB,E1A 1L9,MARC LEGER,-506,FRENCH,10,Canada,Special Care Home
Canada-NB-9-SpecialCareHomes-output-239,RESIDENCES AUSTIN INC,MONCTON,20  LATOUR STREET,,DIEPPE,NB,E1A 2A6,CHANTAL AUSTIN,(506) 382-5023,BILINGUAL,10,Canada,Special Care Home
Canada-NB-9-SpecialCareHomes-output-240,RESTFUL REPOSE RESIDENCE INC.,MONCTON,6762  HOMESTEAD ROAD,,STEEVES MOUNTAIN,NB,E1Z 4N9,MARISSA LEWIS,(506) 372-8993,ENGLISH,10,Canada,Special Care Home
Canada-NB-9-SpecialCareHomes-output-241,RIPLEY SPECIAL CARE,MONCTON,68  BOTSFORD STREET,,MONCTON,NB,E1C 4X6,LILLIAN RIPLEY,(506) 382-5252,ENGLISH,10,Canada,Special Care Home
Canada-NB-9-SpecialCareHomes-output-242,"SHANNEX RLC LIMITED, CANTERBURY HALL",MONCTON,24  COVERDALE ROAD,,RIVERVIEW,NB,E1B 0H9,JANICE COREY,(506) 387-7770,ENGLISH,60,Canada,Special Care Home
Canada-NB-9-SpecialCareHomes-output-243,SHAR'S CARE,MONCTON,3/55  WELDON ,,MONCTON,NB,E1C 5V9,SHARON LEBLANC,(506) 858-9948,ENGLISH,15,Canada,Special Care Home
Canada-NB-9-SpecialCareHomes-output-244,SHAR'S CARE II,MONCTON,2  BOTSFORD STREET,,MONCTON,NB,E1C 4X1,SHARON LEBLANC,(506) 858-9948,BILINGUAL,12,Canada,Special Care Home
Canada-NB-9-SpecialCareHomes-output-245,SILVER FOX SPECIAL CARE HOME I,MONCTON,4  VAUGHN STREET,,SALISBURY,NB,E4J 2S8,JASON WILSON,(506) 372-5645,ENGLISH,18,Canada,Special Care Home
Canada-NB-9-SpecialCareHomes-output-246,SILVER FOX SPECIAL CARE HOME LTD. II,MONCTON,2  VAUGHN STREET,,SALISBURY,NB,E4J 2S8,JASON WILSON,(506) 215-1910,ENGLISH,9,Canada,Special Care Home
Canada-NB-9-SpecialCareHomes-output-247,SMITH SPECIAL CARE HOME LTD,MONCTON,6  DORCHESTER STREET,,MONCTON,NB,E1E 3A7,CONNIE WHITMAN,(506) 874-0757,ENGLISH,10,Canada,Special Care Home
Canada-NB-9-SpecialCareHomes-output-248,SUNSET VILLAGE,MONCTON,5  LEOPOLD F. BELLIVEAU DRIVE,,MONCTON,NB,E1A 6S6,RENEE BOWERING,(506) 389-1335,BILINGUAL,25,Canada,Special Care Home
Canada-NB-9-SpecialCareHomes-output-249,SUNSHINE HOUSE,MONCTON,64  PARK STREET,,MONCTON,NB,E1C 2B6,PETER ROSSBACH & JULIA AGIR,-506,ENGLISH,9,Canada,Special Care Home
Canada-NB-9-SpecialCareHomes-output-250,T.J.MAILLET RESIDENCES LTD - COCAGNE,MONCTON,798  ROUTE 535 ,,COCAGNE,NB,E4R 3R5,TINA MAILLET,(506) 345-0278,ENGLISH,10,Canada,Special Care Home
Canada-NB-9-SpecialCareHomes-output-251,THE BRIARLEA,MONCTON,5  BRIARLEA DRIVE,,MONCTON,NB,E1G2E9,PIERRE BEAULIEU,(506) 857-8866,ENGLISH,24,Canada,Special Care Home
Canada-NB-9-SpecialCareHomes-output-252,TRUEMAN HOUSE,MONCTON,65  CHURCH STREET,,MONCTON,NB,E1C 5A7,CARY MACDONALD,(506) 389-3138,ENGLISH,9,Canada,Special Care Home
Canada-NB-9-SpecialCareHomes-output-253,TRULEIGH COUNTRY MANOR LTD.,MONCTON,202  MOUNTAIN ROAD,,MONCTON,NB,E1G 2W8,JANET STEEVES,(506) 854-2695,ENGLISH,10,Canada,Special Care Home
Canada-NB-9-SpecialCareHomes-output-254,TWIN BIRCH LODGE,MONCTON,571 ROUTE 15 ,,SHEMOGUE,NB,E4N 2N6,CAROLE GOGUEN,(506) 577-4554,ENGLISH,12,Canada,Special Care Home
Canada-NB-9-SpecialCareHomes-output-255,WEST KENT SPECIAL CARE HOME,MONCTON,065 ROUTE 126 ,,ADAMSVILLE,NB,E4T 2C7,NANCY TREMBLAY,(506) 785-4238,ENGLISH,6,Canada,Special Care Home
Canada-NB-9-SpecialCareHomes-output-256,AUBERGE DES COMPAGNONS LTEE,ACADIAN PENINSULA,1   RUE PRINCIPALE ,,LAMÈQUE,NB,E8T1M9,DAVID CHIASSON ANNE,(506) 344-7766,FRENCH,24,Canada,Special Care Home
Canada-NB-9-SpecialCareHomes-output-257,BOUDREAU ELIZABETH,ACADIAN PENINSULA,065 ROUTE 355 ,,SAINTE-ROSE,NB,E1X 2W6,ELIZABETH BOUDREAU,(506) 395-2728,FRENCH,6,Canada,Special Care Home
Canada-NB-9-SpecialCareHomes-output-258,DUGUAY ALMIDA,ACADIAN PENINSULA,107 ROUTE 135 ,,DUGUAYVILLE,NB,E8M 1L1,ALMIDA DUGUAY,(506) 358-2747,FRENCH,1,Canada,Special Care Home
Canada-NB-9-SpecialCareHomes-output-259,FOYER BELLEFEUILLE,ACADIAN PENINSULA,99 RUE BELLEFEUILLE ,,SHIPPAGAN,NB,E8S 1G5,MURIELLE ROBICHAUD,(506) 336-8009,FRENCH,3,Canada,Special Care Home
Canada-NB-9-SpecialCareHomes-output-260,FOYER DENISE BOUDREAU,ACADIAN PENINSULA,393 CHEMIN VAL-DOUCET ,,VAL-DOUCET,NB,E8R 2A3,DENISE BOUDREAU,(506) 764-5222,FRENCH,6,Canada,Special Care Home
Canada-NB-9-SpecialCareHomes-output-261,FOYER MONIA CLEMENT,ACADIAN PENINSULA,78 RUE DES BOIS FRANCS ,,SAINT-LÉOLIN,NB,E8N 2R2,MONIA CLEMENT,(506) 732-3137,FRENCH,3,Canada,Special Care Home
Canada-NB-9-SpecialCareHomes-output-262,FOYER PIERRETTE GODIN,ACADIAN PENINSULA,867 A ROUTE 160 ,,PONT-LANDRY,NB,E1X 3E4,PIERRETTE GODIN,(506) 358-2259,FRENCH,7,Canada,Special Care Home
Canada-NB-9-SpecialCareHomes-output-263,JEAN MARIA,ACADIAN PENINSULA,962 RUE CHIASSON ,,BAS-CARAQUET,NB,E1W 5V7,MARIA JEAN,(506) 727-5476,FRENCH,4,Canada,Special Care Home
Canada-NB-9-SpecialCareHomes-output-264,LA RESIDENCE CHEZ LINDA,ACADIAN PENINSULA,966  CHATILLON EST ,,MAISONNETTE,NB,E8N 2A2,LINDA ALBERT,(506) 727-4122,FRENCH,4,Canada,Special Care Home
Canada-NB-9-SpecialCareHomes-output-265,LA RESIDENCE CIEL,ACADIAN PENINSULA,055  RUE CHATILLON ,,MAISONNETTE,NB,E8N 2A4,BLANCHARD FRANCE,(506) 727-2937,FRENCH,8,Canada,Special Care Home
Canada-NB-9-SpecialCareHomes-output-266,LE MANOIR BRIDEAU INC,ACADIAN PENINSULA,08  RUE DE L'EGLISE ,,TRACADIE-SHEILA,NB,E1X 1B1,ANDY BRIDEAU,(506) 395-4768,FRENCH,34,Canada,Special Care Home
Canada-NB-9-SpecialCareHomes-output-267,LE PAVILLON DES AMIS LTEE,ACADIAN PENINSULA,695 RUE PRINCIPALE ,,TRACADIE-SHEILA,NB,E1X 1E3,IRMA BOUDREAU,(506) 395-2109,FRENCH,21,Canada,Special Care Home
Canada-NB-9-SpecialCareHomes-output-268,LES RESIDENCES LECLAIR,ACADIAN PENINSULA,020  ROUTE 160 ,,PONT-LANDRY,NB,E1X 3E3,MARY CLARA ANN ET STEPHANE,(506) 395-9170,FRENCH,9,Canada,Special Care Home
Canada-NB-9-SpecialCareHomes-output-269,LES RESIDENCES NOEL INC (2015),ACADIAN PENINSULA,1 RUE GIONET ,,CARAQUET,NB,E1W 1A3,MANON NOËL,(506) 727-0114,FRENCH,48,Canada,Special Care Home
Canada-NB-9-SpecialCareHomes-output-270,LOSIER EDITH,ACADIAN PENINSULA,79 RUE PRINCIPALE ,,PAQUETVILLE,NB,E8R 2C9,EDITH LOSIER,(506) 764-2601,FRENCH,6,Canada,Special Care Home
Canada-NB-9-SpecialCareHomes-output-271,MAISON JACINTHE ODETTE INC,ACADIAN PENINSULA,12 RUE 1ERE ,,SHIPPAGAN,NB,E8S 1A3,ODETTE BEAUDIN & JACINTHE GUIGNARD,(506) 336-1113,FRENCH,26,Canada,Special Care Home
Canada-NB-9-SpecialCareHomes-output-272,MANOIR AU SON DE LA VAGUE INC,ACADIAN PENINSULA,239  RUE PRINCIPALE ,,LEGOULET,NB,E8S 2E8,ANGELA DUGUAY,(506) 336-2114,FRENCH,25,Canada,Special Care Home
Canada-NB-9-SpecialCareHomes-output-273,MANOIR DE LA PASSERELLE LTEE,ACADIAN PENINSULA,14 RUE 1ERE ,,SHIPPAGAN,NB,E8S 1A3,LEONARD LEBOUTHILLIER,(506) 336-8780,FRENCH,14,Canada,Special Care Home
Canada-NB-9-SpecialCareHomes-output-274,MANOIR DU NORD INC,ACADIAN PENINSULA,770  RUE LUCE ,,TRACADIE-SHEILA,NB,E1X 1B5,FRANCIS SONIER ET CATHY DUGUAY,(506) 395-5525,FRENCH,25,Canada,Special Care Home
Canada-NB-9-SpecialCareHomes-output-275,MANOIR H D BASQUE,ACADIAN PENINSULA,85 RUE BASQUE ,,TRACADIE-SHEILA,NB,E1X 1B1,HECTOR BASQUE,(506) 395-5744,FRENCH,14,Canada,Special Care Home
Canada-NB-9-SpecialCareHomes-output-276,MANOIR MARIE,ACADIAN PENINSULA,12 BOULEVARD SAINT-PIERRE EST ,,CARAQUET,NB,E1W 1A9,PIERRETTE HACHE,(506) 727-1207,FRENCH,20,Canada,Special Care Home
Canada-NB-9-SpecialCareHomes-output-277,MANOIR SAINT-SIMON INC,ACADIAN PENINSULA,62  CHEMIN LEBOUTHILLIER ,,ST-SIMON,NB,E8P 1Z7,KARINE LAROCQUE,(506) 727-2472,FRENCH,14,Canada,Special Care Home
Canada-NB-9-SpecialCareHomes-output-278,MANOIR SOLEIL LEVANT,ACADIAN PENINSULA,72 ROUTE 345 ,,EVANGELINE,NB,E8P 1T9,SYLVIA SAVOIE,(506) 727-5989,FRENCH,3,Canada,Special Care Home
Canada-NB-9-SpecialCareHomes-output-279,MCLAUGHLIN ROSEMONDE,ACADIAN PENINSULA,571 CHEMIN SAULNIER OUEST ,,SAINT-IRENEE,NB,E1X 2C7,ROSEMONDE MCLAUGHLIN,(506) 395-5082,FRENCH,2,Canada,Special Care Home
Canada-NB-9-SpecialCareHomes-output-280,PAVILLON DU BEL-AGE LTEE,ACADIAN PENINSULA,270 RUE BRIDEAU ,,TRACADIE-SHEILA,NB,E1X 1A5,JOANNE BASQUE,(506) 395-3115,FRENCH,20,Canada,Special Care Home
Canada-NB-9-SpecialCareHomes-output-281,PAVILLON HACHE (2013),ACADIAN PENINSULA,1  OCTAVE ,,INKERMAN,NB,E8P 1B4,DOMINIQUE HACHE,(506) 336-8257,FRENCH,10,Canada,Special Care Home
Canada-NB-9-SpecialCareHomes-output-282,RESIDENCE AUX DOUCES MAREES INC,ACADIAN PENINSULA,931  RUE MORAIS ,,BAS-CARAQUET,NB,E1W 6E3,BLANCHARD GILBERT,(506) 702-0831,FRENCH,22,Canada,Special Care Home
Canada-NB-9-SpecialCareHomes-output-283,RESIDENCE BEATTIE-LANDRY LTEE,ACADIAN PENINSULA,424  RUE CENTENAIRE ,,TRACADIE,NB,E1X 1A7,BEATTIE NANCY ET JEAN-JACQUES LANDRY,(506) 395-6784,FRENCH,41,Canada,Special Care Home
Canada-NB-9-SpecialCareHomes-output-284,RESIDENCE BELLE RIVIERE INC,ACADIAN PENINSULA,49 RUE BELLEVUE EST ,,RIVIÈRE À LA TRUITE,NB,E1X 2M2,ULYSSE MCGRAW,(506) 395-6091,FRENCH,17,Canada,Special Care Home
Canada-NB-9-SpecialCareHomes-output-285,RESIDENCE DALAMIE INC.,ACADIAN PENINSULA,764  RUE PRINCIPALE ,,TRACADIE-SHEILA,NB,E1X 1G6,ALPHONSINE ROBICHAUD,(506) 393-9092,FRENCH,10,Canada,Special Care Home
Canada-NB-9-SpecialCareHomes-output-286,RESIDENCE DIANNE,ACADIAN PENINSULA,052 CHEMIN PAQUETVILLE ,,BAS-PAQUETVILLE,NB,E8R 1E8,DIANNE DOIRON,(506) 764-2185,FRENCH,11,Canada,Special Care Home
Canada-NB-9-SpecialCareHomes-output-287,RESIDENCE FLORENCE INC,ACADIAN PENINSULA,11  LANDRY CENTRE ,,LANDRY OFFICE,NB,E8P 0B2,ULYSSE MCGRAW,(506) 727-1814,FRENCH,20,Canada,Special Care Home
Canada-NB-9-SpecialCareHomes-output-288,RESIDENCE GAGNON INC,ACADIAN PENINSULA,137  RUE DES FONDATEURS ,,PAQUETVILLE,NB,E8R 1B3,MIREILLE GAGNON,(506) 764-1198,FRENCH,8,Canada,Special Care Home
Canada-NB-9-SpecialCareHomes-output-289,RESIDENCE J COMEAU INC,ACADIAN PENINSULA,151  RUE FOSTER ,,TRACADIE-SHEILA,NB,E1X 1C3,COMEAU NANCY,(506) 395-4710,FRENCH,16,Canada,Special Care Home
Canada-NB-9-SpecialCareHomes-output-290,RESIDENCE L'HERITAGE DE L'ACADIE INC,ACADIAN PENINSULA,887  RUE PRINCIPALE ,,TRACADIE,NB,E1X 1B6,ROBICHAUD CINDY,(506) 395-6295,FRENCH,20,Canada,Special Care Home
Canada-NB-9-SpecialCareHomes-output-291,RESIDENCE MARTIN ALEXANDRE,ACADIAN PENINSULA,469 ROUTE 11 ,,POINTE DES ROBICHAUD,NB,E1X 4P8,LINDA DOIRON,(506) 395-6316,FRENCH,16,Canada,Special Care Home
Canada-NB-9-SpecialCareHomes-output-292,RESIDENCE N. BRIDEAU,ACADIAN PENINSULA,26  CHEMIN PRINCIPAL ,,PETIT PAQUETVILLE,NB,E8R 1H1,BRIDEAU NATHALIE,(506) 764-2771,FRENCH,9,Canada,Special Care Home
Canada-NB-9-SpecialCareHomes-output-293,RESIDENCE SHANELLE ENRG,ACADIAN PENINSULA,206  CHEMIN FOSTER ,,TRACADIE-SHEILA,NB,E1X 1C3,GAETANNE GODIN,(506) 395-9492,FRENCH,3,Canada,Special Care Home
Canada-NB-9-SpecialCareHomes-output-294,RESIDENCE ST-ISIDORE 2013 LTEE,ACADIAN PENINSULA, RUE BEAULIEU ,,ST-ISIDORE,NB,E8M 0A2,JEANNINE DUGUAY,(506) 598-0112,FRENCH,25,Canada,Special Care Home
Canada-NB-9-SpecialCareHomes-output-295,RESIDENCE ST-PIERRE INC,ACADIAN PENINSULA,43  BOULEVARD ST-PIERRE OUEST ,,CARAQUET,NB,E1W 1A3,MARC-ANDRE BOUDREAU ET JEAN-PAUL LANTEIGNE,(506) 727-5544,FRENCH,43,Canada,Special Care Home
Canada-NB-9-SpecialCareHomes-output-296,RÉSIDENCES AUX MÉSANGES,ACADIAN PENINSULA,32 ROUTE 355 ,,SAINTE-ROSE,NB,E1X 2X1,GOSSELIN MONICA,(506) 395-5094,FRENCH,32,Canada,Special Care Home
Canada-NB-9-SpecialCareHomes-output-297,RESIDENCES BEL  ACCUEIL LTEE,ACADIAN PENINSULA,26 RUE DU PECHEUR NORD ,,LAMEQUE,NB,E8T 1K2,NADINE SAVOIE,(506) 344-5928,FRENCH,48,Canada,Special Care Home
Canada-NB-9-SpecialCareHomes-output-298,VILLA BEAU RIVAGE (1998) LTEE,ACADIAN PENINSULA,11 RUE 1 ERE ,,SHIPPAGAN,NB,E8S 1A1,MARIE PAULE MCGRAW,(506) 336-8988,FRENCH,29,Canada,Special Care Home
Canada-NB-9-SpecialCareHomes-output-299,VILLA BELLE RIVE INC,ACADIAN PENINSULA,83  ROUTE 345 ,,EVANGELINE,NB,E8P 1T3,COMEAU NANCY,(506) 727-5344,FRENCH,33,Canada,Special Care Home
Canada-NB-9-SpecialCareHomes-output-300,VILLA ST-MICHEL (2001) LTEE,ACADIAN PENINSULA,70 ROUTE 113 ,,INKERMAN,NB,E8P 1C7,SONIA LAROCQUE-REID,(506) 336-8958,FRENCH,40,Canada,Special Care Home
Canada-NB-9-SpecialCareHomes-output-301,CHARLENE'S SPECIAL CARE HOME,RESTIGOUCHE,4  BOUCHER STREET,,CAMPBELLTON,NB,E3N 2P4,CHARLENE NOYE,(506) 753-6814,ENGLISH,8,Canada,Special Care Home
Canada-NB-9-SpecialCareHomes-output-302,CHARLTON  LILIANE,RESTIGOUCHE,4 RUE DUNCAN ,,CAMPBELLTON,NB,E3N 2K4,LILIANE CHARLTON,(506) 759-7297,FRENCH,4,Canada,Special Care Home
Canada-NB-9-SpecialCareHomes-output-303,CORMIER SYLVIE,RESTIGOUCHE,28 ROUTE 280 ,,DUNDEE,NB,E8E 1Z2,SYLVIE CORMIER,(506) 826-9897,BILINGUAL,8,Canada,Special Care Home
Canada-NB-9-SpecialCareHomes-output-304,DUGUAY'S SPECIAL CARE HOME,RESTIGOUCHE,0  DOVER STREET,,CAMPBELLTON,NB,E3N 1P3,SUSAN DUGUAY,(506) 789-1208,ENGLISH,3,Canada,Special Care Home
Canada-NB-9-SpecialCareHomes-output-305,FOYER BERUBE,RESTIGOUCHE,63 ROUTE 260 ,,SAINT-QUENTIN,NB,E8A 2L7,GERALD BERUBE,(506) 235-3430,FRENCH,3,Canada,Special Care Home
Canada-NB-9-SpecialCareHomes-output-306,FOYER DANIELLE,RESTIGOUCHE,36 RUE LANSDOWNE ,,CAMPBELLTON,NB,E3N 2M7,DANIELLE BERNARD-BUSQUE,(506) 753-5749,FRENCH,20,Canada,Special Care Home
Canada-NB-9-SpecialCareHomes-output-307,FOYER DE SOINS SPECIAUX BELLEVUE SPECIAL CARE HOME,RESTIGOUCHE,  BELLEVIEW CRESCENT,,CAMPBELLTON,NB,E3N 1M7,MONIQUE DOUCET,(506) 753-5270,BILINGUAL,10,Canada,Special Care Home
Canada-NB-9-SpecialCareHomes-output-308,FOYER JYD HOME (50 PLUS),RESTIGOUCHE,1 RUE BOUCHER ,,CAMPBELLTON,NB,E3N 3J9,PAULINE RANGER ET JEAN-YVES DESCHENES,(506) 759-7476,BILINGUAL,3,Canada,Special Care Home
Canada-NB-9-SpecialCareHomes-output-309,FOYER LINDA PARENT-BUJOLD,RESTIGOUCHE,0387  ROUTE 134 ,,MCLEODS,NB,E3N 5V2,,(506) 759-7803,FRENCH,8,Canada,Special Care Home
Canada-NB-9-SpecialCareHomes-output-310,FOYER MANON,RESTIGOUCHE,064 ROUTE 17 ,,SAINT-QUENTIN,NB,E8A 2J4,MANON LEVESQUE,(506) 235-1986,FRENCH,10,Canada,Special Care Home
Canada-NB-9-SpecialCareHomes-output-311,FOYER MARIE,RESTIGOUCHE,0  GRAND PRE ,,ST-QUENTIN,NB,E8A 1N8,MARIE-PAULE SINCLAIR,(506) 235-2969,FRENCH,19,Canada,Special Care Home
Canada-NB-9-SpecialCareHomes-output-312,FOYER PAQUET,RESTIGOUCHE,83 ROUTE 280 ,,DUNDEE,NB,E8E 1X5,PIERRETTE PAQUET,(506) 826-3111,BILINGUAL,4,Canada,Special Care Home
Canada-NB-9-SpecialCareHomes-output-313,FOYER ROSE,RESTIGOUCHE,89 STREET HOCQUARD ,,DALHOUSIE,NB,E8C 1Y4,ROSE ST-PIERRE,(506) 684-4326,FRENCH,30,Canada,Special Care Home
Canada-NB-9-SpecialCareHomes-output-314,FOYER SAVOIE INC.,RESTIGOUCHE,2  LEBEL COURT,,CAMPBELLTON,NB,E3N 3Y3,ELISE SAVOIE,(506) 759-9633,BILINGUAL,20,Canada,Special Care Home
Canada-NB-9-SpecialCareHomes-output-315,GIRARD MARCELLA,RESTIGOUCHE,082  ROUTE 260 ,,KEDGWICK,NB,E8B 1P5,MARCELLA,(506) 284-9085,FRENCH,8,Canada,Special Care Home
Canada-NB-9-SpecialCareHomes-output-316,LA VILLA,RESTIGOUCHE,85  CANADA ,,ST-QUENTIN,NB,E8A 2P5,MELANIE DAIGNEAULT,(506) 235-1850,FRENCH,20,Canada,Special Care Home
Canada-NB-9-SpecialCareHomes-output-317,LE VIEUX PRESBYTERE,RESTIGOUCHE,88 RUE VANIER ,,CAMPBELLTON,NB,E3N 1V5,NICOLE LEFORT,(506) 753-2020,BILINGUAL,10,Canada,Special Care Home
Canada-NB-9-SpecialCareHomes-output-318,LES FERMES DRAPEAU INC - MANOIR BALMORAL,RESTIGOUCHE,80  DES PIONNIERS AVENUE,,BALMORAL,NB,E8E 1E5,JOCELYNE DRAPEAU,(506) 826-2336,BILINGUAL,20,Canada,Special Care Home
Canada-NB-9-SpecialCareHomes-output-319,LINDA CHAREST,RESTIGOUCHE,3  ARRAN ,,CAMPBELLTON,NB,E3N 1L3,CHRISTINA CHAREST,(506) 753-6115,FRENCH,18,Canada,Special Care Home
Canada-NB-9-SpecialCareHomes-output-320,MANOIR DARLINGTON MANOR LTD,RESTIGOUCHE,19  DARLINGTON DRIVE ,,DALHOUSIE,NB,E8C 1M7,ERIC LANDRY ET TANYA WINCHESTER,(506) 826-2988,BILINGUAL,30,Canada,Special Care Home
Canada-NB-9-SpecialCareHomes-output-321,MANOIR DE LA SAGESSE INC.,RESTIGOUCHE,2  GEORGE ,,CAMPBELLTON,NB,E3N 2Z7,MARC CARRIÈRE / BRIGITTE ARSENAULT,(506) 759-8010,FRENCH,45,Canada,Special Care Home
Canada-NB-9-SpecialCareHomes-output-322,MANOIR DE LA VALLEE,RESTIGOUCHE,27  VAL D'AMOURS ,,ATHOLVILLE,NB,E3N 4E1,KEVIN VIENNEAU,(506) 753-0050,BILINGUAL,57,Canada,Special Care Home
Canada-NB-9-SpecialCareHomes-output-323,MANOIR SUGARLOAF MANOR,RESTIGOUCHE,2 RUE ALEXANDER ,,CAMPBELLTON,NB,E3N 3C9,KEVIN VIENNEAU,(506) 753-7305,BILINGUAL,45,Canada,Special Care Home
Canada-NB-9-SpecialCareHomes-output-324,MANOIR SUNRISE,RESTIGOUCHE,40 RUE BRUNSWICK ,,DALHOUSIE,NB,E8C 1H3,KEVIN VIENNEAU,(506) 508-1200,BILINGUAL,30,Canada,Special Care Home
Canada-NB-9-SpecialCareHomes-output-325,OUELLETTE LILIANNE,RESTIGOUCHE, CRESCENT BEAUMONT ,,CAMPBELLTON,NB,E3N 3X1,LILIANNE OUELLETTE,(506) 753-0107,FRENCH,15,Canada,Special Care Home
Canada-NB-9-SpecialCareHomes-output-326,PAVILLON DE L'ANSE-GAETANNE,RESTIGOUCHE,6 RUE DE L'ANSE ,,EEL RIVER CROSSING,NB,E8E1R4,GAETANNE OUELLETTE,(506) 826-2275,FRENCH,8,Canada,Special Care Home
Canada-NB-9-SpecialCareHomes-output-327,RESIDENCE 4 SAISONS - 4 SEASONS RESIDENCE,RESTIGOUCHE,12 RUE DRAPEAU ,,BALMORAL,NB,E8E 1H4,DANIKA LEVESQUE & JEREMY THERIAULT,(506) 826-3034,FRENCH,30,Canada,Special Care Home
Canada-NB-9-SpecialCareHomes-output-328,RESIDENCE AM (2016) INC.,RESTIGOUCHE,84  CANADA ,,ST-QUENTIN,NB,E8A 2A7,ISABELLE BELANGER,(506) 235-3673,FRENCH,30,Canada,Special Care Home
Canada-NB-9-SpecialCareHomes-output-329,RESIDENCE NOTRE-DAME - 647013 NB INC.,RESTIGOUCHE,8 RUE RUE ST-PAUL ,,KEDGWICK,NB,E8B 2A7,CHRISTIAN GALLIEN ET SYLVIE SAVOIE,(506) 284-3515,FRENCH,20,Canada,Special Care Home
Canada-NB-9-SpecialCareHomes-output-330,SAUNDERS ANNE,RESTIGOUCHE,8  ABERDEEN STREET,,CAMPBELLTON,NB,E3N 2J7,ANNE SAUNDERS,(506) 759-8747,ENGLISH,5,Canada,Special Care Home
Canada-NB-9-SpecialCareHomes-output-331,A MOMENT IN TIME,SAINT JOHN,24  MEADOWBANK AVENUE,,SAINT JOHN,NB,E2K 2C8,ROBERT CLARK,(506) 214-5585,ENGLISH,10,Canada,Special Care Home
Canada-NB-9-SpecialCareHomes-output-332,A.R. SANTOS CARING HOME LTD,SAINT JOHN,6  CURRIE AVENUE,,SAINT JOHN,NB,E2K 1N8,ANGELES SANTOS,(506) 696-5794,ENGLISH,6,Canada,Special Care Home
Canada-NB-9-SpecialCareHomes-output-333,AGAPE HOME LTD,SAINT JOHN,90  ROUTE 121 ,,BLOOMFIELD,NB,E5N4V3,FRAN COOKE,(506) 832-5935,ENGLISH,12,Canada,Special Care Home
Canada-NB-9-SpecialCareHomes-output-334,ANDERSONVILLE SPECIAL CARE HOME,SAINT JOHN,002  ROUTE 3 ,,ANDERSONVILLE,NB,E5A 1G1,DARLENE MCLAUGHLIN,(506) 466-3799,ENGLISH,5,Canada,Special Care Home
Canada-NB-9-SpecialCareHomes-output-335,APOHAQUI HERITAGE RESIDENCE,SAINT JOHN,1  CAMPBELL ROAD,,APOHAQUI,NB,E5P 3N9,CONNIE ARMSTRONG,(506) 433-2928,ENGLISH,8,Canada,Special Care Home
Canada-NB-9-SpecialCareHomes-output-336,BAY CARE RESIDENTIAL FACILITY,SAINT JOHN,9  PITT STREET,,SAINT JOHN,NB,E2L 2V7,BARBARA MCCARTHY,(506) 658-0991,ENGLISH,18,Canada,Special Care Home
Canada-NB-9-SpecialCareHomes-output-337,BAYVIEW SPECIAL CARE HOME,SAINT JOHN,60  BELLEISLE SHORE ,,KARS,NB,E5T 3E2,CAROL JONES,(506) 485-2022,ENGLISH,9,Canada,Special Care Home
Canada-NB-9-SpecialCareHomes-output-338,BELLEISLE CREEK MANOR,SAINT JOHN,199  EAST SCOTCH SETTLEMENT ROAD,,BELLEISLE CREEK,NB,E5P 1N7,SAMANTHA LEBLANC,(506) 485-2004,ENGLISH,20,Canada,Special Care Home
Canada-NB-9-SpecialCareHomes-output-339,BERWICK PLACE,SAINT JOHN,063 ROUTE 880 ,,BERWICK,NB,E5P 3B7,PHYLLIS & DAVID ARSENEAU,(506) 433-1364,ENGLISH,10,Canada,Special Care Home
Canada-NB-9-SpecialCareHomes-output-340,BICENTENNIAL HOME,SAINT JOHN,3  PARK AVENUE,,SAINT JOHN,NB,E2J 1R2,MR. GREG HEBERT,(506) 652-6350,ENGLISH,7,Canada,Special Care Home
Canada-NB-9-SpecialCareHomes-output-341,BOURGEOIS RESIDENCE,SAINT JOHN,39  BRITAIN STREET,,SAINT JOHN,NB,E2L 1X3,JOAN BOURGEOIS,(506) 657-6526,ENGLISH,2,Canada,Special Care Home
Canada-NB-9-SpecialCareHomes-output-342,C & D MANOR,SAINT JOHN,01  ROUTE 760 ,,ROLLINGDAM,NB,E5A 2X2,DENISE WHITTIER,(506) 466-5323,ENGLISH,3,Canada,Special Care Home
Canada-NB-9-SpecialCareHomes-output-343,CARE-A-LOT CARE HOME INC,SAINT JOHN,1  ST. COEUR COURT,,SAINT JOHN,NB,E2M 5R3,STEVEN ROBINSON,(506) 214-2983,ENGLISH,6,Canada,Special Care Home
Canada-NB-9-SpecialCareHomes-output-344,CARING MANNER,SAINT JOHN,7  SEWELL STREET,,SAINT JOHN,NB,E2L 3A3,,(506) 635-2913,ENGLISH,10,Canada,Special Care Home
Canada-NB-9-SpecialCareHomes-output-345,CARR RESIDENCE,SAINT JOHN,59  KING STREET,,SAINT JOHN,NB,E2L 1G9,BRENDA CARR,(506) 642-9911,ENGLISH,7,Canada,Special Care Home
Canada-NB-9-SpecialCareHomes-output-346,CLEARVIEW SPECIAL CARE HOME,SAINT JOHN,98  MAIN STREET,,HAMPTON,NB,E5N 6C4,JEAN CRONIN,(506) 832-2585,ENGLISH,6,Canada,Special Care Home
Canada-NB-9-SpecialCareHomes-output-347,COLLINGWOOD SPECIAL CARE HOME,SAINT JOHN,49 ROUTE 176 ,,PENNFIELD,NB,E5H 1R9,NANCY DROST,(506) 456-3533,ENGLISH,20,Canada,Special Care Home
Canada-NB-9-SpecialCareHomes-output-348,COSY MANOR,SAINT JOHN,86-188  KING STREET,,SAINT JOHN,NB,E2L 1H1,MR. MICHAEL MONAHAN,(506) 657-1712,ENGLISH,19,Canada,Special Care Home
Canada-NB-9-SpecialCareHomes-output-349,COULTON'S SPECIAL CARE HOME,SAINT JOHN,51  LOCH LOMOND ROAD,,SAINT JOHN,NB,E2J 1Y6,SANDRA FERRIS,(506) 214-1664,ENGLISH,12,Canada,Special Care Home
Canada-NB-9-SpecialCareHomes-output-350,CROW'S NEST MANOR,SAINT JOHN,2  CROW'S NEST LANE,,SAINT JOHN,NB,E2K 4Z2,JACQUELINE LEVESQUE,(506) 214-6339,ENGLISH,6,Canada,Special Care Home
Canada-NB-9-SpecialCareHomes-output-351,DAEKA CARE FACILITIES,SAINT JOHN,0  NEIL DRIVE ,,HAMPTON,NB,E5N 8H2,ELISHA WILLIAMS,(506) 832-3618,ENGLISH,17,Canada,Special Care Home
Canada-NB-9-SpecialCareHomes-output-352,DOBBELSTEYN CARE HOME,SAINT JOHN,45  MOUNT PLEASANT AVENUE,,SAINT JOHN,NB,E2J1T7,JAMIE/PAULA DOBBELSTEYN,(506) 633-0883,ENGLISH,24,Canada,Special Care Home
Canada-NB-9-SpecialCareHomes-output-353,DOROTHY BROWN'S COUNTRY HOME,SAINT JOHN,56  TOWER HILL ROAD,,TOWER HILL,NB,E5A 2M8,DOROTHY BROWN,(506) 466-5836,ENGLISH,3,Canada,Special Care Home
Canada-NB-9-SpecialCareHomes-output-354,FAIRVILLA SPECIAL CARE HOME,SAINT JOHN,58  CHARLOTTE STREET,,SAINT JOHN,NB,E2M 1Y8,CARLA CLINE,(506) 674-1270,ENGLISH,9,Canada,Special Care Home
Canada-NB-9-SpecialCareHomes-output-355,FOREST HILLS SPECIAL CARE HOME,SAINT JOHN,0  MOUNTAIN ROAD,,SAINT JOHN,NB,E2J 2W8,JANET HEBERT,(506) 633-0743,ENGLISH,10,Canada,Special Care Home
Canada-NB-9-SpecialCareHomes-output-356,FOXGLOVE SPECIAL CARE HOME,SAINT JOHN,61  SPUR # 1 ROAD,,BOCABEC,NB,E5B 3K1,BRENDA GARRISH,(506) 469-0908,ENGLISH,3,Canada,Special Care Home
Canada-NB-9-SpecialCareHomes-output-357,FUNDY BAY MANOR,SAINT JOHN,06  MAIN STREET,,ST. GEORGE,NB,E5C 3J9,KAREN DOUGHERTY-SEAMANS,(506) 755-2221,ENGLISH,8,Canada,Special Care Home
Canada-NB-9-SpecialCareHomes-output-358,GREAT OAKS,SAINT JOHN,112 ROUTE 705 ,,WICKHAM,NB,E5T 4A1,DOROTHY MCDONALD,(506) 485-8800,ENGLISH,13,Canada,Special Care Home
Canada-NB-9-SpecialCareHomes-output-359,GREEN MEADOWS,SAINT JOHN,74 ROUTE 880 ,,LOWER MILLSTREAM,NB,E5P 3K4,CHERYL SMITH,(506) 433-2502,ENGLISH,16,Canada,Special Care Home
Canada-NB-9-SpecialCareHomes-output-360,JOANN'S SPECIAL CARE HOME,SAINT JOHN,10  QUEEN STREET,,SAINT JOHN,NB,E2L 1S8,JOANN LAPOINTE,(506) 652-3057,ENGLISH,9,Canada,Special Care Home
Canada-NB-9-SpecialCareHomes-output-361,JOSEPH'S CARING HOME,SAINT JOHN,670  HICKEY ROAD,,SAINT JOHN,NB,E2J 4E2,JOYCE MCGEE,(506) 649-5298,ENGLISH,20,Canada,Special Care Home
Canada-NB-9-SpecialCareHomes-output-362,LAURA MANOR CARE HOME,SAINT JOHN,6  MECKLENBERG STREET,,SAINT JOHN,NB,E2L 1R3,SANDRA LENDORFF,(506) 634-7902,ENGLISH,16,Canada,Special Care Home
Canada-NB-9-SpecialCareHomes-output-363,LIGHT HOUSE VIEW,SAINT JOHN,233 ROUTE RTE 102 ,,HAMPSTEAD,NB,E5M 2B5,KELLY ESTABROOKS,(506) 468-2047,ENGLISH,3,Canada,Special Care Home
Canada-NB-9-SpecialCareHomes-output-364,MANOR SAINT JUDE SPECIAL CARE HOME,SAINT JOHN,16  SANDY POINT ROAD,,SAINT JOHN,NB,E2K 3R9,BONNIE WHYNOT,(506) 632-1888,ENGLISH,8,Canada,Special Care Home
Canada-NB-9-SpecialCareHomes-output-365,MAPLE ROW SPECIAL CARE HOME INC.,SAINT JOHN,43/245  MAPLE ROW STREET,,SAINT JOHN WEST,NB,E2M2A7,JOSHUA REDFERN OR ANDREW ROUSE,(506) 672-5568,ENGLISH,7,Canada,Special Care Home
Canada-NB-9-SpecialCareHomes-output-366,MARITIME MANOR SPECIAL CARE HOME LTD.,SAINT JOHN,99  GOLDEN GROVE ROAD,,SAINT JOHN,NB,E2H 2V5,CRYSTAL POWELL,(506) 647-4087,ENGLISH,9,Canada,Special Care Home
Canada-NB-9-SpecialCareHomes-output-367,MCCARTHY RESIDENCE,SAINT JOHN,12  PITT STREET,,SAINT JOHN,NB,E2L 2X1,BARBARA MCCARTHY,(506) 657-7367,ENGLISH,18,Canada,Special Care Home
Canada-NB-9-SpecialCareHomes-output-368,MCGRATH SPECIAL CARE HOME,SAINT JOHN,67  ROCKLAND ROAD,,SAINT JOHN,NB,E2K 3K3,LORRAINE MCGRATH,(506) 652-3083,ENGLISH,10,Canada,Special Care Home
Canada-NB-9-SpecialCareHomes-output-369,MCGREGOR HOUSE,SAINT JOHN,67  MCGREGOR BROOK ROAD,,SUSSEX,NB,E4G 2G4,LINDA CLARK,(506) 432-6499,ENGLISH,2,Canada,Special Care Home
Canada-NB-9-SpecialCareHomes-output-370,MCKELLARS SPECIAL CARE HOME,SAINT JOHN,1  BONNEY ROAD,,NAUWIGEWAUK,NB,E5N 7A1,TAMMY BROWN,(506) 645-8896,ENGLISH,14,Canada,Special Care Home
Canada-NB-9-SpecialCareHomes-output-371,MCKIM HOUSE C/O LARCHE SAINT JOHN,SAINT JOHN,23  LANCASTER AVENUE,,SAINT JOHN,NB,E2M 2M3,JOCELYN WORSTER,(506) 672-6504,ENGLISH,5,Canada,Special Care Home
Canada-NB-9-SpecialCareHomes-output-372,MCLAY`S OAK BAY HAVEN,SAINT JOHN,2  GIDDENS LANE,,OAK BAY,NB,E3L 4K2,DEBORAH/STEPHEN MCLAY,(506) 466-1297,ENGLISH,14,Canada,Special Care Home
Canada-NB-9-SpecialCareHomes-output-373,MEADOW VALLEY MANOR INC,SAINT JOHN,7  PETTINGILL ROAD,,QUISPAMSIS,NB,E2E 3R9,JOYCE MCGEE,-506,ENGLISH,10,Canada,Special Care Home
Canada-NB-9-SpecialCareHomes-output-374,MEADOWBANK MANOR,SAINT JOHN,24  MEADOWBANK AVENUE,,SAINT JOHN,NB,E2K 2C8,JOYCE MCGEE,(506) 214-1683,ENGLISH,10,Canada,Special Care Home
Canada-NB-9-SpecialCareHomes-output-375,METCALF MANOR,SAINT JOHN,33  METCALF STREET,,SAINT JOHN,NB,E2K 1K2,VANESSA HARRIS,(506) 214-1690,ENGLISH,6,Canada,Special Care Home
Canada-NB-9-SpecialCareHomes-output-376,MURRAY STREET LODGE INC.,SAINT JOHN,5  MURRAY STREET,,GRAND BAY,NB,E5K 1C7,HEATHER PERRIN,(506) 738-3500,ENGLISH,13,Canada,Special Care Home
Canada-NB-9-SpecialCareHomes-output-377,MYSTERY LAKE MANOR,SAINT JOHN,68  GOLDEN GROVE ROAD,,SAINT JOHN,NB,E2H 1X4,KRISTA SIMMONS,(506) 696-5423,ENGLISH,7,Canada,Special Care Home
Canada-NB-9-SpecialCareHomes-output-378,NATHAN HOUSE,SAINT JOHN,37  MILLIDGE AVENUE,,SAINT JOHN,NB,E2K 2M4,SANDY SEALE,(506) 652-2783,ENGLISH,6,Canada,Special Care Home
Canada-NB-9-SpecialCareHomes-output-379,PATTERSON'S SPECIAL CARE HOME,SAINT JOHN,32  MONTREAL AVENUE,,SAINT JOHN,NB,E2M 3J9,CHERYL CAMPBELL,(506) 639-1383,ENGLISH,5,Canada,Special Care Home
Canada-NB-9-SpecialCareHomes-output-380,PEACEFUL HILLS SPECIAL CARE HOME INC.,SAINT JOHN,2  BAXTER ROAD,,SAINT JOHN,NB,E2H 2V5,KATRINA DROST,(506) 696-6750,ENGLISH,6,Canada,Special Care Home
Canada-NB-9-SpecialCareHomes-output-381,PRIMROSE COTTAGE,SAINT JOHN,18 ROUTE 880 ,,LOWER MILL STREAM,NB,E5P 3K4,LYN WALLACE,(506) 433-1663,ENGLISH,16,Canada,Special Care Home
Canada-NB-9-SpecialCareHomes-output-382,RAYLEE BROOKS MANOR INC,SAINT JOHN,13  GUTHRIE RD ,,BLOOMFIELD,NB,E5N 4M1,CHRISTINA TRAVIS,(506) 485-7778,ENGLISH,10,Canada,Special Care Home
Canada-NB-9-SpecialCareHomes-output-383,RIDEOUT'S RESIDENTIAL FACILITY,SAINT JOHN,29  PRINCE STREET,,SAINT JOHN,NB,E2M 1R2,SUSAN RIDEOUT,(506) 657-8044,ENGLISH,6,Canada,Special Care Home
Canada-NB-9-SpecialCareHomes-output-384,RIDGEVIEW MANOR,SAINT JOHN,00  MCKAY LOOP ROAD,,PENNFIELD,NB,E5H 2K4,JACQUELINE PENDLETON,(506) 755-3997,ENGLISH,10,Canada,Special Care Home
Canada-NB-9-SpecialCareHomes-output-385,RIVERDALE MANOR SENIORS RESIDENCE,SAINT JOHN,  RIVERDALE DRIVE,,HAMPTON,NB,E5N5K2,CHRISSY TRAVIS,-506,ENGLISH,10,Canada,Special Care Home
Canada-NB-9-SpecialCareHomes-output-386,ROXANNE'S  SPECIAL CARE HOME,SAINT JOHN,67  PICADILLY ROAD,,PICADILLY,NB,E4E5J7,ROXANNE DORION,(506) 433-5774,ENGLISH,8,Canada,Special Care Home
Canada-NB-9-SpecialCareHomes-output-387,SCENIC VIEW SPECIAL CARE HOME,SAINT JOHN,481 ROUTE 121 ,,APOHAQUI,NB,E5P 1B2,HELEN OR THOMAS ARMSTRONG,(506) 433-4538,ENGLISH,9,Canada,Special Care Home
Canada-NB-9-SpecialCareHomes-output-388,SEA STREET MANOR LTD,SAINT JOHN,89  SEA STREET,,SAINT JOHN,NB,E2M2N9,PHYLLIS & DAVID ARSENEAU,(506) 639-3767,ENGLISH,18,Canada,Special Care Home
Canada-NB-9-SpecialCareHomes-output-389,SEELY LODGE - WESTFIELD ROAD,SAINT JOHN,277  WESTFIELD ROAD,,SAINT JOHN,NB,E2M 6L4,JANICE SEELY,(506) 738-2917,ENGLISH,12,Canada,Special Care Home
Canada-NB-9-SpecialCareHomes-output-390,SERENITY COVE SPECIAL CARE HOME,SAINT JOHN,919 ROUTE ROUTE 102 ,,WOODMANS POINT,NB,E5K4P5,JENNIFER PAUL,(506) 757-8155,ENGLISH,9,Canada,Special Care Home
Canada-NB-9-SpecialCareHomes-output-391,"SHANNEX RLC LTD, CONCORDE HALL",SAINT JOHN,5  SHANNEX DRIVE,,QUISPAMSIS,NB,E2E0M5,JOHN CAMPBELL,(506) 847-7275,ENGLISH,60,Canada,Special Care Home
Canada-NB-9-SpecialCareHomes-output-392,SHANNEX RLC LTD. HOWE HALL,SAINT JOHN,0  VITALITY WAY,,SAINT JOHN,NB,E2K 0J5,SUSAN MCKINLEY,(506) 633-7275,ENGLISH,60,Canada,Special Care Home
Canada-NB-9-SpecialCareHomes-output-393,ST. STEPHEN SENIORS COMPLEX INC.,SAINT JOHN,057 ROUTE 3 ,,OLD RIDGE,NB,E3L 4W6,EULAYCE MCKEEN,(506) 466-1868,ENGLISH,34,Canada,Special Care Home
Canada-NB-9-SpecialCareHomes-output-394,T & D SPECIAL CARE HOME,SAINT JOHN,7  PRINCE WILLIAM STREET,,ST. STEPHEN,NB,E3L 1R6,DIANE/TROY STAFFORD,(506) 466-5883,ENGLISH,8,Canada,Special Care Home
Canada-NB-9-SpecialCareHomes-output-395,TOPAZ SPECIAL CARE HOME,SAINT JOHN,19 ROUTE 124 ,,NORTON,NB,E5T 1B7,TAMMY LONG,(506) 839-2715,ENGLISH,10,Canada,Special Care Home
Canada-NB-9-SpecialCareHomes-output-396,TWIN TOWERS SPECIAL CARE HOME,SAINT JOHN,  ELM STREET,,ST. STEPHEN,NB,E3L 2S2,TOM/CATHY KNOX,(506) 466-6504,ENGLISH,9,Canada,Special Care Home
Canada-NB-9-SpecialCareHomes-output-397,VICTORIA HOUSE,SAINT JOHN,78  BRIDGE STREET,,SAINT JOHN,NB,E2K 1S5,MARIE MARY ROBICHAUD,(506) 642-6058,ENGLISH,9,Canada,Special Care Home
Canada-NB-9-SpecialCareHomes-output-398,WADDELL RESIDENCE,SAINT JOHN,077 ROUTE 845 ,,KINGSTON,NB,E5N 1K7,ANN WADDELL,(506) 763-2257,ENGLISH,6,Canada,Special Care Home
Canada-NB-9-SpecialCareHomes-output-399,WEST SIDE MANOR INC.,SAINT JOHN,46  GEORGE STREET,,SAINT JOHN,NB,E2M 3T3,LISA MELANSON,(506) 672-1534,ENGLISH,10,Canada,Special Care Home
Canada-NB-9-SpecialCareHomes-output-400,WESTPORT RESIDENTIAL CENTER,SAINT JOHN,27  PRINCE STREET,,SAINT JOHN,NB,E2M 1R2,BEVERLY RIDEOUT,(506) 674-2069,ENGLISH,15,Canada,Special Care Home
Canada-NB-9-SpecialCareHomes-output-401,WHITEHALL ESTATES,SAINT JOHN,1  KIERSTEADVILLE ROAD,,HAMPTON,NB,E5N 8H2,JANN RIDEOUT,(506) 832-0241,ENGLISH,11,Canada,Special Care Home
Canada-NB-9-SpecialCareHomes-output-402,WILSON SPECIAL CARE HOME,SAINT JOHN,10  DRURYS COVE ROAD,,RATTERS CORNER,NB,E4E 3L4,SHARON WILSON,(506) 433-5532,ENGLISH,2,Canada,Special Care Home
Canada-NB-9-SpecialCareHomes-output-403,YVONNE'S SPECIAL CARE HOME,SAINT JOHN,773 ROUTE 860 ,,TITUSVILLE,NB,E5N 3W2,YVONNE CLARK,(506) 832-7186,ENGLISH,18,Canada,Special Care Home
