row_id,name,license_num,licensure_status,care_level,owner,number_of_floors,number_of_suites,size_of_suites,facilities,services,website,source,contact,phone,cell,fax,email,participation,ownership_type,number_of_beds,council_type,facility_type,street_address,po_box,city,province,postal_code,country
USA-LA-95-ResidentialCare-95-ResidentialCare-1,Ashton Manor,2203781391,,,,,,,,,,http://new.dhh.louisiana.gov/index.cfm/directory/detail/7494/catid/161,Jay Tipton,985-785-8288,,985-785-7773,jay@ashton-manor.com,,,86,,Shelter Care Home,270 Ashton Plantation Blvd,,Luling,LA,70070,USA
USA-LA-95-ResidentialCare-95-ResidentialCare-2,Academy House,13319,,1,,,,,,,,http://new.dhh.louisiana.gov/index.cfm/directory/detail/912/catid/161,Mrs. Peggy C Stahls,504-884-1063,,504-780-7482,stahlsp@bellsouth.net,,,6,,Personal Care Home,4324 Academy Dr.,,Metairie,LA,70003,USA
USA-LA-95-ResidentialCare-95-ResidentialCare-3,Almor Ponderosa,14224,,,,,,,,,,http://new.dhh.louisiana.gov/index.cfm/directory/detail/913/catid/161,Barbara  Howard,318-787-6320,,318-787-6320,patricia@almorenterprises.com,,,11,,Shelter Care Home,830 MCKEITHEN DRIVE,,ALEXANDRIA,LA,71303,USA
USA-LA-95-ResidentialCare-95-ResidentialCare-4,Amber Terrace,2117,,3,,,,,,,,http://new.dhh.louisiana.gov/index.cfm/directory/detail/976/catid/161,Ms. Terry Atchetre,225-767-7877,,225-767-7807,EDAMBERTERRACE@AMBERTERRACES.COM,,,,,Assisted Living,8585 Summa Avenue,,Baton Rouge,LA,70808,USA
USA-LA-95-ResidentialCare-95-ResidentialCare-5,Anderson Memory Care LLC,2203782072,,3,,,,,,,,http://new.dhh.louisiana.gov/index.cfm/directory/detail/8002/catid/161,"Ginger Hanrahan, Director",985-646-4677,,(985) 646-4681,AMC1202@outlook.com,,,,,Assisted Living,4108 Dauphine St.,,Slidell,LA,70458,USA
USA-LA-95-ResidentialCare-95-ResidentialCare-6,"Arbor and Terrace Senior Center of Ruston, L. L. C. (The)",2111,,3,,,,,,,,http://new.dhh.louisiana.gov/index.cfm/directory/detail/919/catid/161,Mr. Jerry Fletcher,318-251-3116,,318-251-3152,arborruston1@bellsouth.net,,,,,Assisted Living,4518 Highway 80 East,,Ruston,LA,71270,USA
USA-LA-95-ResidentialCare-95-ResidentialCare-7,Beau Maison,2203783047,,1,,,,,,,,http://new.dhh.louisiana.gov/index.cfm/directory/detail/8936/catid/161,Jason Hemel,504-259-0326,,888-606-2434,jasonhemel@gmail.com,,,8,,Personal Care Home,3520 Cleary Avenue,,Metairie,LA,70002,USA
USA-LA-95-ResidentialCare-95-ResidentialCare-8,Belle Reve New Orleans,2203781816,,1,,,,,,,,http://new.dhh.louisiana.gov/index.cfm/directory/detail/7581/catid/161,Vicki G. Weeks,504-945-9455,,504-942-2660,vickiweeks@bellerevenola.org,,,8,,Personal Care Home,3029 Royal Street,,New Orleans,LA,70117,USA
USA-LA-95-ResidentialCare-95-ResidentialCare-9,Bailey Place,2203781717,,,,,,,,,,http://new.dhh.louisiana.gov/index.cfm/directory/detail/928/catid/161,Joyce Brunson,318-346-8400,,318-346-6206,,,,,,Assisted Living,650 Pershing Avenue,,Bunkie,LA,71322,USA
USA-LA-95-ResidentialCare-95-ResidentialCare-10,Azalea Estates of Slidell,11643,,3,,,,,,,,http://new.dhh.louisiana.gov/index.cfm/directory/detail/926/catid/161,Susie Richard,985-641-2827,,985-645-0659,azaleaslidelled@bellsouth.net,,,,,Assisted Living,354 Robert Boulevard,,Slidell,LA,70458,USA
USA-LA-95-ResidentialCare-95-ResidentialCare-11,Beau Provence,2203782086,,2,,,,,,,,http://new.dhh.louisiana.gov/index.cfm/directory/detail/8009/catid/161,Richele Jarrell,(985) 778-0755,,(985) 400-5760,shelly@beauprovence.com,,,46,,Shelter Care,100 Beau West Drive,,Mandeville,LA,70471,USA
USA-LA-95-ResidentialCare-95-ResidentialCare-12,Azalea Estates of Shreveport,11639,,3,,,,,,,,http://new.dhh.louisiana.gov/index.cfm/directory/detail/925/catid/161, Lorrie  Nunley,318-797-2408,,318-797-8540,azalealpn@bellsouth.net,,,,,Assisted Living,516 East Flournoy Lucas Road,,Shreveport,LA,71115,USA
USA-LA-95-ResidentialCare-95-ResidentialCare-13,Azaleas Assisted Living At Woldenberg Village (The),8610,,3,,,,,,,,http://new.dhh.louisiana.gov/index.cfm/directory/detail/927/catid/161,Joseph E Towsend,504-367-5640,,504-367-5643,Joe.Townsend@LCMCHealth.org,,,,,Assisted Living,3701 Behrman Place,,New Orleans,LA,70114,USA
USA-LA-95-ResidentialCare-95-ResidentialCare-14,Azalea Estates of Old Sterlington,12913,,3,,,,,,,,http://new.dhh.louisiana.gov/index.cfm/directory/detail/923/catid/161, Jennifer M Bass,318-343-1626,,318-345-4825,azaleajmb@gmail.com,,,,,Assisted Living,4380 Old Sterlington Rd.,,Monroe,LA,71203,USA
USA-LA-95-ResidentialCare-95-ResidentialCare-15,Azalea Estates of New Iberia,11640,,3,,,,,,,,http://new.dhh.louisiana.gov/index.cfm/directory/detail/924/catid/161,Mrs. Christine A. Thibodeaux,337-364-1695,,337-367-8280,azaleani@bellsouth.net,,,,,Assisted Living,1318 Andre Street,,New Iberia,LA,70563,USA
USA-LA-95-ResidentialCare-95-ResidentialCare-16,Belle Grace House,2203781817,,1,,,,,,,,http://new.dhh.louisiana.gov/index.cfm/directory/detail/7582/catid/161,Vicki G Weeks,504-945-9455,,504-942-2660,vickiweeks@bellerevenola.org,,,7,,Personal Care Home,3035 Royal Street,,New Orleans,LA,70117,USA
USA-LA-95-ResidentialCare-95-ResidentialCare-17,Brookdale Mandeville,10380,,2,,,,,,,,http://new.dhh.louisiana.gov/index.cfm/directory/detail/1041/catid/161,"Assumpta Mialaret, Executive Director",985-727-4011,,985-727-4022,,,,107,,Shelter Care Home,1414 North Causeway Boulevard,,Mandeville,LA,70471,USA
USA-LA-95-ResidentialCare-95-ResidentialCare-18,Brookdale Shreveport,10659,,3,,,,,,,,http://new.dhh.louisiana.gov/index.cfm/directory/detail/972/catid/161,Jinnie Hebert - Executive Director ,318-524-2100,,318-524-2300,shreveport-ed@emeritus.com,,,,,Assisted Living,7110 University Drive,,Shreveport,LA,71105,USA
USA-LA-95-ResidentialCare-95-ResidentialCare-19,Camelot of Broussard,13262,,3,,,,,,,,http://new.dhh.louisiana.gov/index.cfm/directory/detail/932/catid/161,"Carla L. Duhon, Executive Director",(337) 837-9624,,(318) 641-6266,cduhon@cci.la,,,,,Assisted Living,418 Albertsons Pkwy,,Broussard,LA,70518,USA
USA-LA-95-ResidentialCare-95-ResidentialCare-20,Azalea Estates of Gonzales,11644,,3,,,,,,,,http://new.dhh.louisiana.gov/index.cfm/directory/detail/922/catid/161,Lisa  Lhuillier,225-644-1028,,225-647-9520,azalea1@eatel.net,,,,,Assisted Living,2305 South Purpera Avenue,,Gonzales,LA,70737,USA
USA-LA-95-ResidentialCare-95-ResidentialCare-21,Brookdale Lafayette,10662,,3,,,,,,,,http://new.dhh.louisiana.gov/index.cfm/directory/detail/970/catid/161,Megan Meece,(337) 993-0077,,337-993-0071,lafayette-ed@emeritus.com,,,,,Assisted Living,215 W. Farrel Road,,Lafayette,LA,70508,USA
USA-LA-95-ResidentialCare-95-ResidentialCare-22,Brookdale Kenner,7452,,3,,,,,,,,http://new.dhh.louisiana.gov/index.cfm/directory/detail/1016/catid/161,John Rive,504-467-1000,,504-467-1017,,,,,,Assisted Living,1600 Joe Yenni Boulevard,,Kenner,LA,70065,USA
USA-LA-95-ResidentialCare-95-ResidentialCare-23,Avanti Senior Living at Covington,2203783452,,3,,,,,,,,http://new.dhh.louisiana.gov/index.cfm/directory/detail/12475/catid/161,Keri Meyer - Executive Director,985-317-6110,,,,,,,,Assisted Living,2234 Watercross Parkway,,Covington,LA,70433,USA
USA-LA-95-ResidentialCare-95-ResidentialCare-24,Arbor Rose Assisted Living,13917,,3,,,,,,,,http://new.dhh.louisiana.gov/index.cfm/directory/detail/920/catid/161,Samantha  Craig,318-368-1848,,(318) 368-6364,arborroseassistedliving@gmail.com,,,,,Assisted Living,243 Sistrunk Street,,Farmerville,LA,71241,USA
USA-LA-95-ResidentialCare-95-ResidentialCare-25,Brookdale Lake Charles,10658,,3,,,,,,,,http://new.dhh.louisiana.gov/index.cfm/directory/detail/971/catid/161,Randy Stelly,337-478-4030,,337-478-7854,,,,,,Assisted Living,2420 Country Club Road,,Lake Charles,LA,70605,USA
USA-LA-95-ResidentialCare-95-ResidentialCare-26,Belleville Assisted Living,2121,,,,,,,,,,http://new.dhh.louisiana.gov/index.cfm/directory/detail/7281/catid/161,"Monique Cheatam, Director",504-362-7166,,504-267-7340,mcheatam@stmargaretsno.org,,,,,Assisted Living,813 Pelican Avenue,,New Orleans,LA,70114,USA
USA-LA-95-ResidentialCare-95-ResidentialCare-27,Brookdale Bossier City,13578,,3,,,,,,,,http://new.dhh.louisiana.gov/index.cfm/directory/detail/943/catid/161,"Betsy Williams, Executive Director",318-747-2114,,318-747-2164,,,,,,Assisted Living,2540 Beene Boulevard,,Bossier City,LA,71111,USA
USA-LA-95-ResidentialCare-95-ResidentialCare-28,Colonial Care Retirement Center,2116,,,,,,,,,,http://new.dhh.louisiana.gov/index.cfm/directory/detail/6827/catid/161,Ryan Keith Dennis,225-272-9339,,225-272-4171,EDalcolonial@colonialretirementcenter.com,,,,,Assisted Living,14686 Old Hammond Highway,,Baton Rouge,LA,70816,USA
USA-LA-95-ResidentialCare-95-ResidentialCare-29,"Cornerstone Village South, Inc.",5484,,3,,,,,,,,http://new.dhh.louisiana.gov/index.cfm/directory/detail/939/catid/161,Ms. Deborah Provost,337-981-5335,,337-981-0775,lance@cornerstonevillage.com,,,,,Assisted Living,103 West Martial Avenue,,Lafayette,LA,70508,USA
USA-LA-95-ResidentialCare-95-ResidentialCare-30,Bloom At Bossier,2203782473,,3,,,,,,,,http://new.dhh.louisiana.gov/index.cfm/directory/detail/8825/catid/161,Laurie Manno,(318) 746-0470,,(318) 746-5825,admin@bloomatbossier.com,,,98,,ARCP,4828 Medical Drive,,Bossier City,LA,71112,USA
USA-LA-95-ResidentialCare-95-ResidentialCare-31,Christwood,2203781597,,4,,,,,,,,http://new.dhh.louisiana.gov/index.cfm/directory/detail/938/catid/161,Laura Lunday,(985) 898-0515,,(985) 898-0801,llunday@christwoodrc.com,,,34,,Residential Care,100 Christwood Boulevard,,Covington,LA,70433,USA
USA-LA-95-ResidentialCare-95-ResidentialCare-32,Christus Health St. Joseph's Home,11576,,3,,,,,,,,http://new.dhh.louisiana.gov/index.cfm/directory/detail/937/catid/161,Mrs. Staci L. Williams,318-325-9459,,318-323-2527,,,,,,Assisted Living,2299 Sterlington Road,,Monroe,LA,71201,USA
USA-LA-95-ResidentialCare-95-ResidentialCare-33,Chennault Place,4418,,,,,,,,,,http://new.dhh.louisiana.gov/index.cfm/directory/detail/7496/catid/161,"Robert Maddox, Director",337-436-9385,,337-436-5841,director@chennaultplace.net,,,123,,Shelter Care,1200 Canvasback Street,,Lake Charles,LA,70615,USA
USA-LA-95-ResidentialCare-95-ResidentialCare-34,Chateau de Notre Dame Assisted Living,14259,,,,,,,,,,http://new.dhh.louisiana.gov/index.cfm/directory/detail/936/catid/161,Mrs. Sherri B Guidry,504-866-2741,,504-866-2861,sguidry@arch-no.org,,,,,Assisted Living,2820 Burdette Street,,New Orleans,LA,70125,USA
USA-LA-95-ResidentialCare-95-ResidentialCare-35,Cedar Crest Personal Memory Living,2203782337,,3,,,,,,,,http://new.dhh.louisiana.gov/index.cfm/directory/detail/8232/catid/161, Joyce  Hannie,(337) 261-8811,,(337) 524-1366,info@cedarcrestliving.com,,,37,,ARCP,161 South Beadle Road,,Lafayette,LA,70508,USA
USA-LA-95-ResidentialCare-95-ResidentialCare-36,Carriage House At The Verandah,2203781664,,,,,,,,,,http://new.dhh.louisiana.gov/index.cfm/directory/detail/7495/catid/161, Kayla  Baham,337-478-0859,,337-478-8842,Kayla.baham@sunshineret.com,,,,,Assisted Living,5847 Gray Market Drive,,Lake Charles,LA,70605,USA
USA-LA-95-ResidentialCare-95-ResidentialCare-37,Canterbury House,2203781146,,,,,,,,,,http://new.dhh.louisiana.gov/index.cfm/directory/detail/7277/catid/161, Nicholas  Williams,318-445-7715,,(318) 445-7756,nwilliams@cenlahomehealth.com,,,,,Assisted Living,1101 Sixteenth Street,,Alexandria,LA,71301,USA
USA-LA-95-ResidentialCare-95-ResidentialCare-38,Christwood Retirement Community,2203783013,,3,,,,,,,,http://new.dhh.louisiana.gov/index.cfm/directory/detail/8911/catid/161,Tami Perry - Director,985-292-1213,,985-302-3286,tperry@christwoodrc.com,,,,,Assisted Living,100 Christwood Blvd.,,Covington,LA,70433,USA
USA-LA-95-ResidentialCare-95-ResidentialCare-39,A & D Adult Residential Care - Westbank,14584,,1,,,,,,,,http://new.dhh.louisiana.gov/index.cfm/directory/detail/681/catid/161,Mrs. Barbara K. Reece,504.361.0365,,504.302.9828,adultresidential@bellsouth.net,,,8,,Personal Care Home,3081 Elmwood Park Drive,,New Orleans,LA,70114,USA
USA-LA-95-ResidentialCare-95-ResidentialCare-40,Brookdale Alexandria,10656,,2,,,,,,,,http://new.dhh.louisiana.gov/index.cfm/directory/detail/969/catid/161,"Brittany Lewis, Executive Director",318-443-6770,,318-443-2366,,,,96,,Shelter Care Home,351 Windemere Boulevard,,Alexandria,LA,71303,USA
USA-LA-95-ResidentialCare-95-ResidentialCare-41,"Fidelis Care V, LLC",14669,,1,,,,,,,,http://new.dhh.louisiana.gov/index.cfm/directory/detail/954/catid/161,Vaschelle M Hastings,225-771-8569,,225-752-8560,rachelle@fideliscaregroup.com,,,8,,Personal Care Home,6543 E. Anchord Road,,Baton Rouge,LA,70817,USA
USA-LA-95-ResidentialCare-95-ResidentialCare-42,Fidelis Northshore I,2203781167,,,,,,,,,,http://new.dhh.louisiana.gov/index.cfm/directory/detail/7293/catid/161,Shelia Cole,(985) 778-2190,,985-778-2191,judy@fideliscaregroup.com,,,10,,Shelter Care Home,5011 Sharp Road,,Mandeville,LA,70471,USA
USA-LA-95-ResidentialCare-95-ResidentialCare-43,Fidelis Care III,13723,,1,,,,,,,,http://new.dhh.louisiana.gov/index.cfm/directory/detail/952/catid/161,Demetria Hudson,504-636-5524,,504-636-5475,judy@fideliscaregroup.com,,,8,,Personal Care Home,1732 Sherwood Forest Blvd.,,Baton Rouge,LA,70815,USA
USA-LA-95-ResidentialCare-95-ResidentialCare-44,Fidelis Care IV,13442,,1,,,,,,,,http://new.dhh.louisiana.gov/index.cfm/directory/detail/953/catid/161,Tonika Hagan,504-304-7862,,(504) 371-5672,rachelle@fideliscaregroup.com,,,8,,Personal Care Home,4801 Tartan Street,,Metairie,LA,70003,USA
USA-LA-95-ResidentialCare-95-ResidentialCare-45,"Courtyard Retirement & Assisted Living, Inc.",13143,,3,,,,,,,,http://new.dhh.louisiana.gov/index.cfm/directory/detail/942/catid/161,Nicholas  Sarver,337-237-3040,,337-269-1255,cyeileen@hotmail.com,,,,,Assisted Living,308 Sidney Martin Road,,Lafayette,LA,70507,USA
USA-LA-95-ResidentialCare-95-ResidentialCare-46,Eastridge Senior Living Suites,2203782576,,3,,,,,,,,http://new.dhh.louisiana.gov/index.cfm/directory/detail/947/catid/161,Angela R. Leblanc,(337) 898-1233,,337-892-1298,agros@elderoutreach.com,,,,,Assisted Living,2309 Richard Street,,Abbeville,LA,70510,USA
USA-LA-95-ResidentialCare-95-ResidentialCare-47,Garden View of Baton Rouge,2203782569,,2,,,,,,,,http://new.dhh.louisiana.gov/index.cfm/directory/detail/8265/catid/161,"Nicole Andrepont, Executive Director",225-706-0037,,(225) 706-6900,nicolea@gardenview.org,,,78,,ARCP,3130 Jones Creek Road,,Baton Rouge,LA,70816,USA
USA-LA-95-ResidentialCare-95-ResidentialCare-48,Garden View Assisted Living,9625,,3,,,,,,,,http://new.dhh.louisiana.gov/index.cfm/directory/detail/957/catid/161,Edythe D. Casselman,337-237-5542,,337-237-5543,,,,,,Assisted Living,601 Verot School Road,,Lafayette,LA,70508,USA
USA-LA-95-ResidentialCare-95-ResidentialCare-49,Garden View Assisted Living,8878,,3,,,,,,,,http://new.dhh.louisiana.gov/index.cfm/directory/detail/956/catid/161,Justin E. Saucier,337-364-2266,,337-364-6919,Ediec@gardenview.org,,,,,Assisted Living,1000 Darby Lane,,New Iberia,LA,70560,USA
USA-LA-95-ResidentialCare-95-ResidentialCare-50,Cottages at The Glen (The),13349,,3,,,,,,,,http://new.dhh.louisiana.gov/index.cfm/directory/detail/941/catid/161, Elizabeth  Kirkpatrick,318-629-3596,,318-629-3655,lkirkpatrick@theglensystem.org,,,,,Assisted Living,425 East Flournoy Lucas Road,,Shreveport,LA,71115,USA
USA-LA-95-ResidentialCare-95-ResidentialCare-51,Fidelis Janice House LLC,2203782065,,2,,,,,,,,http://new.dhh.louisiana.gov/index.cfm/directory/detail/8000/catid/161,Michele Robert,504-309-5525,,504-309-5565,rachelle@fideliscaregroup.com,,,10,,Shelter Care,4421 Janice Street,,Metairie,LA,70003,USA
USA-LA-95-ResidentialCare-95-ResidentialCare-52,"Gables at Spring Lake (The), LLC",7393,,3,,,,,,,,http://new.dhh.louisiana.gov/index.cfm/directory/detail/955/catid/161,Ami Williams,318-861-2366,,318-861-3022,,,,,,Assisted Living,8622 Line Avenue,,Shreveport,LA,71106,USA
USA-LA-95-ResidentialCare-95-ResidentialCare-53,Henican House,2203781272,,1,,,,,,,,http://new.dhh.louisiana.gov/index.cfm/directory/detail/7319/catid/161,Peggy Stahls,504-259-0326,,(888) 606-2434,jasonhemel@gmail.com,,,8,,Personal Care Home,5511 Meadowdale Street,,Metairie ,LA,70003,USA
USA-LA-95-ResidentialCare-95-ResidentialCare-54,Harvard House,2203782826,,1,,,,,,,,http://new.dhh.louisiana.gov/index.cfm/directory/detail/9294/catid/161,Peggy Stahls,504-884-1063,,504-780-7842,stahlsp@bellsouth.net,,,8,,Residential Care,4012 Harvard Avenue,,Metairie,LA,70006,USA
USA-LA-95-ResidentialCare-95-ResidentialCare-55,Hummingbird Group Home,2203781697,,1,,,,,,,,http://new.dhh.louisiana.gov/index.cfm/directory/detail/964/catid/161,Nicholas Richard,985-626-6538,,877-361-1631,info@namisttammany.org,,,8,,Personal Care Home,63051 Hummingbird Lane,,Mandeville,LA,70448,USA
USA-LA-95-ResidentialCare-95-ResidentialCare-56,Fidelis Northshore II,2203783330,,2,,,,,,,,http://new.dhh.louisiana.gov/index.cfm/directory/detail/12339/catid/161,Angela Lore,504-884-2579,,866-641-0693,michele@fideliscaregroup.com,,,10,,Shelter Care Home,2045 Olene Drive,,Mandeville,LA,70448,USA
USA-LA-95-ResidentialCare-95-ResidentialCare-57,Fidelis Scofield House LLC,2203782813,,3,,,,,,,,http://new.dhh.louisiana.gov/index.cfm/directory/detail/9293/catid/161,Gwen Robertson,504-884-2579,,866-641-0693,michele@fideliscaregroup.com,,,,,Assisted Living,,,,,,USA
USA-LA-95-ResidentialCare-95-ResidentialCare-58,"House of Grace, L.L.C.",2203781097,,,,,,,,,,http://new.dhh.louisiana.gov/index.cfm/directory/detail/7159/catid/161,Carlyn Guidry,(225) 271-4445,,(225) 369-5510,carlynguidry@cox.net,,,8,,Residential Care,32956 LA Highway 16,,Denham Springs,LA,70706,USA
USA-LA-95-ResidentialCare-95-ResidentialCare-59,Haven at Windermere 1 & 2 (The),6715,,3,,,,,,,,http://new.dhh.louisiana.gov/index.cfm/directory/detail/960/catid/161,Denise Ortego,225-769-9996,,(225) 769-9397,denise.ortego@thehavenbr.com,,,,,Assisted Living,8225 YMCA Plaza Drive,,Baton Rouge,LA,70810,USA
USA-LA-95-ResidentialCare-95-ResidentialCare-60,Home Again Residence,5488,,2,,,,,,,,http://new.dhh.louisiana.gov/index.cfm/directory/detail/962/catid/161,Ms. Roberta Brown,504-362-1066,,(504) 275-1118,armstead@ccfbano.org,,,3,,Shelter Care,1409 Nunez Street,,New Orleans,LA,70114,USA
USA-LA-95-ResidentialCare-95-ResidentialCare-61,"Homestead Assisted Living, A Partnership in Commendam",9918,,3,,,,,,,,http://new.dhh.louisiana.gov/index.cfm/directory/detail/963/catid/161,Ms. Billie J. Jennings,985-223-4663,,985-655-4663,director@thehomesteadweb.com,,,,,Assisted Living,1132 Cottage Drive,,Houma,LA,70360,USA
USA-LA-95-ResidentialCare-95-ResidentialCare-62,Gardens Assisted Living (The),6541,,3,,,,,,,,http://new.dhh.louisiana.gov/index.cfm/directory/detail/958/catid/161,Hugh  Fellows,337-480-1550,,337-480-1341,info@gardens-guardian.com,,,,,Assisted Living,1401 Country Club Road,,Lake Charles,LA,70605,USA
USA-LA-95-ResidentialCare-95-ResidentialCare-63,Home Again,5489,,,,,,,,,,http://new.dhh.louisiana.gov/index.cfm/directory/detail/961/catid/161,Ms. Roberta Brown,504-362-1066,,(504) 275-1118,armstead@ccfbano.org,,,6,,Shelter Care Home,1417 Nunez Street,,New Orleans,LA,70114,USA
USA-LA-95-ResidentialCare-95-ResidentialCare-64,Lacour House,2203782343,,3,,,,,,,,http://new.dhh.louisiana.gov/index.cfm/directory/detail/8131/catid/161,"Annette Lacombe, Director",225-638-7050,,225-443-5006,alacombe@lacourhouse.com,,,,,Assisted Living,345 Major Parkway,,New Roads,LA,70760,USA
USA-LA-95-ResidentialCare-95-ResidentialCare-65,La Plantation Retirement Community,6024,,3,,,,,,,,http://new.dhh.louisiana.gov/index.cfm/directory/detail/974/catid/161,Mrs Kayla  Carmack,225-667-1484,,225-667-1448,kcarmack@plantationmgt.com,,,,,Assisted Living,26635 LA Highway 16,,Denham Springs,LA,70726,USA
USA-LA-95-ResidentialCare-95-ResidentialCare-66,Marigold House,2203781715,,3,,,,,,,,http://new.dhh.louisiana.gov/index.cfm/directory/detail/986/catid/161, Kacey  Campbell,318-449-8999,,318-449-9906,alclicense@enlivant.com,,,,,Assisted Living,5723 Jackson Street,,Alexandria,LA,71303,USA
USA-LA-95-ResidentialCare-95-ResidentialCare-67,Fidelis Care II,12160,,1,,,,,,,,http://new.dhh.louisiana.gov/index.cfm/directory/detail/951/catid/161,Ms. Andrea  Batiste,504-218-7951,,(504) 218-7952,Judy@FidelisCaregroup.com,,,8,,Personal Care Home,4000 Kent Avenue,,Metairie,LA,70006,USA
USA-LA-95-ResidentialCare-95-ResidentialCare-68,Magnolia Care Center Veterans Home,14334,,1,,,,,,,,http://new.dhh.louisiana.gov/index.cfm/directory/detail/981/catid/161,Mrs. Ethel Comeaux,(225) 316-2723,,(225) 723-7284,Magnoliacarecenter@gmail.com,,,9,,Personal Care Home,16950 FLORIDA BLVD.,,BATON ROUGE,LA,70819,USA
USA-LA-95-ResidentialCare-95-ResidentialCare-69,"HomeLife In The Gardens, LLC.",,,,,,,,,,,http://new.dhh.louisiana.gov/index.cfm/directory/detail/7362/catid/161,Terri  Williams,(504) 894-6100,,(504) 895-1555,terri@homelifecompanies.com,,,,,Adult Residential Care,1101 Aline Street,,New Orleans,LA,70115,USA
USA-LA-95-ResidentialCare-95-ResidentialCare-70,Inspired Living at Kenner,2203783238,,3,,,,,,,,http://new.dhh.louisiana.gov/index.cfm/directory/detail/9274/catid/161,"Daniel Ritter, Administrator",504-313-6600,,504-321-6010,regulatory@validusseniorliving.com,,,,,Assisted Living,3801 Loyola Drive,,Kenner,LA,70065,USA
USA-LA-95-ResidentialCare-95-ResidentialCare-71,Maison Jardin Senior Living Community,2203782492,,3,,,,,,,,http://new.dhh.louisiana.gov/index.cfm/directory/detail/983/catid/161,Danette Ellis,985-385-3003,,985-385-0049,ADMIN@MAISONJARDINSLC.COM,,,,,Assisted Living,516 RODERICK STREET,,Morgan City,LA,70380,USA
USA-LA-95-ResidentialCare-95-ResidentialCare-72,Live Oak Village of Slidell,2203782189,,3,,,,,,,,http://new.dhh.louisiana.gov/index.cfm/directory/detail/9295/catid/161,Kristy Leblanc,985-781-4545,,985-781-8786,kleblanc@slidellseniorliving.com,,,,,Assisted Living,2200 Gause Boulevard,,Slidell,LA,70461,USA
USA-LA-95-ResidentialCare-95-ResidentialCare-73,"Magnolia Assisted Living, LLC",14875,,3,,,,,,,,http://new.dhh.louisiana.gov/index.cfm/directory/detail/980/catid/161,Tammy  Duhon,225-647-8400,,225-647-8402,info@magnoliaseniorliving.com,,,,,Assisted Living,1604 S. Burnside Avenue,,Gonzales,LA,70737,USA
USA-LA-95-ResidentialCare-95-ResidentialCare-74,Honeysuckle House,2203781140,,,,,,,,,,http://new.dhh.louisiana.gov/index.cfm/directory/detail/7269/catid/161,Peggy  Stahls,504-259-0326,,(888) 602-2434,jasonhemel@gmail.com,,,6,,Personal Care Home,824 Honeysuckle Street,,Gretna,LA,70056,USA
USA-LA-95-ResidentialCare-95-ResidentialCare-75,Lake Villa House,14696,,1,,,,,,,,http://new.dhh.louisiana.gov/index.cfm/directory/detail/975/catid/161,Mrs. Peggy C. Stahls,(504) 884-1063,,(504) 780-7482,,,,6,,Personal Care Home,4212 LAKE VILLA DRIVE,,METAIRIE,LA,70002,USA
USA-LA-95-ResidentialCare-95-ResidentialCare-76,Live Oak Village of Hammond,2113,,3,,,,,,,,http://new.dhh.louisiana.gov/index.cfm/directory/detail/978/catid/161,Tonya Ramsey,985-345-8787,,985-345-5501,tramsey@hammondseniorliving.com,,,,,Assisted Living,17010 Old Covington Highway,,Hammond,LA,70403,USA
USA-LA-95-ResidentialCare-95-ResidentialCare-77,Lakeview House,2122,,1,,,,,,,,http://new.dhh.louisiana.gov/index.cfm/directory/detail/7072/catid/161,Jason Hemel,504-259-0326,,888-606-2434,jasonhemel@gmail.com,,,7,,Personal Care Home,858 Mouton Street,,New Orleans,LA,70124,USA
USA-LA-95-ResidentialCare-95-ResidentialCare-78,"Oakwood Village, LLC",5775,,3,,,,,,,,http://new.dhh.louisiana.gov/index.cfm/directory/detail/992/catid/161,Virginia Hines,225-658-8888,,225-658-8211,,,,,,Assisted Living,4400 McHugh Road,,Zachary,LA,70791,USA
USA-LA-95-ResidentialCare-95-ResidentialCare-79,Oak House Assisted Living,2203781741,,3,,,,,,,,http://new.dhh.louisiana.gov/index.cfm/directory/detail/8076/catid/161,Dwayne Lawrence,504-897-0535,,504-897-9494,,,,,,Assisted Living,5354 Magazine Street,,New Orleans,LA,70115,USA
USA-LA-95-ResidentialCare-95-ResidentialCare-80,Park Provence,2203782060,,3,,,,,,,,http://new.dhh.louisiana.gov/index.cfm/directory/detail/931/catid/161,Ms. Susan Pappalardo,(985) 781-0072,,(985) 781-0277,susan@parkprovence.com,,,,,Assisted Living,1925 Possum Hollow Drive,,Slidell,LA,70458,USA
USA-LA-95-ResidentialCare-95-ResidentialCare-81,"Oakmont Estate, LLC",7916,,3,,,,,,,,http://new.dhh.louisiana.gov/index.cfm/directory/detail/991/catid/161,Mrs. Melissa Loughman,318-240-7424,,318-240-7464,oestates@bellsouth.net,,,,,Assisted Living,204 Cocoville Road,,Mansura,LA,71350,USA
USA-LA-95-ResidentialCare-95-ResidentialCare-82,Peristyle Metairie Heights LLC,2203781951,,1,,,,,,,,http://new.dhh.louisiana.gov/index.cfm/directory/detail/7908/catid/161,Jason Hemel,504-259-0826,,888-606-2434,Jasonhemel@gmail.com,,,8,,Personal Care Home,2701 Metairie Heights Ave,,Metairie,LA,70002,USA
USA-LA-95-ResidentialCare-95-ResidentialCare-83,Peristyle Lake Louise,2203782607,,1,,,,,,,,http://new.dhh.louisiana.gov/index.cfm/directory/detail/9299/catid/161,Jason  Hemel,504-259-0326,,888-606-2434,jasonhemel@gmail.com,,,8,,Residential Care,4613 Lake Louise Avenue,,Metairie,LA,70006,USA
USA-LA-95-ResidentialCare-95-ResidentialCare-84,Our House for Respite Inc.,2123,,1,,,,,,,,http://new.dhh.louisiana.gov/index.cfm/directory/detail/7073/catid/161,Verly Yopung-Polk,225-776-0135 / 225-938-4331,,225-687-8751,ohfrinc@aol.com,,,8,,Personal Care Home,2967 Carmen Drive,,Baton Rouge,LA,70809,USA
USA-LA-95-ResidentialCare-95-ResidentialCare-85,Montclair Park Assisted Living,7232,,3,,,,,,,,http://new.dhh.louisiana.gov/index.cfm/directory/detail/989/catid/161,Mr. David Abdehou,318-797-1114,,318-797-1158,renee@montclair-park.com,,,,,Assisted Living,9100 East Kings Highway,,Shreveport,LA,71115,USA
USA-LA-95-ResidentialCare-95-ResidentialCare-86,Savannah Court of Minden,2106,,3,,,,,,,,http://new.dhh.louisiana.gov/index.cfm/directory/detail/988/catid/161,Nancy  Hines,318-382-0402,,318-377-3708,urubin@slm.net,,,,,Assisted Living,619 Germantown Road,,Minden,LA,71055,USA
USA-LA-95-ResidentialCare-95-ResidentialCare-87,Natchitoches Assisted Living,13696,,3,,,,,,,,http://new.dhh.louisiana.gov/index.cfm/directory/detail/990/catid/161,Angela Ingram,318-356-0016,,318-356-0019,arbornatch1@bellsouth.net,,,,,Assisted Living,1907 South Drive,,Natchitoches,LA,71457,USA
USA-LA-95-ResidentialCare-95-ResidentialCare-88,Savannah Court of Bastrop ,2108,,3,,,,,,,,http://new.dhh.louisiana.gov/index.cfm/directory/detail/929/catid/161,Ms. Marilyn Brandy,318-283-4238,,318-283-4232,urubin@slm.net,,,,,Assisted Living,10280 Boswell Street,,Bastrop,LA,71220,USA
USA-LA-95-ResidentialCare-95-ResidentialCare-89,Savannah at the Oaks,,,,,,,,,,,http://new.dhh.louisiana.gov/index.cfm/directory/detail/4931/catid/161,"Mary Ann Wade, Director",(318) 212-2300,,(318) 212-2278,jlatvala@wkhs.com,,,,,Assisted Living,651 Lake Eleanor Way,,Shreveport,LA,71115,USA
USA-LA-95-ResidentialCare-95-ResidentialCare-90,Rosewood Retirement and Assisted Living Community,5238,,3,,,,,,,,http://new.dhh.louisiana.gov/index.cfm/directory/detail/999/catid/161,Mr. Nicol E. Hannie,337-981-0333,,337-988-1706,rosewoodretire@aol.com,,,,,Assisted Living,203 Rue Fountaine Drive,,Lafayette,LA,70508,USA
USA-LA-95-ResidentialCare-95-ResidentialCare-91,River Oaks Estate,10513,,2,,,,,,,,http://new.dhh.louisiana.gov/index.cfm/directory/detail/997/catid/161, Lekedra  Johnson,225-778-0042,,(225) 774-2339,johnsonl@optionsfoundation.com,,,20,,Shelter Care Home,9475 Pettit Road,,Baker,LA,70714,USA
USA-LA-95-ResidentialCare-95-ResidentialCare-92,Regency House of Alexandria,2203782656,,3,,,,,,,,http://new.dhh.louisiana.gov/index.cfm/directory/detail/8345/catid/161,"Patricia A. Small, Administrator",318-445-8343,,318-445-8372,psmall@steedcare.com,,,,,Assisted Living,5131 Masonic Drive,,Alexandria,LA,71301,USA
USA-LA-95-ResidentialCare-95-ResidentialCare-93,Rosemont Assisted Living Community Of West Monroe (The),,,,,,,,,,,http://new.dhh.louisiana.gov/index.cfm/directory/detail/998/catid/161,Mrs. Karen Traxler,318-329-1021,,318-329-3964,karen@therosemont.com,,,,,Residential Care,110 Regency Place,,West Monroe,LA,71291,USA
USA-LA-95-ResidentialCare-95-ResidentialCare-94,Lambeth House Assisted Living,10565,,3,,,,,,,,http://new.dhh.louisiana.gov/index.cfm/directory/detail/977/catid/161,"Daphne Dominguez, Administrator",504-865-1960,,504-865-9514,ddominguez@lambethhouse.com,,,,,Assisted Living,150 Broadway,,New Orleans,LA,70118,USA
USA-LA-95-ResidentialCare-95-ResidentialCare-95,Our House for Respite,14316,,1,,,,,,,,http://new.dhh.louisiana.gov/index.cfm/directory/detail/993/catid/161, Verly Y Polk,(225) 776-0135,,(225) 687-8751,ohfrinc@aol.com,,,8,,Personal Care Home,58765 DELACROIX AVE.,,PLAQUEMINE,LA,70764,USA
USA-LA-95-ResidentialCare-95-ResidentialCare-96,"Project Reach/Community Support Programs, Inc.",4880,,2,,,,,,,,http://new.dhh.louisiana.gov/index.cfm/directory/detail/995/catid/161,Ms. Veronica Stinson,(318) 865-1422,,(318) 865-4566,vglover@cspla.org,,,9,,Shelter Care Home,1101 Highland Avenue,,Shreveport,LA,71101,USA
USA-LA-95-ResidentialCare-95-ResidentialCare-97,Peristyle Richland LLC,2203782270,,1,,,,,,,,http://new.dhh.louisiana.gov/index.cfm/directory/detail/9300/catid/161,Jason Hemel,504-259-0326,,888-606-2434,jasonhemel@gmail.com,,,8,,Residential Care,3521 Richland Avenue,,Metairie,LA,70002,USA
USA-LA-95-ResidentialCare-95-ResidentialCare-98,St. Anthony's Gardens,2203782960,,3,,,,,,,,http://new.dhh.louisiana.gov/index.cfm/directory/detail/8858/catid/161,Corey Leftwich,985-605-5950,,(888) 999-9999,leftwichcorey@lcsnet.com,,,,,Assisted Living,601 Holy Trinity Drive,,Covington,Louisiana,70433,USA
USA-LA-95-ResidentialCare-95-ResidentialCare-99,Southwind Senior Living Suites,14047,,3,,,,,,,,http://new.dhh.louisiana.gov/index.cfm/directory/detail/1006/catid/161,Mrs. Jill O. Signorelli,337-788-1113,,337-778-1195,jsignorelli@elderoutreach.com,,,,,Assisted Living,626 Crowley/Rayne Highway,,Crowley,LA,70526,USA
USA-LA-95-ResidentialCare-95-ResidentialCare-100,Shekinah Glory,14542,,2,,,,,,,,http://new.dhh.louisiana.gov/index.cfm/directory/detail/1003/catid/161,Mrs. Debra Eackles,225-346-5225,,225-346-5226,shekinahg3613@yahoo.com,,,20,,Shelter Care Home,3613 GOVERNMENT STREET,,BATON ROUGE,LA,70806,USA
USA-LA-95-ResidentialCare-95-ResidentialCare-101,Maison Oaks Assisted Living,6368,,3,,,,,,,,http://new.dhh.louisiana.gov/index.cfm/directory/detail/984/catid/161, Karen  Connor,985-653-8858,,(985) 651-0222,,,,,,Assisted Living,504 West Fifth Street,,LaPlace,LA,70068,USA
USA-LA-95-ResidentialCare-95-ResidentialCare-102,Southside Gardens Assisted Living Center,5683,,3,,,,,,,,http://new.dhh.louisiana.gov/index.cfm/directory/detail/1005/catid/161,Mrs. Mark D Calvit,(225) 922-9923,,(225) 928-1616,Shyrellparker30@gmail.com,,,,,Assisted Living,4536 Perkins Road,,Baton Rouge,LA,70808,USA
USA-LA-95-ResidentialCare-95-ResidentialCare-103,Russ Place,2203781721,,3,,,,,,,,http://new.dhh.louisiana.gov/index.cfm/directory/detail/1000/catid/161,Michelle  Long,318-251-9068,,318-251-4033,alclicense@enlivant.com,,,,,Assisted Living,165 Jefferson Avenue,,Ruston,LA,71270,USA
USA-LA-95-ResidentialCare-95-ResidentialCare-104,Southern Pine Retirement Community/ The McLynn,5254,,3,,,,,,,,http://new.dhh.louisiana.gov/index.cfm/directory/detail/1004/catid/161,Kayla Carmack,225-664-9423,,(225) 667-3484,kcarmack@plantationmgt.com,,,,,Assisted Living,13603 Minton Lane,,Walker,LA,70785,USA
USA-LA-95-ResidentialCare-95-ResidentialCare-105,Schouest House,13945,,1,,,,,,,,http://new.dhh.louisiana.gov/index.cfm/directory/detail/1001/catid/161,Mrs. Peggy C. Stahls,504-884-1063,,504-780-7482,stahlsp@bellsouth.net,,,6,,Personal Care Home,7004 Schouest St.,,Metairie,LA,70003,USA
USA-LA-95-ResidentialCare-95-ResidentialCare-106,Serenity Senior Residences,13980,,3,,,,,,,,http://new.dhh.louisiana.gov/index.cfm/directory/detail/1002/catid/161,Mrs. Diane Bourgeois,(504) 495-5522,,(504) 302-9750,serenityres2@cox.net,,,,,Assisted Living,3949 Meadowdale St.,,Metairie,LA,70002,USA
USA-LA-95-ResidentialCare-95-ResidentialCare-107,"Serenity Senior Residence, LLC",2114,,,,,,,,,,http://new.dhh.louisiana.gov/index.cfm/directory/detail/4963/catid/161,Diane Bourgeois,504-481-4357 / 504-495-5522,,504-885-7728,serenityres2@cox.net,,,10,,Shelter Care Home,817 Aurora Avenue,,Metairie,LA,70005,USA
USA-LA-95-ResidentialCare-95-ResidentialCare-108,Savannah Grand of Bossier City,2107,,3,,,,,,,,http://new.dhh.louisiana.gov/index.cfm/directory/detail/930/catid/161,Mrs. Melissa White,318-549-1001,,(954) 691-1036,urubin@slm.net,,,,,Assisted Living,4770 Brandon Boulevard,,Bossier City,LA,71111,USA
USA-LA-95-ResidentialCare-95-ResidentialCare-109,Summerfield Retirement Community,14879,,3,,,,,,,,http://new.dhh.louisiana.gov/index.cfm/directory/detail/1015/catid/161,"Francine Kelly, LPN",985-646-4676,,985-646-4644,jill@lifeatsummerfield.com,,,,,Assisted Living,4104 DAUPHINE STREET,,SLIDELL,LA,70458,USA
USA-LA-95-ResidentialCare-95-ResidentialCare-110,Suites At Sugar Mill Point (The),9409,,2,,,,,,,,http://new.dhh.louisiana.gov/index.cfm/directory/detail/1014/catid/161,Shannon  Boudreaux,985-868-8400,,(985) 868-8475,shannon@sugarmillpoint.net ,,,40,,Shelter Care Home,220 Valhi Boulevard,,Houma,LA,70360,USA
USA-LA-95-ResidentialCare-95-ResidentialCare-111,Savannah Grand of West Monroe ,2105,,3,,,,,,,,http://new.dhh.louisiana.gov/index.cfm/directory/detail/1032/catid/161,Betty  Grice,318-397-2220,,318-397-4015,adp@selahgroupllc.com,,,,,Assisted Living,3702 Cypress Street,,West Monroe,LA,71291,USA
USA-LA-95-ResidentialCare-95-ResidentialCare-112,Stoney Brook,8316,,2,,,,,,,,http://new.dhh.louisiana.gov/index.cfm/directory/detail/1013/catid/161,Mrs. Connie C Culpepper,318-396-3130,,318-396-5405,stoneybrookmc@comcast.net,,,32,,Shelter Care Home,,,,,,USA
USA-LA-95-ResidentialCare-95-ResidentialCare-113,St. Joseph Manor,2224,,3,,,,,,,,http://new.dhh.louisiana.gov/index.cfm/directory/detail/1009/catid/161,Ms. Ann S Thibodaux,985-446-9050,,985-449-0047,Annt@stjosephmanor.org,,,,,Assisted Living,1201 Cardinal Drive,,Thibodaux,LA,70301,USA
USA-LA-95-ResidentialCare-95-ResidentialCare-114,Sunrise at Siegen,14438,,2,,,,,,,,http://new.dhh.louisiana.gov/index.cfm/directory/detail/1017/catid/161,"Thomas Patterson, Director",225-765-7538,,225-765-7539,siegen.ed@sunriseseniorliving.com,,,100,,Shelter Care Home,9351 SIEGEN LANE,,BATON ROUGE,LA,70810,USA
USA-LA-95-ResidentialCare-95-ResidentialCare-115,St. James Place Of Baton Rouge,4647,,3,,,,,,,,http://new.dhh.louisiana.gov/index.cfm/directory/detail/1008/catid/161,"Caroline Smith, Director",(225) 215-4500,,225-215-4561,,,,,,Assisted Living,333 Lee Drive,,Baton Rouge,LA,70808,USA
USA-LA-95-ResidentialCare-95-ResidentialCare-116,St. Francis Villa Assisted Living,5391,,3,,,,,,,,http://new.dhh.louisiana.gov/index.cfm/directory/detail/1007/catid/161,Rebecca Jeffries Hyman,504-738-1060,,504-738-9870,rhyman@stfrancisvilla.com,,,,,Assisted Living,10411 Jefferson Highway,,River Ridge,LA,70123,USA
USA-LA-95-ResidentialCare-95-ResidentialCare-117,Stonebridge Place,13429,,3,,,,,,,,http://new.dhh.louisiana.gov/index.cfm/directory/detail/1012/catid/161,Tammy  Guidry,337-527-4433,,337-527-9921,sbresdir@bellsouth.net,,,,,Assisted Living,1511 South Huntington Street,,Sulphur,LA,70663,USA
USA-LA-95-ResidentialCare-95-ResidentialCare-118,Summerfield Senior Living of Hammond,2203782979,,3,,,,,,,,http://new.dhh.louisiana.gov/index.cfm/directory/detail/8871/catid/161,"Ronald Duhe, Director",985-345-6300,,985-345-6394,rjduhe@gmail.com,,,,,Assisted Living,16170 E. Minnesota Park Road,,Hammond,Louisiana,70403,USA
USA-LA-95-ResidentialCare-95-ResidentialCare-119,The Claiborne At Thibodaux,2203782674,,3,,,,,,,,http://new.dhh.louisiana.gov/index.cfm/directory/detail/8365/catid/161,"Monah Folse, Director",985-387-8088,,(985) 492-9072,monah.folse@theclaiborne.com,,,,,Assisted Living,2495 Talbot Avenue,,Thibodaux,LA,70301,USA
USA-LA-95-ResidentialCare-95-ResidentialCare-120,The Chateaus At Montclaire,2203781600,,3,,,,,,,,http://new.dhh.louisiana.gov/index.cfm/directory/detail/7420/catid/161,David Abdehou,(318) 797-1114,,(318) 797-1158,Renee@montclair-park.com,,,,,Assisted Living,9200 East Kings Highway,,Shreveport,LA,71115,USA
USA-LA-95-ResidentialCare-95-ResidentialCare-121,The Pearl at Jamestown,2203782982,,3,,,,,,,,http://new.dhh.louisiana.gov/index.cfm/directory/detail/8873/catid/161,Brent Sellers,225-443-8090,,,,,,,,ARCP,14443 Perkins Rd.,,Baton Rouge,Louisiana,70810,USA
USA-LA-95-ResidentialCare-95-ResidentialCare-122,The Atrium Assisted Living,2115,,3,,,,,,,,http://new.dhh.louisiana.gov/index.cfm/directory/detail/921/catid/161,Brian Berrigan,504-454-6635,,504-454-6655,,,,,,Assisted Living,6555 Park Manor Drive,,Metairie,LA,70003,USA
USA-LA-95-ResidentialCare-95-ResidentialCare-123,The Blake at the Grove,2203783426,,,,,,,,,,http://new.dhh.louisiana.gov/index.cfm/directory/detail/12448/catid/161,Regina Hatcher - Executive Director,225-442-9721,,,,,,,,Assisted Living,10299 T Creekbend Drive,,Baton Rouge,LA,70836,USA
USA-LA-95-ResidentialCare-95-ResidentialCare-124,The Blake at Lafayette,2203782867,,,,,,,,,,http://new.dhh.louisiana.gov/index.cfm/directory/detail/8781/catid/161,"Susan Begnaud, Executive Director",337-993-8898,,,susan.begnaud@blakeliving.com,,,,,Assisted Living,400 Polly Lane,,Lafayette,LA,70508,USA
USA-LA-95-ResidentialCare-95-ResidentialCare-125,St. Michael's Assisted Living,2203783535,,1,,,,,,,,http://new.dhh.louisiana.gov/index.cfm/directory/detail/12533/catid/161,,504-432-4417,,504-365-7301,,,,8,,Personal Care Home,314 Transcontinental Drive,,Metairie,LA,70001,USA
USA-LA-95-ResidentialCare-95-ResidentialCare-126,Terrebonne House,2203781720,,3,,,,,,,,http://new.dhh.louisiana.gov/index.cfm/directory/detail/1021/catid/161,"Dana Newman, Director",985-580-0620,,985-223-4502,alclicense@enlivant.com,,,,,Assisted Living,1163 Museum Drive,,Houma,LA,70360,USA
USA-LA-95-ResidentialCare-95-ResidentialCare-127,Sunrise of Metairie,14242,,2,,,,,,,,http://new.dhh.louisiana.gov/index.cfm/directory/detail/1018/catid/161,Mrs. Iris L. Granat,504-889-9777,,504-889-9778,metairie.ed@sunriseseniorliving.com,,,97,,Shelter Care Home,3732 WEST ESPLANADE AVE.,,METAIRIE,LA,70002,USA
USA-LA-95-ResidentialCare-95-ResidentialCare-128,Sunrise Second Baton Rouge Assisted Living,13392,,3,,,,,,,,http://new.dhh.louisiana.gov/index.cfm/directory/detail/1019/catid/161,Daniel Seltzer,225-932-9400,,225-932-9409,,,,,,Assisted Living,8502 Jefferson Highway,,Baton Rouge,LA,70809,USA
USA-LA-95-ResidentialCare-95-ResidentialCare-129,Vista Shores,2119,,2,,,,,,,,http://new.dhh.louisiana.gov/index.cfm/directory/detail/6973/catid/161,"Courtney Bartholomew, Administrator",504-288-3737,,504-288-3730,courtney@vistashores.com,,,162,,Shelter Care,5958 Saint Bernard Avenue,,New Orleans,LA,70122,USA
USA-LA-95-ResidentialCare-95-ResidentialCare-130,"Village in the Oaks Apt., LLC",9108,,3,,,,,,,,http://new.dhh.louisiana.gov/index.cfm/directory/detail/1026/catid/161,Ms. Myriam Ruppel,985-871-0111,,985-875-0009,villagecov@aol.com,,,,,Assisted Living,75520 Highway 1081,,Covington,LA,70435,USA
USA-LA-95-ResidentialCare-95-ResidentialCare-131,Fidelis Care I,11625,,1,,,,,,,,http://new.dhh.louisiana.gov/index.cfm/directory/detail/950/catid/161,Veronica  Stiner,504-301-2123,,(504) 301-2127,rachelle@fideliscaregroup.com,,,8,,Personal Care Home,916 Martin Behrman Walk,,Metairie,LA,70005,USA
USA-LA-95-ResidentialCare-95-ResidentialCare-132,Volunteers of America Transitional Residence,14429,,,,,,,,,,http://new.dhh.louisiana.gov/index.cfm/directory/detail/1031/catid/161,Ms. Donna Capps,318-442-8026,,318-443-7367,Donna.Capps@voanorthla.org,,,6,,Personal Care Home,2089 Rainbow Drive,,Pineville,LA,71360,USA
USA-LA-95-ResidentialCare-95-ResidentialCare-133,Villa Maria Retirement Center,2197,,3,,,,,,,,http://new.dhh.louisiana.gov/index.cfm/directory/detail/1025/catid/161,Rebecca See,337-478-4780,,337-474-8822,Becky.see@lcdiocese.org,,,,,Assisted Living,3905 Kingston Place,,Lake Charles,LA,70605,USA
USA-LA-95-ResidentialCare-95-ResidentialCare-134,"Villa Care, Inc.",10688,,1,,,,,,,,http://new.dhh.louisiana.gov/index.cfm/directory/detail/1024/catid/161,Ms. Soncia Cain,225-293-4115,,225-293-4121,cains@optionsfoundation.com,,,8,,Residential Care,2624 Toulon Street,,Baton Rouge,LA,70816,USA
USA-LA-95-ResidentialCare-95-ResidentialCare-135,Tranquil Living,2203781790,,2,,,,,,,,http://new.dhh.louisiana.gov/index.cfm/directory/detail/7566/catid/161, Casie L Boudreaux,504-615-4665,,504-224-2785,brigette.gaudet@me.com,,,10,,Shelter Care,4500 Leo Street,,Marrero,LA,70072,USA
USA-LA-95-ResidentialCare-95-ResidentialCare-136,The Stiles Apartments,2120,,4,,,,,,,,http://new.dhh.louisiana.gov/index.cfm/directory/detail/6972/catid/161,Cheryl Foster,318-797-6810,,(318) 213-3539,cfoster@theglensystem.org,,,200,,Residential Care,403 East Flournoy Lucas Road,,Shreveport,LA,71115,USA
USA-LA-95-ResidentialCare-95-ResidentialCare-137,Transitional Living Center,2149,,2,,,,,,,,http://new.dhh.louisiana.gov/index.cfm/directory/detail/1011/catid/161,Casey Guidry,(985) 879-3966,,(985) 872-4473,mary@start_corp.org,,,8,,Shelter Care Home,137 New Orleans Boulevard,,Houma,LA,70360,USA
USA-LA-95-ResidentialCare-95-ResidentialCare-138,Wren Way Transitional Housing (Males),2203781701,,1,,,,,,,,http://new.dhh.louisiana.gov/index.cfm/directory/detail/1040/catid/161,Nicholas Richard,985-626-6538,,877-361-1631,info@namisttammany.org,,,6,,Personal Care Home,63040 Wren Way,,Mandeville,LA,70448,USA
USA-LA-95-ResidentialCare-95-ResidentialCare-139,Wren Way Transitional Housing  (Females),2203781699,,1,,,,,,,,http://new.dhh.louisiana.gov/index.cfm/directory/detail/1039/catid/161,Nicholas Richard,985-626-6538,,877-361-1631,info@namisttammany.org,,,6,,Personal Care Home,63046 Wren Way,,Mandeville,LA,70448,USA
USA-LA-95-ResidentialCare-95-ResidentialCare-140,Woody's Home for Veterans,2203782831,,1,,,,,,,,http://new.dhh.louisiana.gov/index.cfm/directory/detail/9302/catid/161,Kristal Hackworth,318-425-1928,,318-425-1828,woodyshome@bellsouth.net,,,8,,Residential Care,442 Jordan Street,,Shreveport,LA,71101,USA
USA-LA-95-ResidentialCare-95-ResidentialCare-141,Women's Community Rehabilitation Center (WCRC),2104,,2,,,,,,,,http://new.dhh.louisiana.gov/index.cfm/directory/detail/1036/catid/161,Ms. Kristi Bourgeois,225-336-0000,,(225) 336-0522,kbourgeois@upliftd.org,,,16,,shelter Care,855 St. Ferdinand Street,,Baton Rouge,LA,70802,USA
USA-LA-95-ResidentialCare-95-ResidentialCare-142,Windsor Senior Living Community (The),5733,,3,,,,,,,,http://new.dhh.louisiana.gov/index.cfm/directory/detail/1035/catid/161,April  Wagner,985-624-8040,,985-624-8822,awagnerwin@att.net,,,,,Assisted Living,1770 North Causeway Boulevard,,Mandeville,LA,70471,USA
USA-LA-95-ResidentialCare-95-ResidentialCare-143,Woody's Home for Veterans,2203782833,,1,,,,,,,,http://new.dhh.louisiana.gov/index.cfm/directory/detail/9303/catid/161,Kristal Hackworth,318-425-1928,,318-425-1828,woodyshome@bellsouth.net,,,8,,Residential Care,448 Jordon Street,,Shreveport,LA,71101,USA
USA-LA-95-ResidentialCare-95-ResidentialCare-144,"Westbank Lighthouse, LLC",220378110,,,,,,,,,,http://new.dhh.louisiana.gov/index.cfm/directory/detail/7161/catid/161,Sally Staiger,504-931-6048,,(504) 302-9550,sbstaiger@aol.com,,,10,,Shelter Care Home,1712 Holiday Drive,,New Orleans,LA,70114,USA
USA-LA-95-ResidentialCare-95-ResidentialCare-145,The Trace Senior Community,4383,,3,,,,,,,,http://new.dhh.louisiana.gov/index.cfm/directory/detail/1022/catid/161,Mr. Richard Totorico,985-249-7676,,985-892-6513,Richard.thetrace@gmail.com,,,,,Assisted Living,19432 Crawford Road,,Covington,LA,70433,USA
USA-LA-95-ResidentialCare-95-ResidentialCare-146,Trinity House,14368,,1,,,,,,,,http://new.dhh.louisiana.gov/index.cfm/directory/detail/1023/catid/161,Veronica  Magee,504-947-4100,,(504) 947-4103,vmagee@brotherhoodinc.org,,,6,,Personal Care Home,1422 Kerlerec Street,,New Orleans,LA,70116,USA
USA-LA-95-ResidentialCare-95-ResidentialCare-147,Ville St. Marie Senior Living Community,8191,,3,,,,,,,,http://new.dhh.louisiana.gov/index.cfm/directory/detail/1027/catid/161,DeAnna  Sanford,504-834-3164,,504-849-0608,VSMSeniorsalleman@att.net,,,,,Assisted Living,4112 Jefferson Hwy,,Jefferson,LA,70121,USA
USA-LA-95-ResidentialCare-95-ResidentialCare-148,"White Road Serenity Home, Inc.",14705,,2,,,,,,,,http://new.dhh.louisiana.gov/index.cfm/directory/detail/1033/catid/161,LaShae  James,225-271-4663,,(225) 271-8073,judy@fideliscaregroup.com,,,12,,Shelter Care Home,10359 White Road,,Denham Springs,LA,70726,USA
USA-LA-95-ResidentialCare-95-ResidentialCare-149,Williamsburg Senior Living Community,7135,,3,,,,,,,,http://new.dhh.louisiana.gov/index.cfm/directory/detail/1034/catid/161,Andrew  Yorgason,225-929-8917,,225-928-3284,barbarawmc@gmail.com,,,,,Assisted Living,5445 Government Street,,Baton Rouge,LA,70806,USA
