row_id,Facility Name,Address1,Address2,City,Zip,State,Administrator,Phone,Fax,License Number,License Exp.,Country,facility_type
USA-IN-86-IN-ResidentialCare(NF)-output-1,ALTENHEIM HEALTH & LIVING COMMUNITY,3525 E HANNA AVE,,INDIANAPOLIS,46237,IN,OMAR JOHNSON,(317)788-4261,(317)781-4512,16-000103-1,11/30/2017,US,Nursing Home
USA-IN-86-IN-ResidentialCare(NF)-output-2,AMBER MANOR CARE CENTER,801 E ILLINOIS ST,,PETERSBURG,47567,IN,CINDI LENTS,(812)354-3001,(812)354-3008,16-000252-1,10/31/2017,US,Nursing Home
USA-IN-86-IN-ResidentialCare(NF)-output-3,AMERICAN VILLAGE,2026 E 54TH ST,,INDIANAPOLIS,46220,IN,JENNIFER VOSS,(317)253-6950,(317)254-6681,17-000189-1,3/31/2018,US,Nursing Home
USA-IN-86-IN-ResidentialCare(NF)-output-4,APERION CARE DEMOTTE,10352 N 600 E  COUNTY LINE RD,,DEMOTTE,46310,IN,ROSA NAVARRO,(219)345-5211,(219)345-4949,17-000471-1,4/30/2018,US,Nursing Home
USA-IN-86-IN-ResidentialCare(NF)-output-5,ARBOR TRACE HEALTH & LIVING COMMUNITY,3701 HODGIN RD,,RICHMOND,47374,IN,ANDREW BUZZARD,(765)939-3701,(765)965-3895,16-000455-1,11/30/2017,US,Nursing Home
USA-IN-86-IN-ResidentialCare(NF)-output-6,ARLINGTON PLACE HEALTH CAMPUS,1635 N ARLINGTON AVE,,INDIANAPOLIS,46218,IN,NICOLE FIELDS,(317)353-6000,(317)353-6002,17-013005-1,12/31/2017,US,Nursing Home
USA-IN-86-IN-ResidentialCare(NF)-output-7,ASBURY TOWERS HEALTH CARE CENTER,102 W POPLAR ST,,GREENCASTLE,46135,IN,ANTHONY MUNDELL,(765)653-5148,(765)653-5587,17-001120-1,6/30/2018,US,Nursing Home
USA-IN-86-IN-ResidentialCare(NF)-output-8,ASHFORD PLACE HEALTH CAMPUS,2200 N RILEY HWY,,SHELBYVILLE,46176,IN,SHAUN STEELE,(317)398-8422,(317)398-8425,17-004268-1,4/30/2018,US,Nursing Home
USA-IN-86-IN-ResidentialCare(NF)-output-9,ASPEN PLACE HEALTH CAMPUS,2320 N  MONTGOMERY ROAD,,GREENSBURG,47240,IN,KATRINA KECK,(812)527-2222,(812)527-2074,16-012854-1,10/31/2017,US,Nursing Home
USA-IN-86-IN-ResidentialCare(NF)-output-10,ASPEN TRACE HEALTH & LIVING COMMUNITY,3154 SOUTH STATE ROAD 135,,GREENWOOD,46143,IN,MARK EMERSON,(317)535-3344,(317)736-3589,17-013185-1,12/31/2017,US,Nursing Home
USA-IN-86-IN-ResidentialCare(NF)-output-11,AVALON SPRINGS HEALTH CAMPUS,2400 SILHAVY ROAD,,VALPARAISO,46383,IN,CRYSTAL WRAY,(219)462-1778,(219)462-1779,16-012766-1,11/30/2017,US,Nursing Home
USA-IN-86-IN-ResidentialCare(NF)-output-12,AVON HEALTH & REHABILITATION CENTER,4171 FOREST POINTE CIRCLE,,AVON,46123,IN,COLLEEN MATTHEWS,(317)745-5184,(317)745-7537,16-000141-1,7/31/2017,US,Nursing Home
USA-IN-86-IN-ResidentialCare(NF)-output-13,"BARRINGTON OF CARMEL, THE",1335 S GUILFORD ROAD,,CARMEL,46032,IN,ANDREW MUSSER,(317)706-6760,(317)706-6761,17-013212-1,4/30/2018,US,Nursing Home
USA-IN-86-IN-ResidentialCare(NF)-output-14,BEECH GROVE MEADOWS,2002 ALBANY ST,,BEECH GROVE,46107,IN,JOHN P SEIB,(317)783-2911,(317)781-3774,17-000029-1,12/31/2017,US,Nursing Home
USA-IN-86-IN-ResidentialCare(NF)-output-15,BETHANY POINTE HEALTH CAMPUS,1707 BETHANY RD,,ANDERSON,46012,IN,KYLE LINN,(765)622-1211,(765)622-1214,16-011045-1,10/31/2017,US,Nursing Home
USA-IN-86-IN-ResidentialCare(NF)-output-16,BLAIR RIDGE HEALTH CAMPUS,269 MEADOWVIEW DR,,PERU,46970,IN,MICHAEL WRAY,(765)472-8049,(765)475-8895,17-012565-1,4/30/2018,US,Nursing Home
USA-IN-86-IN-ResidentialCare(NF)-output-17,BRIDGEPOINTE HEALTH CAMPUS,1900 COLLEGE AVE,,VINCENNES,47591,IN,BRIANA CRUTCHFIELD,(812)886-9870,(812)886-9871,17-003237-1,4/30/2018,US,Nursing Home
USA-IN-86-IN-ResidentialCare(NF)-output-18,BROOKSIDE VILLAGE INC,1111 CHURCH AVE,,JASPER,47546,IN,WENDY RENEE BROUGHTON,(812)634-7750,(812)634-7751,17-003240-1,5/31/2018,US,Nursing Home
USA-IN-86-IN-ResidentialCare(NF)-output-19,BYRON HEALTH CENTER,12101 LIMA RD,,FORT WAYNE,46818,IN,SARAH STARCHER,(260)637-3166,(260)637-6150,17-000255-1,5/31/2018,US,Nursing Home
USA-IN-86-IN-ResidentialCare(NF)-output-20,CEDAR CREEK HEALTH CAMPUS,18275 BURR STREET,,LOWELL,46356,IN,JUDY PLANTINGA,(219)696-6750,(219)696-6810,16-013144-1,11/30/2017,US,Nursing Home
USA-IN-86-IN-ResidentialCare(NF)-output-21,CEDARS THE,14409 SUNRISE CT,,LEO,46765,IN,CHAD FORTH,(260)627-2191,(260)627-2881,17-001215-1,5/31/2018,US,Nursing Home
USA-IN-86-IN-ResidentialCare(NF)-output-22,CHRISTIAN CARE RETIREMENT COMMUNITY,720 E DUSTMAN RD,,BLUFFTON,46714,IN,KAREN MARZEC,(260)565-3000,(260)565-3009,17-000576-1,6/30/2018,US,Nursing Home
USA-IN-86-IN-ResidentialCare(NF)-output-23,CLEARVISTA LAKE HEALTH CAMPUS,8405 CLEARVISTA PLACE,,INDIANAPOLIS,46256,IN,TAMARA TINSLEY,(317)578-7500,,17-013019-1,6/30/2018,US,Nursing Home
USA-IN-86-IN-ResidentialCare(NF)-output-24,COBBLESTONE CROSSINGS HEALTH CAMPUS,1850 E HOWARD WAYNE DR,,TERRE HAUTE,47802,IN,NICOLE GRIFFITH,(812)232-0406,(812)232-0433,16-000906-1,10/31/2017,US,Nursing Home
USA-IN-86-IN-ResidentialCare(NF)-output-25,COMMUNITY NORTHVIEW CARE CENTER,1235 W CROSS ST,,ANDERSON,46011,IN,JACK GERARD SCHAEFER,(765)298-2540,(765)298-4936,16-000562-1,11/30/2017,US,Nursing Home
USA-IN-86-IN-ResidentialCare(NF)-output-26,COMMUNITY PARKVIEW HEALTH AND LIVING,2300 PARKVIEW LN,,ELWOOD,46036,IN,DOUGLAS HURLBUT,(765)552-9884,(765)552-2670,16-000372-1,11/30/2017,US,Nursing Home
USA-IN-86-IN-ResidentialCare(NF)-output-27,COPPER TRACE HEALTH & LIVING COMMUNITY,1250 W 146TH STREET,,WESTFIELD,46074,IN,STEPHANIE INGRAM,(317)844-5050,(812)334-0853,17-013556-1,1/31/2018,US,Nursing Home
USA-IN-86-IN-ResidentialCare(NF)-output-28,COVERED BRIDGE HEALTH CAMPUS,1675 W TIPTON ST,,SEYMOUR,47274,IN,ANGELA SHORT,(812)523-6405,(812)523-6066,16-003342-1,10/31/2017,US,Nursing Home
USA-IN-86-IN-ResidentialCare(NF)-output-29,CREASY SPRINGS HEALTH CAMPUS,1750 S CREASY LN,,LAFAYETTE,47905,IN,JUSTIN RIFE,(765)447-6600,(765)447-6602,16-012285-1,11/30/2017,US,Nursing Home
USA-IN-86-IN-ResidentialCare(NF)-output-30,CROWN POINT CHRISTIAN VILLAGE,6685 E 117TH AVE,,CROWN POINT,46307,IN,AMY S MAURICE,(219)662-0642,(219)663-4260,17-001198-1,2/28/2018,US,Nursing Home
USA-IN-86-IN-ResidentialCare(NF)-output-31,CUMBERLAND POINTE HEALTH CAMPUS,1051 CUMBERLAND AVE,,WEST LAFAYETTE,47906,IN,GAIL BALDWIN,(765)463-2571,(765)463-9401,17-000547-1,4/30/2018,US,Nursing Home
USA-IN-86-IN-ResidentialCare(NF)-output-32,CUMBERLAND TRACE HEALTH & LIVING COMMUNITY,1925 REEVES ROAD,,PLAINFIELD,46168,IN,THOMAS MULLINS,(317)838-7070,(812)334-0853,16-013455-3,9/30/2017,US,Nursing Home
USA-IN-86-IN-ResidentialCare(NF)-output-33,DIVERSICARE OF PROVIDENCE,4915 CHARLESTOWN RD,,NEW ALBANY,47150,IN,AMY DENISE BROWN,(812)945-5221,(812)945-2614,17-001144-1,7/31/2018,US,Nursing Home
USA-IN-86-IN-ResidentialCare(NF)-output-34,DYER NURSING AND REHABILITATION CENTER,601 SHEFFIELD AVE,,DYER,46311,IN,NATHAN WOLF,(219)322-2273,(219)322-9212,17-000125-1,2/28/2018,US,Nursing Home
USA-IN-86-IN-ResidentialCare(NF)-output-35,EVANSVILLE PROTESTANT HOME INC,3701 WASHINGTON AVE,,EVANSVILLE,47714,IN,ANNA PERRY,(812)476-3360,(812)475-2062,17-001125-1,7/31/2018,US,Nursing Home
USA-IN-86-IN-ResidentialCare(NF)-output-36,EVERGREEN CROSSING AND THE LOFTS,5404 GEORGETOWN ROAD,,INDIANAPOLIS,46254,IN,MICHAEL OLSON,(317)291-5404,(309)829-5477,17-013280-1,12/31/2017,US,Nursing Home
USA-IN-86-IN-ResidentialCare(NF)-output-37,EXCEPTIONAL LIVING CENTER OF BRAZIL,501 S MURPHY AVE,,BRAZIL,47834,IN,LINDSEY WILSON,(812)446-2636,(812)448-2537,17-000514-1,5/31/2018,US,Nursing Home
USA-IN-86-IN-ResidentialCare(NF)-output-38,FLATROCK RIVER LODGE,904 E 11TH ST,,RUSHVILLE,46173,IN,DOUGLAS DAUDELIN,(765)932-2974,(765)938-1333,17-001126-1,7/31/2018,US,Nursing Home
USA-IN-86-IN-ResidentialCare(NF)-output-39,FOREST PARK HEALTH CAMPUS,2401 SOUTH L ST,,RICHMOND,47374,IN,GARY GRIFFIN,(765)966-5705,(765)966-5713,17-011387-1,4/30/2018,US,Nursing Home
USA-IN-86-IN-ResidentialCare(NF)-output-40,FORUM AT THE CROSSING,8505 WOODFIELD CROSSING BLVD,,INDIANAPOLIS,46240,IN,REBECCA STACY,(317)466-2020,(317)466-2024,17-000191-1,1/31/2018,US,Nursing Home
USA-IN-86-IN-ResidentialCare(NF)-output-41,FOUR SEASONS RETIREMENT CENTER,1901 TAYLOR RD,,COLUMBUS,47203,IN,REBECCA STENNER,(812)372-8481,(812)378-6184,17-000543-1,4/30/2018,US,Nursing Home
USA-IN-86-IN-ResidentialCare(NF)-output-42,FRANKLIN UNITED METHODIST COMMUNITY RES & COM CARE,1070 W JEFFERSON ST,,FRANKLIN,46131,IN,ANJELA BROWN,(317)736-7185,(317)736-1150,17-001127-1,3/31/2018,US,Nursing Home
USA-IN-86-IN-ResidentialCare(NF)-output-43,FRIENDS FELLOWSHIP COMMUNITY,2030 CHESTER BLVD,,RICHMOND,47374,IN,JEFFREY BAXTER,(765)962-6546,(765)962-9188,16-001128-1,7/31/2018,US,Nursing Home
USA-IN-86-IN-ResidentialCare(NF)-output-44,GLEN OAKS HEALTH CAMPUS,601 W CR 200 S,,NEW CASTLE,47362,IN,TAMMY NELSON,(765)529-5796,(765)529-7175,17-011187-1,4/30/2018,US,Nursing Home
USA-IN-86-IN-ResidentialCare(NF)-output-45,GOLDEN YEARS HOMESTEAD,3136 GOEGLEIN RD,,FORT WAYNE,46815,IN,STEVEN SCHAAF,(260)749-9655,(260)749-9656,17-000282-1,6/30/2018,US,Nursing Home
USA-IN-86-IN-ResidentialCare(NF)-output-46,GOOD SAMARITAN HOME HEALTH CENTER AND RESIDENTIAL,601 N BOEKE RD,,EVANSVILLE,47711,IN,MARK MCELWEE,(812)476-4912,(812)474-4442,16-000439-1,9/30/2017,US,Nursing Home
USA-IN-86-IN-ResidentialCare(NF)-output-47,GOOD SAMARITAN SOCIETY NORTHWOOD RETIREMENT COMM,2515 NEWTON ST,,JASPER,47547,IN,DIANE P ECKERT,(812)482-1722,(812)634-2793,16-000180-1,10/31/2017,US,Nursing Home
USA-IN-86-IN-ResidentialCare(NF)-output-48,GRACE VILLAGE HEALTH CARE FACILITY,337 GRACE VILLAGE DR,,WINONA LAKE,46590,IN,KEVIN MCKEEVER,(574)372-6100,(574)372-6558,17-000501-1,4/30/2018,US,Nursing Home
USA-IN-86-IN-ResidentialCare(NF)-output-49,GREENLEAF HEALTH CAMPUS,1201 E BEARDSLEY,,ELKHART,46514,IN,CHARLES SYER JR,(574)206-0086,(574)266-3673,17-002661-1,4/30/2018,US,Nursing Home
USA-IN-86-IN-ResidentialCare(NF)-output-50,GREENWOOD VILLAGE SOUTH,295 VILLAGE LANE,,GREENWOOD,46143,IN,PAMELA SEEGERS,(317)859-4444,(317)859-4423,16-000010-1,10/31/2017,US,Nursing Home
USA-IN-86-IN-ResidentialCare(NF)-output-51,HAMILTON GROVE,31869 CHICAGO TR,,NEW CARLISLE,46552,IN,DAVID THOMPSON,(574)654-2200,(574)654-2219,16-000427-1,10/31/2017,US,Nursing Home
USA-IN-86-IN-ResidentialCare(NF)-output-52,HAMILTON POINTE HEALTH AND REHAB,3800 ELI PLACE,,NEWBURGH,47630,IN,SHAWN CATES,(812)858-5300,,17-012966-1,7/31/2018,US,Nursing Home
USA-IN-86-IN-ResidentialCare(NF)-output-53,HAMILTON TRACE OF FISHERS,11851 CUMBERLAND RD,,FISHERS,46037,IN,BENJY GRZYCH,(317)813-4444,(317)334-0853,16-012644-1,11/30/2017,US,Nursing Home
USA-IN-86-IN-ResidentialCare(NF)-output-54,HAMPTON OAKS HEALTH CAMPUS,966 N WILSON RD,,SCOTTSBURG,47170,IN,BRANDY ROYALTY,(812)752-2694,(812)752-5713,17-004902-1,4/30/2018,US,Nursing Home
USA-IN-86-IN-ResidentialCare(NF)-output-55,HANOVER NURSING CENTER,410 W LAGRANGE RD,,HANOVER,47243,IN,CHIRAG PATEL,(812)866-2625,(812)866-5540,16-000115-1,10/31/2017,US,Nursing Home
USA-IN-86-IN-ResidentialCare(NF)-output-56,HARBOUR MANOR HEALTH & LIVING COMMUNITY,1667 SHERIDAN RD,,NOBLESVILLE,46060,IN,JUSTIN VOGT,(317)773-9205,(317)776-5950,17-000551-1,5/31/2018,US,Nursing Home
USA-IN-86-IN-ResidentialCare(NF)-output-57,HARRISON SPRINGS HEALTH CAMPUS,871 PACER DRIVE NW,,CORYDON,47112,IN,CARLA SIECKERT,(812)738-0317,(812)738-0318,17-013702-1,1/31/2018,US,Nursing Home
USA-IN-86-IN-ResidentialCare(NF)-output-58,HARRISON'S CROSSING HEALTH CAMPUS,395 8TH AVENUE,,TERRE HAUTE,47804,IN,STACY BLUE,(812)234-7111,(812)234-7333,17-013335-1,6/30/2018,US,Nursing Home
USA-IN-86-IN-ResidentialCare(NF)-output-59,HEARTHSTONE HEALTH CAMPUS,3043 NORTH LINTEL DRIVE,,BLOOMINGTON,47404,IN,JANET LEDLOW,(812)333-7622,(812)333-7653,16-012974-1,11/30/2017,US,Nursing Home
USA-IN-86-IN-ResidentialCare(NF)-output-60,HERITAGE HOUSE OF SHELBYVILLE,2309 S MILLER ST,,SHELBYVILLE,46176,IN,TWYLA SHAW,(317)398-9781,(317)398-6840,17-000009-1,12/31/2017,US,Nursing Home
USA-IN-86-IN-ResidentialCare(NF)-output-61,"HERITAGE OF FORT WAYNE, THE",5250 HERITAGE PARKWAY,,FORT WAYNE,46835,IN,LINDA SHUTTLEWORTH,(260)209-6279,(260)203-4087,17-012931-1,1/31/2018,US,Nursing Home
USA-IN-86-IN-ResidentialCare(NF)-output-62,HERITAGE OF HUNTINGTON,1180 W 500 N,,HUNTINGTON,46750,IN,JODIE STANLEY,(260)355-2750,(260)355-2759,17-002910-1,1/31/2018,US,Nursing Home
USA-IN-86-IN-ResidentialCare(NF)-output-63,HERITAGE PARK,2001 HOBSON RD,,FORT WAYNE,46805,IN,KIMILY HUGHES,(260)484-9557,(260)471-4495,17-000038-1,12/31/2017,US,Nursing Home
USA-IN-86-IN-ResidentialCare(NF)-output-64,HERITAGE POINTE,801 N HUNTINGTON AVE,,WARREN,46792,IN,BRENDA JOHNS,(260)375-2201,(260)375-3327,17-000542-1,1/31/2018,US,Nursing Home
USA-IN-86-IN-ResidentialCare(NF)-output-65,HOLY CROSS VILLAGE AT NOTRE DAME INC,PO BOX 303,,NOTRE DAME,46556,IN,JACK MUELLER,(574)287-1838,(574)289-7277,17-002668-1,6/30/2018,US,Nursing Home
USA-IN-86-IN-ResidentialCare(NF)-output-66,HOMEWOOD HEALTH CAMPUS,2494 N LEBANON ST,,LEBANON,46052,IN,JAMES PERRY DAUGHERTY,(765)482-2076,(765)482-2082,17-002703-1,4/30/2018,US,Nursing Home
USA-IN-86-IN-ResidentialCare(NF)-output-67,HOOSIER VILLAGE,9875 CHERRYLEAF DR,,INDIANAPOLIS,46268,IN,MINDY KANTZ,(317)873-3349,(317)873-8224,17-000548-1,8/31/2018,US,Nursing Home
USA-IN-86-IN-ResidentialCare(NF)-output-68,HUBBARD HILL ESTATES INC,28070 CR 24,,ELKHART,46517,IN,TERRY SCHOLLMEIER,(574)295-6260,(574)295-5852,17-001131-1,12/31/2017,US,Nursing Home
USA-IN-86-IN-ResidentialCare(NF)-output-69,LODGE OF THE WABASH,723 E RAMSEY RD,,VINCENNES,47591,IN,GREGORY MATHEIS,(812)882-8787,(812)886-5357,17-001138-1,7/31/2018,US,Nursing Home
USA-IN-86-IN-ResidentialCare(NF)-output-70,LUTHERAN COMMUNITY HOME,111 W CHURCH AVE,,SEYMOUR,47274,IN,KARYN FLEETWOOD,(812)522-5927,(812)522-2748,17-000347-1,6/30/2018,US,Nursing Home
USA-IN-86-IN-ResidentialCare(NF)-output-71,LUTHERAN LIFE VILLAGES,6701 S ANTHONY BLVD,,FORT WAYNE,46816,IN,JAMES SCHMIDT,(260)447-1591,(260)447-7369,17-000283-1,6/30/2018,US,Nursing Home
USA-IN-86-IN-ResidentialCare(NF)-output-72,MANOR CARE HEALTH SERVICES SUMMER TRACE,12999 N PENNSYLVANIA ST,,CARMEL,46032,IN,DAVID DUVALL,(317)848-2448,(317)848-1535,17-001149-1,12/31/2017,US,Nursing Home
USA-IN-86-IN-ResidentialCare(NF)-output-73,MARION REHABILITATION AND ASSISTED LIVING CENTER,614 WEST 14TH STREET,,MARION,46953,IN,DEE ANN EILAR EHRHARDT,(765)662-3701,(765)662-3703,17-012809-1,8/31/2018,US,Nursing Home
USA-IN-86-IN-ResidentialCare(NF)-output-74,MARQUETTE,8140 TOWNSHIP LINE RD,,INDIANAPOLIS,46260,IN,JEFFREY LYLE COX,(317)875-9700,(317)524-6576,17-000105-1,12/31/2017,US,Nursing Home
USA-IN-86-IN-ResidentialCare(NF)-output-75,MEADOW LAKES,200 MEADOW LAKE DR,,MOORESVILLE,46158,IN,BOB COMPTON,(317)834-1791,(317)834-1893,17-004831-1,1/31/2018,US,Nursing Home
USA-IN-86-IN-ResidentialCare(NF)-output-76,MILL POND HEALTH CAMPUS,1014 MILL POND LN,,GREENCASTLE,46135,IN,RACHEL FRYE,(765)653-4397,(765)653-4514,17-004550-1,4/30/2018,US,Nursing Home
USA-IN-86-IN-ResidentialCare(NF)-output-77,MILLER'S MERRY MANOR,635 OAKHILL AVE,,PLYMOUTH,46563,IN,ALAN GROSSNICKLE JR,(574)936-9981,(574)936-9307,17-000041-1,6/30/2018,US,Nursing Home
USA-IN-86-IN-ResidentialCare(NF)-output-78,MILLER'S MERRY MANOR,505 N BRADNER AVE,,MARION,46952,IN,JOHN VELASQUEZ,(765)662-3981,(765)662-3987,16-000089-1,9/30/2017,US,Nursing Home
USA-IN-86-IN-ResidentialCare(NF)-output-79,MILLERS MERRY MANOR,612 E 11TH ST,,RUSHVILLE,46173,IN,PENNY BUSALD,(765)932-4127,(765)932-3054,17-000018-1,2/28/2018,US,Nursing Home
USA-IN-86-IN-ResidentialCare(NF)-output-80,MILNER COMMUNITY HEALTH CARE,370 E MAIN ST,,ROSSVILLE,46065,IN,RICHARD JACKSON,(765)379-2112,(765)379-2942,16-000299-1,11/30/2017,US,Nursing Home
USA-IN-86-IN-ResidentialCare(NF)-output-81,"MILTON HOME, THE",206 E MARION ST,,SOUTH BEND,46601,IN,KEVIN BAKER,(574)233-0165,(574)237-9818,16-001141-2,11/30/2017,US,Nursing Home
USA-IN-86-IN-ResidentialCare(NF)-output-82,MORNING BREEZE RETIREMENT COMMUNITY AND HEALTHCARE,950 N LAKEVIEW DR,,GREENSBURG,47240,IN,HOLLY H WITKEMPER,(812)662-7778,(812)663-7500,17-011039-1,3/31/2018,US,Nursing Home
USA-IN-86-IN-ResidentialCare(NF)-output-83,MORRISON WOODS HEALTH CAMPUS,4100 N MORRISON RD,,MUNCIE,47304,IN,ANTHONY WILSON,(765)286-9066,(765)286-9033,17-011596-1,4/30/2018,US,Nursing Home
USA-IN-86-IN-ResidentialCare(NF)-output-84,MULBERRY HEALTH & REHABILITATION CENTER,502 W JACKSON ST,,MULBERRY,46058,IN,MARK WOLFSCHLAG,(765)296-2911,(765)296-9216,17-000470-1,12/31/2017,US,Nursing Home
USA-IN-86-IN-ResidentialCare(NF)-output-85,NEW ALBANY NURSING AND REHABILITATION CENTER,201 E ELM ST,,NEW ALBANY,47150,IN,BLOSSOM STEWART,(812)945-9517,(812)981-3303,17-001145-1,12/31/2017,US,Nursing Home
USA-IN-86-IN-ResidentialCare(NF)-output-86,NORTH RIDGE VILLAGE NURSING & REHAB CENTER,600 TRAIL RIDGE RD,,ALBION,46701,IN,MARK GEPHART,(260)636-1000,(260)636-7954,17-011296-1,4/30/2018,US,Nursing Home
USA-IN-86-IN-ResidentialCare(NF)-output-87,NORTH RIVER HEALTH CAMPUS,811 E BASELINE ROAD,,EVANSVILLE,47725,IN,VICKY HARPENAU,(812)867-7256,(812)867-7257,17-013703-2,6/30/2018,US,Nursing Home
USA-IN-86-IN-ResidentialCare(NF)-output-88,OAK GROVE CHRISTIAN RETIREMENT VILLAGE,221 W DIVISION ST,,DEMOTTE,46310,IN,ROSEMARY WEEKS,(219)987-7005,(219)987-7401,17-010823-1,12/31/2017,US,Nursing Home
USA-IN-86-IN-ResidentialCare(NF)-output-89,OAKWOOD HEALTH CAMPUS,1143 23RD ST,,TELL CITY,47586,IN,ANDREW RUSSELL,(812)547-2333,(812)547-2312,16-002512-1,10/31/2017,US,Nursing Home
USA-IN-86-IN-ResidentialCare(NF)-output-90,ORCHARD POINTE HEALTH CAMPUS,702 SAWYER ROAD,,KENDALLVILLE,46755,IN,JESSICA ANN SLONE,(260)347-3333,(260)347-3303,17-013704-1,1/31/2018,US,Nursing Home
USA-IN-86-IN-ResidentialCare(NF)-output-91,PARKER HEALTH CARE & REHABILITATION CENTER,359 RANDOLPH ST,,PARKER CITY,47368,IN,MELISSA HUSER,(765)468-8280,(765)468-8580,17-000419-1,3/31/2018,US,Nursing Home
USA-IN-86-IN-ResidentialCare(NF)-output-92,PARKVIEW HAVEN,101 CONSTITUTION DR,,FRANCESVILLE,47946,IN,GLENN WAGNER,(219)567-9149,(219)567-2646,17-000539-1,8/31/2018,US,Nursing Home
USA-IN-86-IN-ResidentialCare(NF)-output-93,PEABODY RETIREMENT COMMUNITY,400 W SEVENTH ST,,NORTH MANCHESTER,46962,IN,SARAH LOPEZ,(260)982-8616,(260)982-8657,16-000485-1,9/30/2017,US,Nursing Home
USA-IN-86-IN-ResidentialCare(NF)-output-94,PRAIRIE LAKES HEALTH CAMPUS,9730 PRAIRIE LAKES BLVD E,,NOBLESVILLE,46060,IN,MATTHEW HENSEL,(317)770-3644,(502)412-0407,16-012305-1,11/30/2017,US,Nursing Home
USA-IN-86-IN-ResidentialCare(NF)-output-95,PRESENCE SACRED HEART HOME,515 N MAIN ST,,AVILLA,46710,IN,,(260)897-2841,(260)897-3724,17-000404-2,8/31/2018,US,Nursing Home
USA-IN-86-IN-ResidentialCare(NF)-output-96,PROVIDENCE HEALTH CARE CENTER,1 SISTERS OF PROVIDENCE,,SAINT MARY OF THE WO,47876,IN,MANDY LYNCH,(812)535-1050,(812)535-4727,16-003624-1,11/30/2017,US,Nursing Home
USA-IN-86-IN-ResidentialCare(NF)-output-97,RAWLINS HOUSE HEALTH & LIVING COMMUNITY,300 J H WALKER DR,,PENDLETON,46064,IN,KEARY DYE,(765)778-7501,(765)778-0366,17-000248-1,5/31/2018,US,Nursing Home
USA-IN-86-IN-ResidentialCare(NF)-output-98,"RETREAT AT THE STRATFORD, THE",2460 GLEBE ST,,CARMEL,46032,IN,SCHEREE EADS,(317)733-9560,(317)733-4421,16-011151-1,9/30/2017,US,Nursing Home
USA-IN-86-IN-ResidentialCare(NF)-output-99,RIDGEWOOD HEALTH CAMPUS,181 CAMPUS DR,,LAWRENCEBURG,47025,IN,GWEN REVERMAN,(812)537-5700,(502)412-0407,16-012523-1,10/31/2017,US,Nursing Home
USA-IN-86-IN-ResidentialCare(NF)-output-100,RIPLEY CROSSING,1200 WHITLATCH WAY,,MILAN,47031,IN,TRINA JOHNSON,(812)654-2231,(812)654-2240,17-000420-1,3/31/2018,US,Nursing Home
USA-IN-86-IN-ResidentialCare(NF)-output-101,RIVER POINTE HEALTH CAMPUS,3001 GALAXY DR,,EVANSVILLE,47715,IN,ADAM L STRICKLAND,(812)475-2822,(812)475-9140,16-002280-1,10/31/2017,US,Nursing Home
USA-IN-86-IN-ResidentialCare(NF)-output-102,RIVER TERRACE HEALTH CAMPUS,120 PRESBYTERIAN AVE,,MADISON,47250,IN,BRITTAN MEFFORD,(812)265-0080,(812)265-0082,17-013535-1,7/31/2018,US,Nursing Home
USA-IN-86-IN-ResidentialCare(NF)-output-103,RIVER TERRACE HEALTH CARE CENTER,400 CAYLOR BLVD,,BLUFFTON,46714,IN,DAVID MCMAHAN,(260)824-8940,(260)824-8951,17-003575-1,1/31/2018,US,Nursing Home
USA-IN-86-IN-ResidentialCare(NF)-output-104,RIVEROAKS HEALTH CAMPUS,1244 VAIL ST,,PRINCETON,47670,IN,SHANNON GRAVES,(812)385-0794,(812)385-3612,16-004130-1,10/31/2017,US,Nursing Home
USA-IN-86-IN-ResidentialCare(NF)-output-105,SAINT ANNE HOME,1900 RANDALLIA DR,,FORT WAYNE,46805,IN,DAVID DEFFENBAUGH,(260)484-5555,(260)482-8929,17-000240-1,8/31/2018,US,Nursing Home
USA-IN-86-IN-ResidentialCare(NF)-output-106,SANCTUARY AT ST PAUL'S,3602 S IRONWOOD DR,,SOUTH BEND,46614,IN,SHARI BINKLEY,(574)284-9000,(574)291-0858,17-000104-2,7/31/2018,US,Nursing Home
USA-IN-86-IN-ResidentialCare(NF)-output-107,SILVER OAKS HEALTH CAMPUS,2011 CHAPA STREET,,COLUMBUS,47203,IN,DAVID ASHBAUGH,(812)373-0787,(812)373-0792,16-002955-1,10/31/2017,US,Nursing Home
USA-IN-86-IN-ResidentialCare(NF)-output-108,SOUTHFIELD VILLAGE,6450 MIAMI CIR,,SOUTH BEND,46614,IN,JOSEPH DORAN,(574)231-1000,(574)231-5566,16-002662-1,10/31/2017,US,Nursing Home
USA-IN-86-IN-ResidentialCare(NF)-output-109,SPRENGER HEALTH CARE OF MISHAWAKA,60257 BODNAR BLVD,,MISHAWAKA,46544,IN,KEVIN KAUFFMAN,(574)222-1234,(574)222-1235,17-013017-1,12/31/2017,US,Nursing Home
USA-IN-86-IN-ResidentialCare(NF)-output-110,SPRING MILL HEALTH CAMPUS,101 W 87TH AVE,,MERRILLVILLE,46410,IN,MUHAMMAD MIRZA,(219)756-0744,(219)756-0745,17-010739-2,6/30/2018,US,Nursing Home
USA-IN-86-IN-ResidentialCare(NF)-output-111,SPRINGHURST HEALTH CAMPUS,628 N MERIDIAN RD,,GREENFIELD,46140,IN,TRACI JEAN SCOTT,(317)462-7067,(317)462-7007,16-005954-1,10/31/2017,US,Nursing Home
USA-IN-86-IN-ResidentialCare(NF)-output-112,"SPRINGS AT LAFAYETTE, THE",2402 SOUTH STREET,,LAFAYETTE,47904,IN,FABIAN ARTHUR CALISTO,(765)446-9229,(765)446-9339,17-013499-1,6/30/2018,US,Nursing Home
USA-IN-86-IN-ResidentialCare(NF)-output-113,"SPRINGS OF MOORESVILLE, THE",302 NORTH JOHNSON ROAD,,MOORESVILLE,46158,IN,TODD NOWACKI,(317)831-9033,(317)831-9034,17-013694-1,4/30/2018,US,Nursing Home
USA-IN-86-IN-ResidentialCare(NF)-output-114,ST ANDREWS HEALTH CAMPUS,1400 LAMMERS PIKE,,BATESVILLE,47006,IN,JONI ZOZ,(812)934-5090,(812)934-6050,17-004671-1,4/30/2018,US,Nursing Home
USA-IN-86-IN-ResidentialCare(NF)-output-115,ST AUGUSTINE HOME FOR THE AGED,2345 W 86TH ST,,INDIANAPOLIS,46260,IN,CELESTINE MEADE,(317)415-5767,(317)415-6282,17-000389-1,4/30/2018,US,Nursing Home
USA-IN-86-IN-ResidentialCare(NF)-output-116,ST CHARLES HEALTH CAMPUS,3150 ST CHARLES ST,,JASPER,47546,IN,TODD MAKI,(812)634-6570,(812)634-7919,16-002628-1,10/31/2017,US,Nursing Home
USA-IN-86-IN-ResidentialCare(NF)-output-117,ST PAUL HERMITAGE LLC,501 N 17TH AVE,,BEECH GROVE,46107,IN,SR.  REBECCA FITTERER,(317)786-2261,(317)782-8309,17-000391-1,6/30/2018,US,Nursing Home
USA-IN-86-IN-ResidentialCare(NF)-output-118,STONEBRIDGE HEALTH CAMPUS,3100 SHAWNEE DR S,,BEDFORD,47421,IN,PAMELA COLE,(812)278-8195,(812)278-8196,16-003924-1,10/31/2017,US,Nursing Home
USA-IN-86-IN-ResidentialCare(NF)-output-119,STONECROFT HEALTH CAMPUS,363 SOUTH FIELDSTONE BLVD,,BLOOMINGTON,47403,IN,MAY EHRESMAN,(812)825-0551,(812)825-0552,17-013409-1,8/31/2018,US,Nursing Home
USA-IN-86-IN-ResidentialCare(NF)-output-120,SWISS VILLAGE,1350 W MAIN ST,,BERNE,46711,IN,ALMA AHMETOVIC,(260)589-3173,(260)589-8369,17-000280-1,12/31/2017,US,Nursing Home
USA-IN-86-IN-ResidentialCare(NF)-output-121,SYMPHONY OF CHESTERTON LLC,2775 VILLAGE POINT,,CHESTERTON,46304,IN,KIMBERLY URBAN,(219)304-6700,(219)728-6626,17-013688-1,5/31/2018,US,Nursing Home
USA-IN-86-IN-ResidentialCare(NF)-output-122,SYMPHONY OF CROWN POINT  LLC,1555 S MAIN STREET,,CROWN POINT,46307,IN,KATHLEEN ROBERTSON,(219)895-2153,,16-013452-2,9/30/2017,US,Nursing Home
USA-IN-86-IN-ResidentialCare(NF)-output-123,SYMPHONY OF DYER LLC,1532 CALUMET AVENUE,,DYER,46311,IN,JANET BREED,(219)515-4700,,16-013462-1,11/30/2017,US,Nursing Home
USA-IN-86-IN-ResidentialCare(NF)-output-124,TERRACE AT SOLARBRON THE,1701 MCDOWELL RD,,EVANSVILLE,47712,IN,RACHEL MOLT,(812)985-0055,(812)985-0088,17-010930-2,6/30/2018,US,Nursing Home
USA-IN-86-IN-ResidentialCare(NF)-output-125,THORNTON TERRACE HEALTH CAMPUS,188 THORNTON RD,,HANOVER,47243,IN,JILL SMEDLEY,(812)866-8396,(812)866-9936,16-004075-1,10/31/2017,US,Nursing Home
USA-IN-86-IN-ResidentialCare(NF)-output-126,TIMBERCREST CHURCH OF THE BRETHREN HOME,2201 EAST ST,,NORTH MANCHESTER,46962,IN,DAVID LAWRENZ,(260)982-2118,(260)982-4385,17-000448-1,6/30/2018,US,Nursing Home
USA-IN-86-IN-ResidentialCare(NF)-output-127,TOWNE HOUSE RETIREMENT COMMUNITY,2209 ST JOE CENTER RD,,FORT WAYNE,46825,IN,AMY SCHEFFER,(260)483-3116,(260)969-8072,16-000541-1,9/30/2017,US,Nursing Home
USA-IN-86-IN-ResidentialCare(NF)-output-128,UNIVERSITY PLACE HEALTH CENTER AND ASSISTED LIVING,1750 LINDBERG RD,,WEST LAFAYETTE,47906,IN,DAVID KINDER,(765)464-5600,(765)464-5605,17-003673-1,4/30/2018,US,Nursing Home
USA-IN-86-IN-ResidentialCare(NF)-output-129,VILLAGES AT HISTORIC SILVERCREST THE,1809 OLD VINCENNES ROAD,,NEW ALBANY,47150,IN,JESSICA JOHNSON,(812)542-6720,(812)542-6721,17-012619-1,12/31/2017,US,Nursing Home
USA-IN-86-IN-ResidentialCare(NF)-output-130,"VILLAGES AT OAK RIDGE, THE",1694 TROY ROAD,,WASHINGTON,47501,IN,JON HOWARD,(812)254-3800,(812)254-3801,17-013332-1,7/31/2018,US,Nursing Home
USA-IN-86-IN-ResidentialCare(NF)-output-131,VILLAS OF GUERIN WOODS,1002 SISTER BARBARA WAY,,GEORGETOWN,47122,IN,KELLY HAMPTON,(812)951-1878,(812)951-1659,17-011509-1,7/31/2018,US,Nursing Home
USA-IN-86-IN-ResidentialCare(NF)-output-132,WATERFORD CROSSING,1332 WATERFORD CIR,,GOSHEN,46526,IN,CHAD KNISLEY,(574)534-3920,(574)534-7548,17-011150-1,4/30/2018,US,Nursing Home
USA-IN-86-IN-ResidentialCare(NF)-output-133,WATERFORD PLACE HEALTH CAMPUS,800 ST JOSEPH DR,,KOKOMO,46901,IN,SHEILA HUSKEY,(765)236-1239,(765)236-1241,16-002667-1,10/31/2017,US,Nursing Home
USA-IN-86-IN-ResidentialCare(NF)-output-134,WELLBROOKE OF AVON,10307 EAST COUNTY ROAD 100 NORTH,,INDIANAPOLIS,46234,IN,DANIEL KERN,(317)273-2144,(515)875-4780,17-013085-1,6/30/2018,US,Nursing Home
USA-IN-86-IN-ResidentialCare(NF)-output-135,WELLBROOKE OF CARMEL,12315 PENNSYLVANIA STREET,,CARMEL,46032,IN,BRYCE FARNAN,(317)569-7200,(317)569-7201,17-013444-1,6/30/2018,US,Nursing Home
USA-IN-86-IN-ResidentialCare(NF)-output-136,WELLBROOKE OF CRAWFORDSVILLE,517 CONCORD ROAD,,CRAWFORDSVILLE,47933,IN,JENNIFER HURT,(765)362-9122,,17-013107-1,6/30/2018,US,Nursing Home
USA-IN-86-IN-ResidentialCare(NF)-output-137,WELLBROOKE OF KOKOMO,2200 SOUTH DIXON ROAD,,KOKOMO,46902,IN,AMORETTE RENWALD,(765)455-4443,(515)875-4780,17-013153-1,6/30/2018,US,Nursing Home
USA-IN-86-IN-ResidentialCare(NF)-output-138,WELLBROOKE OF SOUTH BEND,52565 STATE ROAD 933,,SOUTH BEND,46637,IN,CALEY NIXON,(574)247-7044,(515)875-4780,17-013302-1,6/30/2018,US,Nursing Home
USA-IN-86-IN-ResidentialCare(NF)-output-139,WELLBROOKE OF WABASH,20 JOHN KISSINGER DRIVE,,WABASH,46992,IN,MATTHEW CANTRELL,(260)274-0444,(260)274-0181,17-012993-1,6/30/2018,US,Nursing Home
USA-IN-86-IN-ResidentialCare(NF)-output-140,WELLBROOKE OF WESTFIELD,937 E 186TH STREET,,WESTFIELD,46074,IN,KRISTEN WELKER,(317)804-8044,(317)663-1077,17-012937-1,6/30/2018,US,Nursing Home
USA-IN-86-IN-ResidentialCare(NF)-output-141,WESLEY MANOR HEALTH CENTER,1555 N MAIN ST,,FRANKFORT,46041,IN,KEVIN WARD,(765)659-1811,(765)659-3918,17-001152-1,3/31/2018,US,Nursing Home
USA-IN-86-IN-ResidentialCare(NF)-output-142,WESLEYAN HEALTH CARE CENTER,729 W 35TH ST,,MARION,46953,IN,RICHARD ORRELL,(765)674-3371,(765)674-9050,17-000557-1,2/28/2018,US,Nursing Home
USA-IN-86-IN-ResidentialCare(NF)-output-143,WEST RIVER HEALTH CAMPUS,714 S EICKHOFF RD,,EVANSVILLE,47712,IN,CARLA BAKER,(812)985-9878,(812)985-9879,16-012448-1,10/31/2017,US,Nursing Home
USA-IN-86-IN-ResidentialCare(NF)-output-144,WESTMINSTER HEALTH CARE CENTER,2210 GREENTREE N,,CLARKSVILLE,47129,IN,FLOYD SHEWMAKER,(812)282-5911,(812)285-9830,17-000100-1,6/30/2018,US,Nursing Home
USA-IN-86-IN-ResidentialCare(NF)-output-145,WESTMINSTER VILLAGE - WEST LAFAYETTE,2741 N SALISBURY ST,,WEST LAFAYETTE,47906,IN,JORDAN MORROW,(765)463-7546,(765)463-6846,17-000093-1,2/28/2018,US,Nursing Home
USA-IN-86-IN-ResidentialCare(NF)-output-146,WESTMINSTER VILLAGE HEALTH & REHAB,1120 E DAVIS DR,,TERRE HAUTE,47802,IN,JACOB COLE ELLIOTT,(812)232-7533,(812)232-3304,17-000126-2,3/31/2018,US,Nursing Home
USA-IN-86-IN-ResidentialCare(NF)-output-147,WESTMINSTER VILLAGE MUNCIE INC,5801 W BETHEL AVE,,MUNCIE,47304,IN,DALE LINDLEY,(765)288-2155,(765)284-0336,17-000086-1,5/31/2018,US,Nursing Home
USA-IN-86-IN-ResidentialCare(NF)-output-148,WESTMINSTER VILLAGE NORTH,11050 PRESBYTERIAN DR,,INDIANAPOLIS,46236,IN,SUSAN WAYMIRE,(317)823-6841,(317)823-2177,17-000084-1,1/31/2018,US,Nursing Home
USA-IN-86-IN-ResidentialCare(NF)-output-149,WHITE OAK HEALTH CAMPUS,814 S 6TH ST,,MONTICELLO,47960,IN,JEREMY NORTH,(574)583-0324,(574)583-0325,16-012355-1,10/31/2017,US,Nursing Home
USA-IN-86-IN-ResidentialCare(NF)-output-150,WHITE RIVER LODGE,3710 KENNY SIMPSON LN,,BEDFORD,47421,IN,LEAH  DAWN STALEY- HILLENBURG,(812)275-7006,(812)275-0758,17-001153-1,7/31/2018,US,Nursing Home
USA-IN-86-IN-ResidentialCare(NF)-output-151,WOODBRIDGE HEALTH CAMPUS,602 WOODBRIDGE AVE,,LOGANSPORT,46947,IN,MICHELLE HINZE,(574)753-3223,(574)753-3226,17-003691-1,4/30/2018,US,Nursing Home
USA-IN-86-IN-ResidentialCare(NF)-output-152,WOODMONT HEALTH CAMPUS,1325 ROCKPORT RD,,BOONVILLE,47601,IN,ROBYN MEADOR,(812)897-4114,(812)897-4072,16-002724-1,10/31/2017,US,Nursing Home
