row_id,name,typeofcare,description,primary_phone,primary_phone_extension,secondary_phone,secondary_phone_extension,fax,email,website,low_rate,address_line_1,address_line_2,neighborhood,latitude,longitude,city,province,postal_code,country
Canada-MB-22-SeniorHousing-22-SeniorHousing-NORMALIZED-1,Chelsea Place 1 & 2,55+ Community,,(204) 452 0110,116,,,,,www.qualitymanagement.net,,130 Beliveau St,,Worthington,49.836647,-97.1068937,Winnipeg,MB,R2M 1S7,Canada
Canada-MB-22-SeniorHousing-22-SeniorHousing-NORMALIZED-2,Arden Hollows,55+ Community,,(204) 509 7806,,,,,,www.timbercreekfunds.com,,15 Arden Ave,,Pulberry,49.8350148,-97.1155217,Winnipeg,MB,R2M 2J8,Canada
Canada-MB-22-SeniorHousing-22-SeniorHousing-NORMALIZED-3,Arden Estates,55+ Community,,(204) 960 1344,,,,,,,,24 Arden Ave,,Pulberry,49.8340451,-97.1158031,Winnipeg,MB,R2M 2J9,Canada
Canada-MB-22-SeniorHousing-22-SeniorHousing-NORMALIZED-4,Appleton Estates II,55+ Community,,(204) 940 3483,,,,,135niakwa@edisonproperties.ca,www.edisonproperties.ca,,135 Niakwa Rd,,Alpine Place,49.8564265,-97.0973712,Winnipeg,MB,R2M 5K2,Canada
Canada-MB-22-SeniorHousing-22-SeniorHousing-NORMALIZED-5,St. VITAL Knights VILLA Phase 1,55+ Community,,(204) 982 2000,,,,,,,,537 St Anne's Rd,,Lavalee,49.8400032,-97.0919835,Winnipeg,MB,R2M 3E8,Canada
Canada-MB-22-SeniorHousing-22-SeniorHousing-NORMALIZED-6,Willow Centre,55+ Community,,(204) 632 5940,,,,,,,,61 Tyndall Ave,,Burrows - Keewatin,49.9353357,-97.1884169,Winnipeg,MB,R2X 2T4,Canada
Canada-MB-22-SeniorHousing-22-SeniorHousing-NORMALIZED-7,St Mary The Protectress Ukranian Orthodox Millenium VILLA INC.,55+ Community,,(204) 586 5816,,,,,,,,800 Burrows Ave,,Burrows Central,49.9223039,-97.1560876,Winnipeg,MB,R2X 3A9,Canada
Canada-MB-22-SeniorHousing-22-SeniorHousing-NORMALIZED-8,Chalet Louis Riel,55+ Community,,,,,,,,,,67 Richfield Ave,,Meadowood,49.8373822,-97.0900199,Winnipeg,MB,R2M 2R9,Canada
Canada-MB-22-SeniorHousing-22-SeniorHousing-NORMALIZED-9,Templeton Properties,55+ Community,,(204) 334 0420,,,,,,,,250 300 Templeton Ave,,Margaret Park,49.94683,-97.1133597,Winnipeg,MB,R2V 1S2,Canada
Canada-MB-22-SeniorHousing-22-SeniorHousing-NORMALIZED-10,St Benedict's Place,55+ Community,,,,,,,,www.stbens.ca,,225 Masters Ave,,,49.9945253,-97.0481238,Winnipeg,MB,R4A 2A1,Canada
Canada-MB-22-SeniorHousing-22-SeniorHousing-NORMALIZED-11,Shelard Manor,55+ Community,,(204) 633 0716,,,,,shelard@globegeneral.ca,,,200 Adsum Dr,,The Maples,49.9545755,-97.1637806,Winnipeg,MB,R2P 0W7,Canada
Canada-MB-22-SeniorHousing-22-SeniorHousing-NORMALIZED-12,Appleton Estates 1,55+ Community,,(204) 940 3482,,,,,133niawka@edisonproperties.ca,www.edisonproperties.ca,,133 Niakwa Rd,,Alpine Place,49.8560689,-97.0984528,Winnipeg,MB,R2M 5J5,Canada
Canada-MB-22-SeniorHousing-22-SeniorHousing-NORMALIZED-13,Rosh Pina Housing Co,55+ Community,,(204) 338 4671,,,,,,,,133 Matheson Ave,,Seven Oaks,49.9283829,-97.118396,Winnipeg,MB,R2W 5M7,Canada
Canada-MB-22-SeniorHousing-22-SeniorHousing-NORMALIZED-14,Riverbend Terrace,55+ Community,,(204) 942 2122,,,,,,www.broadstreet.ca,,2471 Main St,,Rivergrove,49.9561955,-97.0954353,Winnipeg,MB,R2V 2X6,Canada
Canada-MB-22-SeniorHousing-22-SeniorHousing-NORMALIZED-15,River Ridge Retirement Residence (assisted Living),55+ Community,,(204) 589 2273,,,,,,,,50 Ridgecrest Ave,,Rivergrove,49.9526947,-97.0931683,Winnipeg,MB,R2P 2X5,Canada
Canada-MB-22-SeniorHousing-22-SeniorHousing-NORMALIZED-16,The VILLAGIO,55+ Community,,(204) 956 5284,,,,,,,,1175 Leila Ave,,Leila North,49.9570138,-97.1558574,Winnipeg,MB,R2P 2Y1,Canada
Canada-MB-22-SeniorHousing-22-SeniorHousing-NORMALIZED-17,Wellington Arms,55+ Community,,,,,,,,www.rentcanada.com,,277 Wellington Cr,,Roslyn,49.8732375,-97.1538672,Winnipeg,MB,R3M 3V7,Canada
Canada-MB-22-SeniorHousing-22-SeniorHousing-NORMALIZED-18,VILLA Cabrini,55+ Community,,(204) 982 2000,,,,,,www.lifelease.ca,,433 River Ave,,River - Osborne,49.8799,-97.1452643,Winnipeg,MB,R3L 2V1,Canada
Canada-MB-22-SeniorHousing-22-SeniorHousing-NORMALIZED-19,Times Square Patio Apartments,55+ Community,,(204) 488 8463,,,,,,,,1061 1137 Taylor Ave,,Grant Park,49.8542255,-97.1652399,Winnipeg,MB,R3M 2K4,Canada
Canada-MB-22-SeniorHousing-22-SeniorHousing-NORMALIZED-20,The Boulton (assisted Living),55+ Community,,(204) 475 4500,,,,,lsawatzky@theboulton.ca,,,100 45 Boulton Bay,,Mathers,49.853022,-97.203924,Winnipeg,MB,R3N 2C3,Canada
Canada-MB-22-SeniorHousing-22-SeniorHousing-NORMALIZED-21,St John's Haven INC.,55+ Community,,(204) 284 2422,,,,,sjhaven@mymts.net,,,1015 Grant Ave,,Rockwood,49.861327,-97.160434,Winnipeg,MB,R3M 1Y3,Canada
Canada-MB-22-SeniorHousing-22-SeniorHousing-NORMALIZED-22,The Canoe Club (assisted Living),55+ Community,,(204) 231 5777,,,,,,,,40 Dunkirk Dr,,Kingston Crescent,49.8525181,-97.126176,Winnipeg,MB,R2M 5R4,Canada
Canada-MB-22-SeniorHousing-22-SeniorHousing-NORMALIZED-23,South Osborne Housing Co,55+ Community,,(204) 942 0991,,,,,,www.sam.mb.ca,,360 Osborne St,,Riverview,49.871864,-97.1395553,Winnipeg,MB,R3L 2V6,Canada
Canada-MB-22-SeniorHousing-22-SeniorHousing-NORMALIZED-24,Shalom Gardens Housing Co,55+ Community,,(204) 452 1924,,,,,,,,Ltd 360 Wilton St,,Rockwood,49.8604212,-97.1635742,Winnipeg,MB,R3M 3X6,Canada
Canada-MB-22-SeniorHousing-22-SeniorHousing-NORMALIZED-25,Riverview Towers,55+ Community,,(204) 452 0110,,,,,,www.rentcanada.com,,3 Donald Ave,,River - Osborne,49.8798016,-97.1372109,Winnipeg,MB,R3L 2P6,Canada
Canada-MB-22-SeniorHousing-22-SeniorHousing-NORMALIZED-26,Riverborne Seniors Place,55+ Community,,(204) 949 2880,,,,,,www.whrc.ca,,324 Stradbrook Ave,,River - Osborne,49.8791473,-97.1401355,Winnipeg,MB,R3L 0J6,Canada
Canada-MB-22-SeniorHousing-22-SeniorHousing-NORMALIZED-27,River Crescent Gardens,55+ Community,,(204) 452 4047,,,,,,www.globegeneral.ca,,595 River Ave,,Roslyn,49.8781293,-97.1524224,Winnipeg,MB,R3L 0E6,Canada
Canada-MB-22-SeniorHousing-22-SeniorHousing-NORMALIZED-28,Legion Crest Apartments,55+ Community,,,,,,,,,,819 Grant Ave,,Earl Grey,49.8637507,-97.1531887,Winnipeg,MB,R3M 1Y1,Canada
Canada-MB-22-SeniorHousing-22-SeniorHousing-NORMALIZED-29,Korean Canadian Housing Co,55+ Community,,(204) 982 2004,,,,,,,,160 River Ave,,River - Osborne,49.8826216,-97.1348675,Winnipeg,MB,R3L 0A9,Canada
Canada-MB-22-SeniorHousing-22-SeniorHousing-NORMALIZED-30,Harewood House,55+ Community,,(204) 284 4434,,,,,,,,605 River Ave,,Roslyn,49.8776418,-97.1520392,Winnipeg,MB,R3L 0E7,Canada
Canada-MB-22-SeniorHousing-22-SeniorHousing-NORMALIZED-31,Hampton House,55+ Community,,(204) 475 5169,,,,,,,,333 Wellington Cr,,Roslyn,49.873086,-97.1555769,Winnipeg,MB,R3M 0A1,Canada
Canada-MB-22-SeniorHousing-22-SeniorHousing-NORMALIZED-32,Grant Wilton,55+ Community,,(204) 417 9515,,,,,,,,1055 Grant Ave,,Rockwood,49.860599,-97.162607,Winnipeg,MB,R3M 1Y5,Canada
Canada-MB-22-SeniorHousing-22-SeniorHousing-NORMALIZED-33,General Grant,55+ Community,,(204) 284 1144,,,,,,,,1281 Grant Ave,,Rockwood,49.8569337,-97.173613,Winnipeg,MB,R3M 1Z6,Canada
Canada-MB-22-SeniorHousing-22-SeniorHousing-NORMALIZED-34,Fred Tipping Place,55+ Community,,(204) 945 8477,,,,,,,,601 Osborne St,,Lord Roberts,49.8646195,-97.1344161,Winnipeg,MB,R3L 2P9,Canada
Canada-MB-22-SeniorHousing-22-SeniorHousing-NORMALIZED-35,Fort Rouge Ecumenical Apartments INC.,55+ Community,,(204) 284 5801,,,,,,,,400 Stradbrook Ave,,River - Osborne,49.8782523,-97.1426891,Winnipeg,MB,R3L 2P8,Canada
Canada-MB-22-SeniorHousing-22-SeniorHousing-NORMALIZED-36,Canterbury House,55+ Community,,(204) 452 6481,,,,,,www.globegeneralagencies.ca,,270 Roslyn Rd,,Roslyn,49.8791579,-97.1533675,Winnipeg,MB,R3L 0H3,Canada
Canada-MB-22-SeniorHousing-22-SeniorHousing-NORMALIZED-37,Cambridge Gardens,55+ Community,,(204) 475 0232,,,,,,www.homebase.ca,,850 Cambridge St,,Grant Park,49.8534974,-97.1752883,Winnipeg,MB,R3M 3W8,Canada
Canada-MB-22-SeniorHousing-22-SeniorHousing-NORMALIZED-38,Bethel Place,55+ Community,,(204) 284 3762,,,,,bethelplace@shaw.ca,www.bethelplace.ca,,445 Stafford St,,Grant Park,49.860764,-97.156136,Winnipeg,MB,R3M 2V9,Canada
Canada-MB-22-SeniorHousing-22-SeniorHousing-NORMALIZED-39,64 Nassau St. N.,55+ Community,,(204) 982 2000,,,,,,,,64 Nassau St,,Roslyn,49.8789888,-97.1493619,Winnipeg,MB,R3L 2T2,Canada
Canada-MB-22-SeniorHousing-22-SeniorHousing-NORMALIZED-40,285 Pembina INC. Deaf Centre Manitoba,55+ Community,,(204) 284 0802,,,,,,,,285 Pembina Hwy,,Earl Grey,49.872385,-97.1443032,Winnipeg,MB,R3L 2E1,Canada
Canada-MB-22-SeniorHousing-22-SeniorHousing-NORMALIZED-41,Westwood Estates,55+ Community,,(204) 832 0981,,,,,,www.wredevelopment.ca,,429 Westwood Dr,,Kirkfield,49.8791252,-97.2929449,Winnipeg,MB,R3K 2B9,Canada
Canada-MB-22-SeniorHousing-22-SeniorHousing-NORMALIZED-42,VILLAGE Square,55+ Community,,(204) 837 8948,,,,,,,,505 Rouge Rd,,Westwood,49.8810398,-97.298248,Winnipeg,MB,R3K 1Y3,Canada
Canada-MB-22-SeniorHousing-22-SeniorHousing-NORMALIZED-43,VICTORIA Arms,55+ Community,,(204) 888 8490,,,,,,,,700 Setter St,,Heritage Park,49.8834731,-97.2814252,Winnipeg,MB,R2Y 0L5,Canada
Canada-MB-22-SeniorHousing-22-SeniorHousing-NORMALIZED-44,Towers Of Polo Park,55+ Community,,(204) 786 3376,,,,,,,,666 St James St,,Polo Park,49.8828703,-97.2020647,Winnipeg,MB,R3G 3J6,Canada
Canada-MB-22-SeniorHousing-22-SeniorHousing-NORMALIZED-45,The Westhaven (assisted Living),55+ Community,,(204) 831 6742,,,,,william.dubreuil@atriaretirement.ca,www.atriaretirement.ca,,3033 Portage Ave,,Sturgeon Creek,49.8809836,-97.2810466,Winnipeg,MB,R3K 2E3,Canada
Canada-MB-22-SeniorHousing-22-SeniorHousing-NORMALIZED-46,The New Mount Royal Apts,55+ Community,,(204) 918 1200,,,,,,,,2265 Portage Ave,,Silver Heights,49.8764054,-97.2444197,Winnipeg,MB,R3J 0M1,Canada
Canada-MB-22-SeniorHousing-22-SeniorHousing-NORMALIZED-47,Sturgeon Park House,55+ Community,,(204) 832 6776,,,,,,,,3063 Portage Ave,,Sturgeon Creek,49.8812652,-97.2816868,Winnipeg,MB,R3K 1Z2,Canada
Canada-MB-22-SeniorHousing-22-SeniorHousing-NORMALIZED-48,Sturgeon Creek 2 Retirement Residence (assisted Living),55+ Community,,,,,,,,www.allseniorscare.com,,707 Setter St,,Heritage Park,49.8833043,-97.2796675,Winnipeg,MB,R2Y 0A4,Canada
Canada-MB-22-SeniorHousing-22-SeniorHousing-NORMALIZED-49,Sturgeon Creek 1 Retirement Residence (assisted Living),55+ Community,,,,,,,,www.allseniorscare.com,,10 Hallonquist Dr,,Heritage Park,49.882291,-97.27968,Winnipeg,MB,R2Y 2M5,Canada
Canada-MB-22-SeniorHousing-22-SeniorHousing-NORMALIZED-50,St. James Kiwanis The Terrace ( Assisted Living),55+ Community,,,,,,,stjadmin@shaw.ca,www.stjameskiwanisvillage.ca,,90 Sinawik Bay,,Silver Heights,49.8832522,-97.2590072,Winnipeg,MB,R3J 2Z4,Canada
Canada-MB-22-SeniorHousing-22-SeniorHousing-NORMALIZED-51,St. James Kiwanis Courts East,55+ Community,,(204) 837 2305,,,,,stjadmin@shaw.ca,www.stjameskiwanisvillage.ca,,75 Sinawik Bay,,Silver Heights,49.8830283,-97.2581954,Winnipeg,MB,R3J 1Y3,Canada
Canada-MB-22-SeniorHousing-22-SeniorHousing-NORMALIZED-52,St James Legion Lodge,55+ Community,,,,,,,,www.sam.mb.ca,,2730 Ness Ave,,Booth,49.8866515,-97.2707718,Winnipeg,MB,R3J 1A7,Canada
Canada-MB-22-SeniorHousing-22-SeniorHousing-NORMALIZED-53,St James Kiwanis Villa,55+ Community,,(204) 837 2305,,,,,stjadmin@shaw.ca,www.stjameskiwanisvillage.ca,,155 Sinawik Bay,,Silver Heights,49.884415,-97.2596412,Winnipeg,MB,R3J 0H5,Canada
Canada-MB-22-SeniorHousing-22-SeniorHousing-NORMALIZED-54,St James Kiwanis Manor,55+ Community,,(204) 837 2305,,,,,stjadmin@shaw.ca,www.stjameskiwanisvillage.ca,,135 Sinawik Bay,,Silver Heights,49.8842992,-97.2583043,Winnipeg,MB,R3J 4A2,Canada
Canada-MB-22-SeniorHousing-22-SeniorHousing-NORMALIZED-55,St James Kiwanis Courts West,55+ Community,,(204) 837 2305,,,,,stjadmin@shaw.ca,www.stjameskiwanisvillage.ca,,101-122 & 167-188 Sinawik Bay,,,49.895136,-97.1383744,Winnipeg,MB,R3J 2Z3,Canada
Canada-MB-22-SeniorHousing-22-SeniorHousing-NORMALIZED-56,St James Kiwanis Lodge,55+ Community,,(204) 837 2305,,,,,stjadmin@shaw.ca,www.stjameskiwanisvillage.ca,,100 Sinawik Bay,,Silver Heights,49.8839847,-97.2589263,Winnipeg,MB,R3J 2Z4,Canada
Canada-MB-22-SeniorHousing-22-SeniorHousing-NORMALIZED-57,Pinewood Place,55+ Community,,(204) 832 4159,,,,,,www.globegeneral.ca,,2510 Portage Ave,,Birchwood,49.8746203,-97.2578408,Winnipeg,MB,R3J 0N9,Canada
Canada-MB-22-SeniorHousing-22-SeniorHousing-NORMALIZED-58,Westlands Housing Co,55+ Community,,(204) 982 2000,,,,,,www.lifelease.ca,,50 Oddy St,,Brooklands,49.920155,-97.2032717,Winnipeg,MB,R2R 0L2,Canada
Canada-MB-22-SeniorHousing-22-SeniorHousing-NORMALIZED-59,VILLA Heidelberg INC.,55+ Community,,(204) 942 7633,,,,,villaheidelberg@shaw.ca,,,33 Edmonton St,,Downtown,49.8844128,-97.142516,Winnipeg,MB,R3C 1P8,Canada
Canada-MB-22-SeniorHousing-22-SeniorHousing-NORMALIZED-60,Park Towers,55+ Community,,(204) 896 0216,,,,,,,,2300 Portage Ave,,Birchwood,49.8757192,-97.2468021,Winnipeg,MB,R3J 0M4,Canada
Canada-MB-22-SeniorHousing-22-SeniorHousing-NORMALIZED-61,Metropolitan Kiwanis Courts (assisted Living),55+ Community,,(204) 885 7700,,,,,shunter@kiwaniscourts.ca,,,2300 Ness Ave,,Silver Heights,49.8851229,-97.2586123,Winnipeg,MB,R3J 1A2,Canada
Canada-MB-22-SeniorHousing-22-SeniorHousing-NORMALIZED-62,Mandeville Towers,55+ Community,,(204) 889 9158,,,,,info@globegeneral.ca,,,2075 Portage Ave,,Deer Lodge,49.8774962,-97.2325883,Winnipeg,MB,R3J 0L1,Canada
Canada-MB-22-SeniorHousing-22-SeniorHousing-NORMALIZED-63,Hillsboro House,55+ Community,,(204) 786 3301,,,,,,,,616 Strathcona St,,Minto,49.88383,-97.192839,Winnipeg,MB,R3G 3E8,Canada
Canada-MB-22-SeniorHousing-22-SeniorHousing-NORMALIZED-64,Hamilton House,55+ Community,,(204) 942 0991,,,,,,,,475 Hamilton Ave,,Crestview,49.8917997,-97.3140999,Winnipeg,MB,R2Y 2G5,Canada
Canada-MB-22-SeniorHousing-22-SeniorHousing-NORMALIZED-65,David Estates,55+ Community,,(204) 837 5440,,,,,,www.wredevelopment.ca,,3563/3567 Portage Ave,,Crestview,49.8828915,-97.3081351,Winnipeg,MB,R3K 2E1,Canada
Canada-MB-22-SeniorHousing-22-SeniorHousing-NORMALIZED-66,Carillon Towers,55+ Community,,(204) 898 6973,,,,,,www.towersrealty.ca,,1790 Portage Ave,,Bruce Park,49.8785115,-97.2113594,Winnipeg,MB,R3J 0E9,Canada
Canada-MB-22-SeniorHousing-22-SeniorHousing-NORMALIZED-67,Birchwood Terrace,55+ Community,,(204) 837 6911,,,,,,www.rentcanada.com,,2440 Portage Ave,,Birchwood,49.8748769,-97.2549157,Winnipeg,MB,R3J 0N5,Canada
Canada-MB-22-SeniorHousing-22-SeniorHousing-NORMALIZED-68,Courts Of St. James,55+ Community,,,,,,,,,,2727 Portage Ave,,Booth,49.8786535,-97.2727714,Winnipeg,MB,R3J 0R2,Canada
Canada-MB-22-SeniorHousing-22-SeniorHousing-NORMALIZED-69,Billingsley Manor,55+ Community,,(204) 889 7012,,,,,,,,2515 Portage Ave,,Silver Heights,49.8753512,-97.2581661,Winnipeg,MB,R3J 0P2,Canada
Canada-MB-22-SeniorHousing-22-SeniorHousing-NORMALIZED-70,Quail Ridge Estates,55+ Community,,(204) 885 0769,,,,,,,,210 Quail Ridge Rd,,Heritage Park,49.9003,-97.279665,Winnipeg,MB,R2Y 2N1,Canada
Canada-MB-22-SeniorHousing-22-SeniorHousing-NORMALIZED-71,Ashbury Place,55+ Community,,(204) 832 5847,,,,,info@marwest.ca,,,299 Queen St,,King Edward,49.8827228,-97.2069772,Winnipeg,MB,R3J 3V5,Canada
Canada-MB-22-SeniorHousing-22-SeniorHousing-NORMALIZED-72,529 Country Club Blvd,55+ Community,,,,,,,,,,529 Country Club Blvd,,Kirkfield,49.8792352,-97.282364,Winnipeg,MB,R3K 1Z8,Canada
Canada-MB-22-SeniorHousing-22-SeniorHousing-NORMALIZED-73,455 Westwood Drive,55+ Community,,(204) 889 6073,,,,,westwood455@hotmail.com,,,455 Westwood Dr,,Kirkfield,49.8799408,-97.2928296,Winnipeg,MB,R3K 1W6,Canada
Canada-MB-22-SeniorHousing-22-SeniorHousing-NORMALIZED-74,2600/2610 Portage Ave,55+ Community,,(204) 832 3693,,,,,,www.rentcanada.com,,2600/2610 Portage Ave,,Birchwood,49.876428,-97.2676905,Winnipeg,MB,R3J 3R2,Canada
Canada-MB-22-SeniorHousing-22-SeniorHousing-NORMALIZED-75,22 Strauss Dr,55+ Community,,,,,,,,,,22 Struass Dr,,Booth,49.8877274,-97.2627724,Winnipeg,MB,R3J 3V2,Canada
Canada-MB-22-SeniorHousing-22-SeniorHousing-NORMALIZED-76,Willowlake Gardens,55+ Community,,(204) 253 9753,,,,,propertymgmt@ladcocompany.com,www.rentcanada.com,,321-133 Willowlake Cr,,Niakwa Place,49.8466086,-97.0840782,Winnipeg,MB,R2J 3E6,Canada
Canada-MB-22-SeniorHousing-22-SeniorHousing-NORMALIZED-77,Wickham Park,55+ Community,,(204) 254 7143,,,,,wickhamprk@ladcocompay.com,www.rentcanada.com,,100 Wickham Rd,,Maginot,49.8731769,-97.0832872,Winnipeg,MB,R2J 2L4,Canada
Canada-MB-22-SeniorHousing-22-SeniorHousing-NORMALIZED-78,VILLA Aulneau (assisted Living),55+ Community,,(204) 594 6300,,,,,glambert@despinscharities.ca,www.villaaulneau.ca,,601 Aulneau St,,Central St. Boniface,49.8903439,-97.1203657,Winnipeg,MB,R2H 2V5,Canada
Canada-MB-22-SeniorHousing-22-SeniorHousing-NORMALIZED-79,Residence Despins (assisted Living),55+ Community,,(204) 480 2900,,,,,afoidart@despinscharities.ca,www.resdespins.ca,,151 rue Despins,,Central St. Boniface,49.8872774,-97.1224956,Winnipeg,MB,R2H 0L7,Canada
Canada-MB-22-SeniorHousing-22-SeniorHousing-NORMALIZED-80,Place St. Boniface,55+ Community,,(204) 231 1050,,,,,,,,325 Enfield Cr,,Central St. Boniface,49.8825297,-97.1128377,Winnipeg,MB,R2H 1C3,Canada
Canada-MB-22-SeniorHousing-22-SeniorHousing-NORMALIZED-81,Place Rennes,55+ Community,,(204) 235 0568,,,,,,,,344 Enfield Cr,,Central St. Boniface,49.883259,-97.1126357,Winnipeg,MB,R2H 1C5,Canada
Canada-MB-22-SeniorHousing-22-SeniorHousing-NORMALIZED-82,Manoir De La Cathedrale Manor (assisted Living),55+ Community,,(204) 231 2277,,,,,rhonda@cathedralemanor.ca,www.calebgroup.ca,,321 rue de la Cathedrale,,Central St. Boniface,49.8917303,-97.1133883,Winnipeg,MB,R2H 0A3,Canada
Canada-MB-22-SeniorHousing-22-SeniorHousing-NORMALIZED-83,Maison Dorchester,55+ Community,,(204) 990 1253,,,,,,,,300 Marion St,,Norwood East,49.881634,-97.1138302,Winnipeg,MB,R2H 0T9,Canada
Canada-MB-22-SeniorHousing-22-SeniorHousing-NORMALIZED-84,Legion Towers,55+ Community,,,,,,,,,,270 Kenny St,,Norwood East,49.880324,-97.1199,Winnipeg,MB,R2H 2E5,Canada
Canada-MB-22-SeniorHousing-22-SeniorHousing-NORMALIZED-85,Laval Apts,55+ Community,,(204) 898 7264,,,,,,,,932 Archibald St,,Windsor Park,49.8703991,-97.0922895,Winnipeg,MB,R2J 0Z1,Canada
Canada-MB-22-SeniorHousing-22-SeniorHousing-NORMALIZED-86,Holy Cross Manor,55+ Community,,(204) 237 6177,,,,,,,,266 Enfield Cr,,Norwood East,49.8794619,-97.1124749,Winnipeg,MB,R2H 1B7,Canada
Canada-MB-22-SeniorHousing-22-SeniorHousing-NORMALIZED-87,VILLA Fel Rodriguez Housing Co,55+ Community,,(204) 982 2000,,,,,,,,442 William Ave,,West Alexander,49.9014827,-97.1476398,Winnipeg,MB,R3A 0J6,Canada
Canada-MB-22-SeniorHousing-22-SeniorHousing-NORMALIZED-88,Sunset House,55+ Community,,(204) 772 0508,,,,,,,,888 Arlington St,,Daniel Mcintyre,49.9040124,-97.1683959,Winnipeg,MB,R3E 2E4,Canada
Canada-MB-22-SeniorHousing-22-SeniorHousing-NORMALIZED-89,St Andrews Place,55+ Community,,(204) 942 0991,,,,,,www.sam.mb.ca,,425 Elgin Ave,,Centennial,49.9023055,-97.1453952,Winnipeg,MB,R3A 1P2,Canada
Canada-MB-22-SeniorHousing-22-SeniorHousing-NORMALIZED-90,Sek On Toi,55+ Community,,(204) 947 1705,,,,,,,,289 Pacific Ave,,Downtown,49.9020773,-97.1392126,Winnipeg,MB,R3B 3B7,Canada
Canada-MB-22-SeniorHousing-22-SeniorHousing-NORMALIZED-91,Roney Plaza,55+ Community,,(204) 944 8776,,,,,,,,10 Edmonton St,,Downtown,49.883842,-97.143008,Winnipeg,MB,R3C 1P7,Canada
Canada-MB-22-SeniorHousing-22-SeniorHousing-NORMALIZED-92,Rideau Towers,55+ Community,,(204) 947 9732,,,,,,www.crystalproperties.ca,,90 Garry St,,Downtown,49.887417,-97.1376091,Winnipeg,MB,R3C 4J4,Canada
Canada-MB-22-SeniorHousing-22-SeniorHousing-NORMALIZED-93,Place Promenade,55+ Community,,(204) 988 6880,,,,,,,,400 410 420 Webb Pl,,Downtown,49.89309,-97.1490612,Winnipeg,MB,R3B 3J3,Canada
Canada-MB-22-SeniorHousing-22-SeniorHousing-NORMALIZED-94,Pamela Apts,55+ Community,,(204) 416 5552,,,,,,,,761 Wolseley Ave,,Wolseley,49.880575,-97.163074,Winnipeg,MB,R3G 1C5,Canada
Canada-MB-22-SeniorHousing-22-SeniorHousing-NORMALIZED-95,McClure Place INC.,55+ Community,,,,,,,,www.sam.mb.ca,,533 Greenwood Pl,,Wolseley,49.883138,-97.179457,Winnipeg,MB,R3G 3M1,Canada
Canada-MB-22-SeniorHousing-22-SeniorHousing-NORMALIZED-96,Lions Place,55+ Community,,(204) 784 1273,,,,,,www.lhc.ca,,610 Portage Ave,,West Broadway,49.8885219,-97.1569508,Winnipeg,MB,R3C 0G5,Canada
Canada-MB-22-SeniorHousing-22-SeniorHousing-NORMALIZED-97,Lions Manor,55+ Community,,(204) 784 1239,,,,,,www.lhc.ca,,320 Sherbrook St,,St. Matthews,49.8889706,-97.1596464,Winnipeg,MB,R3B 2W6,Canada
Canada-MB-22-SeniorHousing-22-SeniorHousing-NORMALIZED-98,Le Chateau York,55+ Community,,(204) 942 7784,,,,,leasing@lechateauyork.com,,,134 Smith St,,Downtown,49.889346,-97.14009,Winnipeg,MB,R3C 3W2,Canada
Canada-MB-22-SeniorHousing-22-SeniorHousing-NORMALIZED-99,Lar Santa ISABEL,55+ Community,,(204) 982 2000,,,,,,,,857 Wall St,,Minto,49.8909604,-97.1820841,Winnipeg,MB,R3G 2T9,Canada
Canada-MB-22-SeniorHousing-22-SeniorHousing-NORMALIZED-100,Madison Memorial Lodge,55+ Community,,(204) 956 4344,,,,,,,,210 Evanson St,,Wolseley,49.8836193,-97.1708188,Winnipeg,MB,R3G 3K9,Canada
Canada-MB-22-SeniorHousing-22-SeniorHousing-NORMALIZED-101,Kirby Terrace,55+ Community,,(204) 942 2554,,,,,,,,393 Kennedy St,,Downtown,49.895494,-97.149948,Winnipeg,MB,R3B 3H2,Canada
Canada-MB-22-SeniorHousing-22-SeniorHousing-NORMALIZED-102,Keystone Senior Citizens Housing,55+ Community,,(204) 489 9510,,,,,,,,224 Colony St,,West Broadway,49.8874518,-97.1514548,Winnipeg,MB,R3C 3X9,Canada
Canada-MB-22-SeniorHousing-22-SeniorHousing-NORMALIZED-103,Kelly House,55+ Community,,(204) 956 1221,,,,,,,,15 Carlton St,,Downtown,49.8847287,-97.1412339,Winnipeg,MB,R3C 1N8,Canada
Canada-MB-22-SeniorHousing-22-SeniorHousing-NORMALIZED-104,Fort Garry Place I,55+ Community,,(204) 940 3478,,,,,55garry@edisonproperties.ca,www.edisonpropertis.ca,,55 Garry St,,Downtown,49.8865762,-97.1364334,Winnipeg,MB,R3C 4H4,Canada
Canada-MB-22-SeniorHousing-22-SeniorHousing-NORMALIZED-105,Fort Garry Place III,55+ Community,,(240) 940 3475,,,,,20fort@edisonproperties.ca,www.edisonproperties.ca,,20 Fort St,,Downtown,49.8869254,-97.1356759,Winnipeg,MB,R3C 4L3,Canada
Canada-MB-22-SeniorHousing-22-SeniorHousing-NORMALIZED-106,Ellice Place (assisted Living),55+ Community,,(204) 948 2328,,,,,Ellice.SHAL@gov.mb.ca,,,555 Ellice Ave,,Spence,49.8929989,-97.1564468,Winnipeg,MB,R3B 3C4,Canada
Canada-MB-22-SeniorHousing-22-SeniorHousing-NORMALIZED-107,Eastry House,55+ Community,,(204) 956 5548,,,,,,,,61 Edmonton St,,Downtown,49.885305,-97.142965,Winnipeg,MB,R3C 1P9,Canada
Canada-MB-22-SeniorHousing-22-SeniorHousing-NORMALIZED-108,Downtown Commons,55+ Community,,(204) 988 7678,,,,,c.wels@uwinnipeg.ca,,,320 Colony St,,Colony,49.8898214,-97.1515095,Winnipeg,MB,R3C 0S8,Canada
Canada-MB-22-SeniorHousing-22-SeniorHousing-NORMALIZED-109,Grenoble Manor,55+ Community,,(204) 257 5838,,,,,,,,415 St Jean Baptiste,,Central St. Boniface,49.8856016,-97.1144728,Winnipeg,MB,R2H 2X6,Canada
Canada-MB-22-SeniorHousing-22-SeniorHousing-NORMALIZED-110,Grandview Apts,55+ Community,,(204) 297 4527,,,,,,www.towersrealty.ca,,77 85 93 Eugenie St,,Norwood East,49.8797246,-97.1252832,Winnipeg,MB,R2H 0X6,Canada
Canada-MB-22-SeniorHousing-22-SeniorHousing-NORMALIZED-111,Foyer VINCENT INC.,55+ Community,,(204) 233 1925,,,,,foyer@mts.net,,,200 Horace St,,Norwood East,49.8804011,-97.1192105,Winnipeg,MB,R2H 0W5,Canada
Canada-MB-22-SeniorHousing-22-SeniorHousing-NORMALIZED-112,Eiffel Tower B,55+ Community,,(204) 231 2215,,,,,,www.globegeneral.ca,,261 Goulet St,,Central St. Boniface,49.882852,-97.116465,Winnipeg,MB,R2H 0S3,Canada
Canada-MB-22-SeniorHousing-22-SeniorHousing-NORMALIZED-113,Eiffel Tower A,55+ Community,,(204) 237 8013,,,,,,www.globegeneral.ca,,291 Goulet St,,Central St. Boniface,49.882906,-97.1149116,Winnipeg,MB,R2H 0S4,Canada
Canada-MB-22-SeniorHousing-22-SeniorHousing-NORMALIZED-114,Dawson Trail Apartments,55+ Community,,(204) 256 1011,,,,,,www.wredevelopment.ca,,5 25 35 45 & 55 Leveque St,,Windsor Park,49.8584053,-97.0520636,Winnipeg,MB,R2J 0T6,Canada
Canada-MB-22-SeniorHousing-22-SeniorHousing-NORMALIZED-115,Columbus Manor,55+ Community,,(204) 233 7080,,,,,,,,100 303 Goulet St,,Central St. Boniface,49.8829844,-97.1134886,Winnipeg,MB,R2H 3C4,Canada
Canada-MB-22-SeniorHousing-22-SeniorHousing-NORMALIZED-116,Colonial Courts,55+ Community,,(204) 233 7916,,,,,,,,1006 1024 Archibald St,,Windsor Park,49.8673839,-97.0909985,Winnipeg,MB,R2J 0Z1,Canada
Canada-MB-22-SeniorHousing-22-SeniorHousing-NORMALIZED-117,Chez Nous,55+ Community,,(204) 233 7761,,,,,,,,187 de la Cathedrale Ave,,Central St. Boniface,49.8899925,-97.1211566,Winnipeg,MB,R2H 3C6,Canada
Canada-MB-22-SeniorHousing-22-SeniorHousing-NORMALIZED-118,Chateau Guay,55+ Community,,(204) 940 3485,,,,,231goulet@edisonproperties.ca,www.edisonproperties.ca,,231 Goulet St,,Central St. Boniface,49.8827685,-97.1180664,Winnipeg,MB,R2H 0S1,Canada
Canada-MB-22-SeniorHousing-22-SeniorHousing-NORMALIZED-119,Catherine Place (assisted Living),55+ Community,,(204) 231 0999,,,,,info@catherineplace.com,www.catherineplace.com,,190 Raymond Pl,,Norwood East,49.8783794,-97.1178297,Winnipeg,MB,R2H 1C8,Canada
Canada-MB-22-SeniorHousing-22-SeniorHousing-NORMALIZED-120,Enfield Estates,55+ Community,,(204) 237 6682,,,,,,,,358 370 Enfield Cr,,Central St. Boniface,49.8839228,-97.1129869,Winnipeg,MB,R2H 1C7,Canada
Canada-MB-22-SeniorHousing-22-SeniorHousing-NORMALIZED-121,875 Elizabeth Rd,55+ Community,,,,,,,,,,875 Elizabeth Rd,,Maginot,49.8714308,-97.0815643,Winnipeg,MB,R2J 3K6,Canada
Canada-MB-22-SeniorHousing-22-SeniorHousing-NORMALIZED-122,101 Marion St,55+ Community,,(204) 945 4663,,,,,,,,101 Marion St,,Central St. Boniface,49.8816538,-97.124732,Winnipeg,MB,R2H 3C5,Canada
Canada-MB-22-SeniorHousing-22-SeniorHousing-NORMALIZED-123,Colony Creek,55+ Community,,(204) 775 3855,,,,,,www.sussexrealty.ca,,250 Colony St,,West Broadway,49.8880415,-97.1515137,Winnipeg,MB,R3C 3L8,Canada
Canada-MB-22-SeniorHousing-22-SeniorHousing-NORMALIZED-124,Chateau 100,55+ Community,,(204) 452 0110,,,,,,www.qualitymanagement.ca,,72 Donald St,,Downtown,49.8867492,-97.1401813,Winnipeg,MB,R3C 1L7,Canada
Canada-MB-22-SeniorHousing-22-SeniorHousing-NORMALIZED-125,Betelstadur Housing Co,55+ Community,,(204) 772 7164,,,,,betelstadur@shaw.ca,www.sam.mb.ca,,Ltd 1061 Sargent Ave,,Sargent Park,49.897529,-97.183653,Winnipeg,MB,R3E 3M6,Canada
Canada-MB-22-SeniorHousing-22-SeniorHousing-NORMALIZED-126,Colony Square,55+ Community,,(204) 515 6416,,,,,,www.timbercreekcommunities.com,,555 St Mary Ave,,Colony,49.8892875,-97.1523577,Winnipeg,MB,R3C 3X4,Canada
Canada-MB-22-SeniorHousing-22-SeniorHousing-NORMALIZED-127,Autumn House INC.,55+ Community,,(204) 772 5929,,,,,,,,100 790 Wellington Ave,,Daniel Mcintyre,49.9000975,-97.1680906,Winnipeg,MB,R3E 3K9,Canada
Canada-MB-22-SeniorHousing-22-SeniorHousing-NORMALIZED-128,Arms Of The Cross Housing INC.,55+ Community,,(204) 942 0991,,,,,,www.sam.mb.ca,,555 Burnell St,,Daniel Mcintyre,49.8939335,-97.1698883,Winnipeg,MB,R3G 2L7,Canada
Canada-MB-22-SeniorHousing-22-SeniorHousing-NORMALIZED-129,Baptist Mission Apts,55+ Community,,(204) 837 7118,,,,,,,,777 Sargent Ave,,Daniel Mcintyre,49.8970402,-97.1677087,Winnipeg,MB,R3E 0B6,Canada
Canada-MB-22-SeniorHousing-22-SeniorHousing-NORMALIZED-130,515 Elgin Ave,55+ Community,,,,,,,,,,515 Elgin Ave,,Centennial,49.90354,-97.149505,Winnipeg,MB,R3A 1N9,Canada
Canada-MB-22-SeniorHousing-22-SeniorHousing-NORMALIZED-131,"Arlingtonhaus, INC. (independent & Assisted Living)",55+ Community,,(204) 783 3752,,,,,kweihs@bethania.ca,,,880 Arlington St,,Daniel Mcintyre,49.9035644,-97.168499,Winnipeg,MB,R3E 3H2,Canada
Canada-MB-22-SeniorHousing-22-SeniorHousing-NORMALIZED-132,444 Kennedy St,55+ Community,,,,,,,,,,444 Kennedy St,,Downtown,49.896674,-97.151441,Winnipeg,MB,R3B 2N5,Canada
Canada-MB-22-SeniorHousing-22-SeniorHousing-NORMALIZED-133,470 Pacific Ave,55+ Community,,,,,,,,,,470 Pacific Ave,,Centennial,49.9041361,-97.1469148,Winnipeg,MB,R3A 1R6,Canada
Canada-MB-22-SeniorHousing-22-SeniorHousing-NORMALIZED-134,195 Young St,55+ Community,,(204) 945 1263,,,,,ute.mckee@gov.mb.ca,,,195 Young St,,West Broadway,49.8860023,-97.1551518,Winnipeg,MB,R3C 3S8,Canada
Canada-MB-22-SeniorHousing-22-SeniorHousing-NORMALIZED-135,385 Carlton St,55+ Community,,,,,,,,,,385 Carlton St,,Downtown,49.8959385,-97.1473468,Winnipeg,MB,R3B 3A1,Canada
Canada-MB-22-SeniorHousing-22-SeniorHousing-NORMALIZED-136,340 Princess St,55+ Community,,,,,,,,,,340 Princess St,,Logan - C.P.R.,49.9054896,-97.1377572,Winnipeg,MB,R3B 1M6,Canada
Canada-MB-22-SeniorHousing-22-SeniorHousing-NORMALIZED-137,Westminster Court,55+ Community,,(204) 275 5614,,,,,,,,2945 Pembina hwy,,Richmond West,49.7859849,-97.158268,Winnipeg,MB,R3T 3R1,Canada
Canada-MB-22-SeniorHousing-22-SeniorHousing-NORMALIZED-138,VIALOUX VILLAGE,55+ Community,,(204) 417 2528,,,,,,,,3420 Vialoux Dr,,Vialoux,49.8704454,-97.2579617,Winnipeg,MB,R3R 0A4,Canada
Canada-MB-22-SeniorHousing-22-SeniorHousing-NORMALIZED-139,The Wellington (assisted Living),55+ Community,,(204) 831 0788,,,,,thewellington@reveraliving.com,www.reveraliving.com,,3161 Grant Ave,,Varsity View,49.859363,-97.251533,Winnipeg,MB,R3R 3R1,Canada
Canada-MB-22-SeniorHousing-22-SeniorHousing-NORMALIZED-140,Swedish Canadian Home For Senior Citizens,55+ Community,,(204) 942 0991,,,,,,www.sam.mb.ca,,5419 Roblin Blvd,,Southboine,49.860089,-97.291603,Winnipeg,MB,R3R 0G8,Canada
Canada-MB-22-SeniorHousing-22-SeniorHousing-NORMALIZED-141,Portsmouth Retirement Residence (assisted Living),55+ Community,,(204) 284 5432,,,,,retirementinfo@reveraliving.com,www.reveraliving.com,,125 Portsmouth Blvd,,South Tuxedo,49.8526152,-97.2165075,Winnipeg,MB,R3P 2M3,Canada
Canada-MB-22-SeniorHousing-22-SeniorHousing-NORMALIZED-142,"Manitoba Eastern Star Chalet, INC.",55+ Community,,(204) 889 3687,,,,,chalet@oesmanitoba.ca,www.oesmanitoba.ca,,Box 13 525 Cathcart St,,,49.895136,-97.1383744,Winnipeg,MB,R3R 0S6,Canada
Canada-MB-22-SeniorHousing-22-SeniorHousing-NORMALIZED-143,Haven Two,55+ Community,,(204) 942 0991,,,,,,www.sam.mb.ca,,1 & 21 Boulton Bay,,,49.895136,-97.1383744,Winnipeg,MB,R3N 1Z5,Canada
Canada-MB-22-SeniorHousing-22-SeniorHousing-NORMALIZED-144,Charlesdale Gardens,55+ Community,,(204) 896 6705,,,,,,,,3201 Grant Ave,,Varsity View,49.8589766,-97.2542003,Winnipeg,MB,R3R 2A3,Canada
Canada-MB-22-SeniorHousing-22-SeniorHousing-NORMALIZED-145,Century Roblin / Century Place,55+ Community,,(204) 832 2404,,,,,,,,3500 Roblin Ave,,Varsity View,49.867784,-97.258591,Winnipeg,MB,R3R 0C8,Canada
Canada-MB-22-SeniorHousing-22-SeniorHousing-NORMALIZED-146,Bridgewater Heights,55+ Community,,(204) 505 5484,,,,,,www.broadstreet.ca,,225 North Town Rd,,Waverley West,49.7994613,-97.1923426,Winnipeg,MB,R3Y 0P6,Canada
Canada-MB-22-SeniorHousing-22-SeniorHousing-NORMALIZED-147,Bramble Estates,55+ Community,,(204) 837 2243,,,,,,,,3901 Grant Ave,,Varsity View,49.8595445,-97.2628064,Winnipeg,MB,R3R 2Z4,Canada
Canada-MB-22-SeniorHousing-22-SeniorHousing-NORMALIZED-148,Boulton Estates,55+ Community,,(204) 489 1098,,,,,info@marwest.ca,,,690 Kenaston Blvd,,Mathers,49.8530828,-97.2059566,Winnipeg,MB,R3N 1Z3,Canada
Canada-MB-22-SeniorHousing-22-SeniorHousing-NORMALIZED-149,Columbus Courts INC.,55+ Community,,(204) 982 2000,,,,,brenda@lifelease.ca,,,253 Edgeland Blvd,,Edgeland,49.867647,-97.210634,Winnipeg,MB,R3P 0S1,Canada
Canada-MB-22-SeniorHousing-22-SeniorHousing-NORMALIZED-150,Assiniboine Links (assisted Living),55+ Community,,(204) 897 6854,,,,,assiniboinelinks@shaw.ca,,,4025 Roblin Blvd,,Ridgedale,49.8678743,-97.2675514,Winnipeg,MB,R3R 3V5,Canada
Canada-MB-22-SeniorHousing-22-SeniorHousing-NORMALIZED-151,VILLA Nova Senior Home,55+ Community,,(204) 489 8648,,,,,jnasuti@shaw.ca,,,1035 Wilkes Ave,,Brockville,49.8476849,-97.1912047,Winnipeg,MB,R3P 1T1,Canada
Canada-MB-22-SeniorHousing-22-SeniorHousing-NORMALIZED-152,The Waverley (assisted Living),55+ Community,,(204) 487 9600,,,,,thewaverley@reveraliving.com,www.reveraliving.com,,857 Wilkes Ave,,Brockville,49.8482311,-97.1806203,Winnipeg,MB,R3P 2M2,Canada
Canada-MB-22-SeniorHousing-22-SeniorHousing-NORMALIZED-153,Shaftesbury Park Retirement Residence (assisted Living),55+ Community,,(204) 885 7272,,,,,,www.allseniorscare.com,,905 Shaftesbury Blvd,,South Tuxedo,49.846204,-97.230024,Winnipeg,MB,R3P 0Y3,Canada
Canada-MB-22-SeniorHousing-22-SeniorHousing-NORMALIZED-154,The Parkway II (assisted Living),55+ Community,,(204) 487 8500,,,,,reception@theparkway.ca,,,95 Paget St,,Brockville,49.8433092,-97.194053,Winnipeg,MB,R3P 1E8,Canada
Canada-MB-22-SeniorHousing-22-SeniorHousing-NORMALIZED-155,The Parkway II,55+ Community,,(204) 487 8500,,,,,reception@theparkway.ca,,,95 Paget St,,Brockville,49.8433092,-97.194053,Winnipeg,MB,R3P 1E8,Canada
Canada-MB-22-SeniorHousing-22-SeniorHousing-NORMALIZED-156,Summerland Apartments,55+ Community,,(204) 269 7677,,,,,summerland2@yahoo.ca,www.wredevelopment.ca,,77 University Cr,,Montcalm,49.8164307,-97.14947,Winnipeg,MB,R3T 3N8,Canada
Canada-MB-22-SeniorHousing-22-SeniorHousing-NORMALIZED-157,Sterling House (assisted Living),55+ Community,,(204) 489 4745,,,,,,www.homesteadmanitoba.ca,,909 Wilkes Ave,,Brockville,49.8475707,-97.1852935,Winnipeg,MB,R3P 2S5,Canada
Canada-MB-22-SeniorHousing-22-SeniorHousing-NORMALIZED-158,Southview Plaza,55+ Community,,(204) 269 8078,,,,,,,,2080 Pembina hwy,,Montcalm,49.8153107,-97.150537,Winnipeg,MB,R3T 2G9,Canada
Canada-MB-22-SeniorHousing-22-SeniorHousing-NORMALIZED-159,The Parkway (assisted Living),55+ Community,,(204) 487 8500,,,,,,www.theparkway.ca,,85 Paget St,,Brockville,49.84369,-97.193331,Winnipeg,MB,R3P 0Y8,Canada
Canada-MB-22-SeniorHousing-22-SeniorHousing-NORMALIZED-160,Silverview Estates,55+ Community,,(204) 275 5644,,,,,,,,2141 Pembina Hwy,,Montcalm,49.8130224,-97.1522962,Winnipeg,MB,R3T 5S9,Canada
Canada-MB-22-SeniorHousing-22-SeniorHousing-NORMALIZED-161,Riverwood Square (the Landing,55+ Community,,(204) 275 7632,,,,,lsherrin@riverwoodsquare.com,www.riverwoodsquare.com,,Assisted living 1778 Pembina Hwy,,Pembina Strip,49.8256662,-97.1520582,Winnipeg,MB,R3T 1R2,Canada
Canada-MB-22-SeniorHousing-22-SeniorHousing-NORMALIZED-162,Richmond VILLAGE,55+ Community,,(204) 269 1649,,,,,,www.rentcanada.com,,106 160 Ulster St,,Fort Richmond,49.7943486,-97.1518507,Winnipeg,MB,R3T 4W3,Canada
Canada-MB-22-SeniorHousing-22-SeniorHousing-NORMALIZED-163,Rembrandt Gardens,55+ Community,,(204) 275 3289,,,,,,,,2393 & 2395 Pembina Hwy,,Montcalm,49.8049246,-97.1569082,Winnipeg,MB,R3T 2H4,Canada
Canada-MB-22-SeniorHousing-22-SeniorHousing-NORMALIZED-164,Richmond Gardens,55+ Community,,(204) 261 8145,,,,,gwsc@shaw.ca,,,2900 Pembina Hwy,,Fort Richmond,49.786678,-97.156436,Winnipeg,MB,R3T 3Z3,Canada
Canada-MB-22-SeniorHousing-22-SeniorHousing-NORMALIZED-165,Lindenwood Terrace (assisted Living),55+ Community,,(204) 489 2112,,,,,ltadmin@lindenwood.ca,www.lindenwood.ca,,100 475 Lindenwood Dr,,Linden Woods,49.8277245,-97.2002722,Winnipeg,MB,R3P 2P3,Canada
Canada-MB-22-SeniorHousing-22-SeniorHousing-NORMALIZED-166,Fort Garry Rotary VILLA,55+ Community,,,,,,,,,,528 Hudson St,,Maybank,49.8290435,-97.1539524,Winnipeg,MB,R3T 4E3,Canada
Canada-MB-22-SeniorHousing-22-SeniorHousing-NORMALIZED-167,Lindenwood Manor (assisted Living),55+ Community,,(204) 475 9990,,,,,ltadmin@lindenwood.ca,www.lindenwood.ca,,100 475 Lindenwood Dr,,Linden Woods,49.8277245,-97.2002722,Winnipeg,MB,R3P 2P3,Canada
Canada-MB-22-SeniorHousing-22-SeniorHousing-NORMALIZED-168,Fort Garry Plaza,55+ Community,,(204) 475 6412,,,,,kiwanis@mts.net,,,230 970 Point Rd,,Point Road,49.847698,-97.1513839,Winnipeg,MB,R3T 1E1,Canada
Canada-MB-22-SeniorHousing-22-SeniorHousing-NORMALIZED-169,Delta Manor,55+ Community,,(204) 940 3480,,,,,100adamar@edisonproperties.ca,www.edisonproperties.ca,,100 Adamar Rd,,Pembina Strip,49.8250457,-97.150074,Winnipeg,MB,R3T 3X6,Canada
Canada-MB-22-SeniorHousing-22-SeniorHousing-NORMALIZED-170,Chancellor Gate,55+ Community,,(204) 415 5712,,,,,,www.karmaproperties.ca,,100 919 Chancellor Dr,,Montcalm,49.8163089,-97.153917,Winnipeg,MB,R3T 6B5,Canada
Canada-MB-22-SeniorHousing-22-SeniorHousing-NORMALIZED-171,Cooperative Chalet St. Norbert Ltd.,55+ Community,,(204) 275 0901,,,,,chaletstnorbert@shawbiz.ca,,,80 St Pierre St,,St. Norbert,49.764214,-97.143096,Winnipeg,MB,R3V 1J8,Canada
Canada-MB-22-SeniorHousing-22-SeniorHousing-NORMALIZED-172,Baylor Place,55+ Community,,(204) 269 5643,,,,,,www.rentcanada.com,,110 Baylor Pl,,Fort Richmond,49.7852181,-97.1528416,Winnipeg,MB,R3T 3K1,Canada
Canada-MB-22-SeniorHousing-22-SeniorHousing-NORMALIZED-173,Arizona Plaza,55+ Community,,(204) 275 0884,,,,,,www.wredevelopment.ca,,1650 Pembina Hwy,,Crescent Park,49.8299501,-97.1509218,Winnipeg,MB,R3T 2G3,Canada
Canada-MB-22-SeniorHousing-22-SeniorHousing-NORMALIZED-174,Adamar  Manor,55+ Community,,(204) 940 3481,,,,,110adamar@edisonproperties.ca,www.edistonproperties.ca,,110 Adamar Rd,,Pembina Strip,49.8243193,-97.1499107,Winnipeg,MB,R3T 3M3,Canada
Canada-MB-22-SeniorHousing-22-SeniorHousing-NORMALIZED-175,Olympic Towers,55+ Community,,(204) 898 7165,,,,,,,,480 Charles St,,St. John's,49.9231199,-97.1291802,Winnipeg,MB,R2W 4B9,Canada
Canada-MB-22-SeniorHousing-22-SeniorHousing-NORMALIZED-176,Park Royal Apts.,55+ Community,,(204) 336 0098,,,,,,,,1050 McGregor St,,Margaret Park,49.9470506,-97.1261433,Winnipeg,MB,R2V 2J3,Canada
Canada-MB-22-SeniorHousing-22-SeniorHousing-NORMALIZED-177,Northwood Oaks,55+ Community,,(204) 633 2708,,,,,,www.globegeneral.ca,,1452 Jefferson Ave,,The Maples,49.9563003,-97.1727731,Winnipeg,MB,R2P 0Z2,Canada
Canada-MB-22-SeniorHousing-22-SeniorHousing-NORMALIZED-178,Monash Manor INC.,55+ Community,,(204) 942 0991,,,,,,www.sam.mb.ca,,865 Sinclair St,,Garden City,49.9416152,-97.1418638,Winnipeg,MB,R2V 3H3,Canada
Canada-MB-22-SeniorHousing-22-SeniorHousing-NORMALIZED-179,Luther Home,55+ Community,,(204) 338 4641,,,,,rhardie@lutherhome.mb.ca,www.lutherhome.com,,1084 Powers St,,Jefferson,49.944717,-97.122287,Winnipeg,MB,R2V 2G8,Canada
Canada-MB-22-SeniorHousing-22-SeniorHousing-NORMALIZED-180,Luther Home,55+ Community,,(204) 336 5391,,,,,rhardie@lutherhome.mb.ca,www.lutherhome.com,,1080 Powers St,,Jefferson,49.9443753,-97.1219321,Winnipeg,MB,R2V 2G8,Canada
Canada-MB-22-SeniorHousing-22-SeniorHousing-NORMALIZED-181,Leila Square,55+ Community,,(204) 633 2085,,,,,,,,207 211 215 Watson St,,Leila - McPhillips Triangle,49.9545036,-97.1524239,Winnipeg,MB,R2P 2E1,Canada
Canada-MB-22-SeniorHousing-22-SeniorHousing-NORMALIZED-182,H.s.b.a. Gardens,55+ Community,,(204) 338 4671,,,,,,,,1001 Sinclair St,,Garden City,49.9468272,-97.1366163,Winnipeg,MB,R2V 3E7,Canada
Canada-MB-22-SeniorHousing-22-SeniorHousing-NORMALIZED-183,Garden Towers,55+ Community,,(204) 339 4687,,,,,,,,611 Jefferson Ave,,Garden City,49.940892,-97.140561,Winnipeg,MB,R2V 0P4,Canada
Canada-MB-22-SeniorHousing-22-SeniorHousing-NORMALIZED-184,Crystallite Apartments,55+ Community,,(204) 338 1137,,,,,,www.crystalproperties.ca,,445 Partridge Ave,,Jefferson,49.945574,-97.1254321,Winnipeg,MB,R2V 3H6,Canada
Canada-MB-22-SeniorHousing-22-SeniorHousing-NORMALIZED-185,D.a.l.a.c.p.t. Housing Co,55+ Community,,(204) 982 2000,,,,,,,,200 Watson St,,Leila - McPhillips Triangle,49.952591,-97.1523293,Winnipeg,MB,R2P 1Z6,Canada
Canada-MB-22-SeniorHousing-22-SeniorHousing-NORMALIZED-186,Winwood Gardens,55+ Community,,(204) 668 4700,,,,,,,,1150 1152 1154 Munroe Ave,,Munroe East,49.9063446,-97.0680469,Winnipeg,MB,R2K 3S4,Canada
Canada-MB-22-SeniorHousing-22-SeniorHousing-NORMALIZED-187,Silverlion Apts,55+ Community,,(204) 663 6409,,,,,,,,273 Talbot Ave,,Chalmers,49.908669,-97.1119643,Winnipeg,MB,R2L 0P7,Canada
Canada-MB-22-SeniorHousing-22-SeniorHousing-NORMALIZED-188,Beit,55+ Community,,(204) 338 4671,,,,,,,,Am B'Nay Abraham 765 Aikins St,,,49.895136,-97.1383744,Winnipeg,MB,R2V 3S2,Canada
Canada-MB-22-SeniorHousing-22-SeniorHousing-NORMALIZED-189,Sunrise Towers,55+ Community,,(204) 940 3491,,,,,1335henderson@edisonproperties.ca,www.edisonproperties.ca,,225 Arby Bay,,Rossmere - A,49.9425954,-97.0868856,Winnipeg,MB,R2G 0P1,Canada
Canada-MB-22-SeniorHousing-22-SeniorHousing-NORMALIZED-190,Tu,55+ Community,,(204) 663 0127,,,,,,,,Pelo Estates 351 & 357 Tu Pelo Ave,,Valley Gardens,49.9272768,-97.0694865,Winnipeg,MB,R2K 4H1,Canada
Canada-MB-22-SeniorHousing-22-SeniorHousing-NORMALIZED-191,Amber Meadow (assisted Living),55+ Community,,(204) 633 5467,,,,,jeffrey.angeles@atriaretirement.ca,www.ambermeadow.com,,320 Pipeline Rd,,Amber Trails,49.9593188,-97.1624467,Winnipeg,MB,R2P 2X5,Canada
Canada-MB-22-SeniorHousing-22-SeniorHousing-NORMALIZED-192,Sarina Towers,55+ Community,,(204) 940 3491,,,,,1335henderson@edisonproperties.ca,www.edisonproperties.ca,,1335 Henderson Hwy,,Rossmere - A,49.9430518,-97.0874302,Winnipeg,MB,R2G 1M6,Canada
Canada-MB-22-SeniorHousing-22-SeniorHousing-NORMALIZED-193,Carriage House North,55+ Community,,(204) 338 9323,,,,,,,,535 Leila Ave,,Templeton - Sinclair,49.9472946,-97.1277319,Winnipeg,MB,R2V 3N5,Canada
Canada-MB-22-SeniorHousing-22-SeniorHousing-NORMALIZED-194,Consulate North,55+ Community,,334 4357,,,,,,,,595 Leila Ave,,Templeton - Sinclair,49.9486367,-97.1320284,Winnipeg,MB,R2V 3R7,Canada
Canada-MB-22-SeniorHousing-22-SeniorHousing-NORMALIZED-195,Ruth Gardens,55+ Community,,(204) 515 5529,,,,,RuthGardens@EdisonProperties.ca,www.edisonproperties.ca,,1167 Rothesay St,,Rossmere - A,49.9370341,-97.0801736,Winnipeg,MB,R2G 1T6,Canada
Canada-MB-22-SeniorHousing-22-SeniorHousing-NORMALIZED-196,Riverside VILLAGE B,55+ Community,,(240) 940 3494,,,,,1660henderson@edisonproperties.ca,www.edisonproperties.ca,,1650 Henderson Hwy,,Valhalla,49.950923,-97.082736,Winnipeg,MB,R2G 1N7,Canada
Canada-MB-22-SeniorHousing-22-SeniorHousing-NORMALIZED-197,Riverside Plaza,55+ Community,,(204) 940 3494,,,,,1660henderson@edisonproperties.ca,www.edisonproperties.ca,,1660 Henderson Hwy,,Valhalla,49.9511268,-97.0806756,Winnipeg,MB,R2G 1H7,Canada
Canada-MB-22-SeniorHousing-22-SeniorHousing-NORMALIZED-198,Parkwood Square,55+ Community,,(204) 654 4672,,,,,,www.rentcanada.com,,170 & 190 Watt Ave,,Chalmers,49.910347,-97.1043569,Winnipeg,MB,R2L 2B7,Canada
Canada-MB-22-SeniorHousing-22-SeniorHousing-NORMALIZED-199,Parkside Plaza,55+ Community,,(230) 940 3493,,,,,1630henderson@edisonproperties.ca,www.edisonproperties.ca,,1630 Henderson Hwy,,Valhalla,49.9502164,-97.0821044,Winnipeg,MB,R2G 2B9,Canada
Canada-MB-22-SeniorHousing-22-SeniorHousing-NORMALIZED-200,Park Glen Manor,55+ Community,,(204) 667 2342,,,,,,www.wredevelopment.ca,,120 Prevette St,,Munroe East,49.9079278,-97.0696169,Winnipeg,MB,R2K 3L4,Canada
Canada-MB-22-SeniorHousing-22-SeniorHousing-NORMALIZED-201,L & B Towers,55+ Community,,(204) 940 3487,,,,,415edison@edisonproperties.ca,www.edisonproperties.ca,,415 Edison Ave,,Rossmere - A,49.938084,-97.07839,Winnipeg,MB,R2G 0M3,Canada
Canada-MB-22-SeniorHousing-22-SeniorHousing-NORMALIZED-202,Oakland Gardens I & II,55+ Community,,(240) 940 3484,,,,,210oakland@edisonproperties.ca,www.edisonproperties.ca,,210 220 Oakland Ave,,Rossmere - A,49.9366687,-97.0916126,Winnipeg,MB,R2G 3C6,Canada
Canada-MB-22-SeniorHousing-22-SeniorHousing-NORMALIZED-203,Kiwanis Homes Of East Kildonan,55+ Community,,+2 (004) 668 0076,,,,,,,,821 735 749 Golspie Ave,,Munroe West,49.9213927,-97.0864057,Winnipeg,MB,R2K 2V5,Canada
Canada-MB-22-SeniorHousing-22-SeniorHousing-NORMALIZED-204,Norway House,55+ Community,,(204) 940 3490,,,,,1301rothsay@edisonproperties.ca,www.edisonproperties.ca,,1301 Rothesay St,,Rossmere - A,49.9386853,-97.0783303,Winnipeg,MB,R2G 1T9,Canada
Canada-MB-22-SeniorHousing-22-SeniorHousing-NORMALIZED-205,Kingsfordhaus Co,55+ Community,,(204) 663 2233,,,,,,,,Ltd 426 Kingsford Ave,,Rossmere - A,49.938602,-97.083248,Winnipeg,MB,R2G 0J8,Canada
Canada-MB-22-SeniorHousing-22-SeniorHousing-NORMALIZED-206,Kimberly Gardens,55+ Community,,(204) 668 5549,,,,,,www.homebase.ca,,710 & 720 Grey St,,,49.895136,-97.1383744,Winnipeg,MB,R2K 3W9,Canada
Canada-MB-22-SeniorHousing-22-SeniorHousing-NORMALIZED-207,Kildonan Manor,55+ Community,,(204) 334 9537,,,,,,,,1607 Henderson Hwy,,River East,49.9490524,-97.0819189,Winnipeg,MB,R2G 4B7,Canada
Canada-MB-22-SeniorHousing-22-SeniorHousing-NORMALIZED-208,Kildonan House (assisted Living),55+ Community,,(204) 338 8182,,,,,info@homesteadkildonanhouse.ca,www.homesteadkildonanhouse.ca,,216 Edison Ave,,Rossmere - A,49.9407549,-97.0890728,Winnipeg,MB,R2G 4H7,Canada
Canada-MB-22-SeniorHousing-22-SeniorHousing-NORMALIZED-209,Kildonan Horizons,55+ Community,,(204) 669 0754,,,,,,,,505 Munroe Ave,,Munroe West,49.9178031,-97.0971989,Winnipeg,MB,R2K 3Z2,Canada
Canada-MB-22-SeniorHousing-22-SeniorHousing-NORMALIZED-210,Granite House,55+ Community,,(204) 940 3489,,,,,1100henderson@edisonproperties.ca,www.edisonproperties.ca,,1100 Henderson Hwy,,Kildonan Drive,49.9381637,-97.0942265,Winnipeg,MB,R2G 1L2,Canada
Canada-MB-22-SeniorHousing-22-SeniorHousing-NORMALIZED-211,Gable Arms,55+ Community,,(204) 940 3492,,,,,1590henderson@edisonproperties.ca,www.edisonproperties.ca,,1590 Henderson Hwy,,Valhalla,49.9496255,-97.0829619,Winnipeg,MB,R2G 2B8,Canada
Canada-MB-22-SeniorHousing-22-SeniorHousing-NORMALIZED-212,Fort Agassiz,55+ Community,,(204) 940 3488,,,,,1080henderson@edisonproperties.ca,www.edisonproperties.ca,,1080 Henderson Hwy,,Kildonan Drive,49.937608,-97.0937469,Winnipeg,MB,R2G 1H3,Canada
Canada-MB-22-SeniorHousing-22-SeniorHousing-NORMALIZED-213,Edgewood Estates,55+ Community,,(204) 339 9286,,,,,edgewood@devonshire-inc.com,,,60 Whellams Ln,,Kildonan Drive,49.9484475,-97.0950219,Winnipeg,MB,R2G 2G7,Canada
Canada-MB-22-SeniorHousing-22-SeniorHousing-NORMALIZED-214,East Concordia Manor,55+ Community,,(204) 415 3600,,,,,eastconcordia@broadstreet.ca,,,1350 Concordia Ave,,Grassie,49.9128176,-97.0493568,Winnipeg,MB,R3W 0C8,Canada
Canada-MB-22-SeniorHousing-22-SeniorHousing-NORMALIZED-215,East Concordia Landing,55+ Community,,(204) 415 3600,,,,,,,,525 535 545 Peguis St,,Grassie,49.9130897,-97.0465283,Winnipeg,MB,R2W 0G9,Canada
Canada-MB-22-SeniorHousing-22-SeniorHousing-NORMALIZED-216,Donwood South,55+ Community,,(204) 668 4410,,,,,donwoodsouth@donwoodmanor.org,,,1245 Henderson Hwy,,Rossmere - A,49.9408707,-97.0897552,Winnipeg,MB,R2G 1M1,Canada
Canada-MB-22-SeniorHousing-22-SeniorHousing-NORMALIZED-217,Donwood Manor (assisted Living),55+ Community,,(204) 668 4410,,,,,,,,165 Donwood Dr,,Rossmere - A,49.945918,-97.078477,Winnipeg,MB,R2G 2H9,Canada
Canada-MB-22-SeniorHousing-22-SeniorHousing-NORMALIZED-218,Crescent Ridge Towers,55+ Community,,(204) 663 3530,,,,,,www.homebase.ca,,15 & 35 Reay Cr,,Valley Gardens,49.921588,-97.069391,Winnipeg,MB,R2K 3X7,Canada
Canada-MB-22-SeniorHousing-22-SeniorHousing-NORMALIZED-219,Cosmopolitan Club Homes,55+ Community,,(204) 989 4210,,,,,,,,"561A,B,C Cosmo Ave",,Talbot - Grey,49.9040396,-97.1005346,Winnipeg,MB,R2L 1J2,Canada
Canada-MB-22-SeniorHousing-22-SeniorHousing-NORMALIZED-220,Concordia VILLAGE I & II (assisted Living),55+ Community,,(204) 667 6479,,,,,ecunningham@concordiavillage.ca,www.concordiahospital.mb.ca,,1115 & 1125 Molson St,,Eaglemere,49.9133583,-97.0590958,Winnipeg,MB,R2K 0A7,Canada
Canada-MB-22-SeniorHousing-22-SeniorHousing-NORMALIZED-221,Concordia VILLAGE  III (assisted Living),55+ Community,,(204) 667 6479,,,,,ecunningham@concordiavillage.ca,,,1105 Molson St,,,49.9147152,-97.0607117,Winnipeg,MB,R2K 4G4,Canada
Canada-MB-22-SeniorHousing-22-SeniorHousing-NORMALIZED-222,Columbus Centennial Seniors Co,55+ Community,,(204) 982 2000,,,,,,www.lifelease.ca,,Housing 404 Desalaberry Ave,,Chalmers,49.904415,-97.1073506,Winnipeg,MB,R2L 2G3,Canada
Canada-MB-22-SeniorHousing-22-SeniorHousing-NORMALIZED-223,Canadian Legion Gardens,55+ Community,,,,,,,,,,675 Talbot Ave,,Talbot - Grey,49.90518,-97.0931,Winnipeg,MB,R2L 0R9,Canada
Canada-MB-22-SeniorHousing-22-SeniorHousing-NORMALIZED-224,"Bethaniahaus, INC.",55+ Community,,(204) 654 5041,,,,,kweihs@bethania.ca,,,1060 Kimberly Ave,,Valley Gardens,49.914363,-97.0654239,Winnipeg,MB,R2K 4J7,Canada
Canada-MB-22-SeniorHousing-22-SeniorHousing-NORMALIZED-225,53 Stadacona St,55+ Community,,,,,,,,,,53 Stadacona St,,Chalmers,49.9074495,-97.1113432,Winnipeg,MB,R2L 1P8,Canada
Canada-MB-22-SeniorHousing-22-SeniorHousing-NORMALIZED-226,St Josaphat Selo,55+ Community,,(204) 586 4346,,,,,,,,Villa 114 McGregor St,,Dufferin,49.9158416,-97.1501402,Winnipeg,MB,R2W 5J7,Canada
Canada-MB-22-SeniorHousing-22-SeniorHousing-NORMALIZED-227,Point Douglas Manor,55+ Community,,(204) 945 3431,,,,,,,,817 Main St,,North Point Douglas,49.907426,-97.133207,Winnipeg,MB,R2W 5J2,Canada
Canada-MB-22-SeniorHousing-22-SeniorHousing-NORMALIZED-228,Lord Selkirk Towers,55+ Community,,(204) 943 3615,,,,,,,,269 Dufferin Ave,,Lord Selkirk Park,49.9097528,-97.137045,Winnipeg,MB,R2W 2X8,Canada
Canada-MB-22-SeniorHousing-22-SeniorHousing-NORMALIZED-229,Kekinan Centre INC.,55+ Community,,(204) 949 2880,,,,,,www.whrc.ca,,100 Robinson St,,Lord Selkirk Park,49.9114585,-97.1394926,Winnipeg,MB,R2W 5M8,Canada
Canada-MB-22-SeniorHousing-22-SeniorHousing-NORMALIZED-230,Fred Douglas Apts,55+ Community,,(204) 654 1919,,,,,ajanuska@shaw.ca,www.freddouglassociety.com,,1280 1290 1300 Aberdeen Ave,,Shaughnessy Park,49.9303635,-97.1759545,Winnipeg,MB,R2X 0X3,Canada
Canada-MB-22-SeniorHousing-22-SeniorHousing-NORMALIZED-231,Flora Place,55+ Community,,(204) 949 2880,,,,,,,,1 Flora Pl,,Dufferin,49.9193682,-97.1599908,Winnipeg,MB,R2X 0A9,Canada
Canada-MB-22-SeniorHousing-22-SeniorHousing-NORMALIZED-232,Cgs Manor INC.,55+ Community,,(204) 949 2880,,,,,info@whrc.ca,www.whrc.ca,,595 Mountain Ave,,Inkster - Faraday,49.9245311,-97.1440792,Winnipeg,MB,R2W 5L7,Canada
Canada-MB-22-SeniorHousing-22-SeniorHousing-NORMALIZED-233,Canadian Polish Manor,55+ Community,,(204) 949 2880,,,,,,www.whrc.ca,,300 Selkirk Ave,,Lord Selkirk Park,49.9127652,-97.1372793,Winnipeg,MB,R2W 5H7,Canada
Canada-MB-22-SeniorHousing-22-SeniorHousing-NORMALIZED-234,IVAN Franko Manor,55+ Community,,(204) 589 4949,,,,,,,,200 McGregor St,,William Whyte,49.9182923,-97.1484481,Winnipeg,MB,R2W 5L6,Canada
Canada-MB-22-SeniorHousing-22-SeniorHousing-NORMALIZED-235,Kekinan Centre (assisted Living),55+ Community,,(204) 949 2880,,,,,,www.whrc.ca,,102 Robinson St,,Lord Selkirk Park,49.9088242,-97.1411412,Winnipeg,MB,R2W 0T5,Canada
Canada-MB-22-SeniorHousing-22-SeniorHousing-NORMALIZED-236,Fred Douglas Courts,55+ Community,,(204) 654 1919,,,,,ajanuska@shaw.ca,www.freddouglassociety.com,,1286 Aberdeen,,Shaughnessy Park,49.9303458,-97.1746708,Winnipeg,MB,R2X 0X3,Canada
Canada-MB-22-SeniorHousing-22-SeniorHousing-NORMALIZED-237,Prairie Landing Apts,55+ Community,,(204) 663 6983,,,,,,,,20 Cal Gardner Dr,,Peguis,49.8997793,-97.050548,Winnipeg,MB,R3W 1P7,Canada
Canada-MB-22-SeniorHousing-22-SeniorHousing-NORMALIZED-238,Kildonan Green Apartments,55+ Community,,(204) 228 9076,,,,,,www.kildonangreenapartments.ca,,45 Kildonan Green Dr,,Meadows,49.9113328,-97.0276145,Winnipeg,MB,R3W 0E6,Canada
Canada-MB-22-SeniorHousing-22-SeniorHousing-NORMALIZED-239,Edgewood Place,55+ Community,,(204) 777 5182,,,,,,,,30 Guy Savoie Dr,,Transcona South,49.8852468,-97.0358058,Winnipeg,MB,R2J 3R7,Canada
Canada-MB-22-SeniorHousing-22-SeniorHousing-NORMALIZED-240,East Park Lodge,55+ Community,,(204) 222 3251,,,,,,,,720 Kildare Ave,,Kildare - Redonda,49.90019,-96.981635,Winnipeg,MB,R2C 4P2,Canada
Canada-MB-22-SeniorHousing-22-SeniorHousing-NORMALIZED-241,Devonshire House II (assisted Living),55+ Community,,(204) 222 8962,,,,,,,,65 Kildonan Green Dr,,Meadows,49.9113953,-97.0273359,Winnipeg,MB,R3W 0E1,Canada
Canada-MB-22-SeniorHousing-22-SeniorHousing-NORMALIZED-242,145 Powers St,55+ Community,,,,,,,,,,145 Powers St,,William Whyte,49.9154249,-97.1434091,Winnipeg,MB,R2W 5J4,Canada
Canada-MB-22-SeniorHousing-22-SeniorHousing-NORMALIZED-243,Devonshire House I (assisted Living),55+ Community,,(204) 667 2412,,,,,devshire@mts.net,,,75 Kildonan Green Dr,,Meadows,49.9117532,-97.0259313,Winnipeg,MB,R2C 4M2,Canada
Canada-MB-22-SeniorHousing-22-SeniorHousing-NORMALIZED-244,Columbus VILLA,55+ Community,,(204) 222 8292,,,,,,,,680 Kildare Ave,,Kildare - Redonda,49.9003282,-96.9848665,Winnipeg,MB,R2C 3M8,Canada
Canada-MB-22-SeniorHousing-22-SeniorHousing-NORMALIZED-245,Southgate Plaza,55+ Community,,(204) 257 8228,,,,,,www.sussexrealty.ca,,50 Alpine Ave,,Alpine Place,49.856662,-97.098579,Winnipeg,MB,R2M 0Y6,Canada
Canada-MB-22-SeniorHousing-22-SeniorHousing-NORMALIZED-246,Seine River Retirement Residence (assisted Living),55+ Community,,(204) 256 8877,,,,,hmutcheson@allseniorscare.com,www.allseniorscare.ca,,1095 St Anne's Rd,,Dakota Crossing,49.815897,-97.0772485,Winnipeg,MB,R2N 4G5,Canada
Canada-MB-22-SeniorHousing-22-SeniorHousing-NORMALIZED-247,Seine River Haven,55+ Community,,(204) 942 0991,,,,,,www.sam.mb.ca,,571 St Anne's Rd,,Meadowood,49.8355474,-97.08963,Winnipeg,MB,R2M 1T3,Canada
Canada-MB-22-SeniorHousing-22-SeniorHousing-NORMALIZED-248,Seine River Gardens,55+ Community,,(204) 940 3477,,,,,41clayton@edisonproperties.ca,www.edisonproperties.ca,,41 Clayton Dr,,Alpine Place,49.850746,-97.0978669,Winnipeg,MB,R2M 1G3,Canada
Canada-MB-22-SeniorHousing-22-SeniorHousing-NORMALIZED-249,Rotunda Towers,55+ Community,,(204) 255 2838,,,,,,www.sussexrealty.ca,,22 Beliveau Rd,,Worthington,49.8344858,-97.1119721,Winnipeg,MB,R2M 1S5,Canada
Canada-MB-22-SeniorHousing-22-SeniorHousing-NORMALIZED-250,Riverside Lions Seniors Residences (assisted Living),55+ Community,,(204) 255 8940,,,,,admin@riversidelions.mb.ca,www.riversidelions.mb.ca,,180 Worthington Ave,,Worthington,49.8423388,-97.0971867,Winnipeg,MB,R2M 5K1,Canada
Canada-MB-22-SeniorHousing-22-SeniorHousing-NORMALIZED-251,Riverside Lions Estates,55+ Community,,(204) 255 8940,,,,,admin@riversidelions.mb.ca,www.riversidelions.mb.ca,,188 Worthington Ave,,Worthington,49.8423968,-97.0964012,Winnipeg,MB,R2M 5K1,Canada
Canada-MB-22-SeniorHousing-22-SeniorHousing-NORMALIZED-252,River Meadow Estates,55+ Community,,(204) 256 5666,,,,,,www.broadstreet.ca,,1153 1177 Rd,,Pacific Industrial,49.9078702,-97.1758618,Winnipeg,MB,R2N 0C2,Canada
Canada-MB-22-SeniorHousing-22-SeniorHousing-NORMALIZED-253,River Gardens,55+ Community,,(204) 940 3476,,,,,21clayton@edisonproperties.ca,www.edisonproperties.ca,,21 Clayton Dr,,Alpine Place,49.850068,-97.0986392,Winnipeg,MB,R2M 1G2,Canada
Canada-MB-22-SeniorHousing-22-SeniorHousing-NORMALIZED-254,River Clayton,55+ Community,,(204) 254 1731,,,,,,www.globegeneral.ca,,61 Clayton Dr,,Alpine Place,49.84998,-97.096348,Winnipeg,MB,R2M 1G8,Canada
Canada-MB-22-SeniorHousing-22-SeniorHousing-NORMALIZED-255,Niakwa Tower,55+ Community,,(204) 254 4176,,,,,niawka@ranchowinnipeg.com,www.ranchowinnipeg.com,,115 Niakwa Rd,,Alpine Place,49.8555265,-97.0998565,Winnipeg,MB,R2M 5A8,Canada
Canada-MB-22-SeniorHousing-22-SeniorHousing-NORMALIZED-256,Mike Sunka Place,55+ Community,,(204) 942 0991,,,,,,www.sam.mb.ca,,275 St Anne's Rd,,Alpine Place,49.8533632,-97.1014423,Winnipeg,MB,R2M 4V1,Canada
Canada-MB-22-SeniorHousing-22-SeniorHousing-NORMALIZED-257,Meadowood Manor Towers,55+ Community,,(204) 257 2394,,,,,info@meadowood.ca,www.meadowood.ca,,575 St Anne's Rd,,Meadowood,49.8347073,-97.0902912,Winnipeg,MB,R2M 5B2,Canada
Canada-MB-22-SeniorHousing-22-SeniorHousing-NORMALIZED-258,Meadowood Gardens,55+ Community,,(204) 255 8346,,,,,,www.crystalproperties.ca,,566 576 Rd,,West Alexander,49.9037449,-97.1638924,Winnipeg,MB,R2M 5S8,Canada
Canada-MB-22-SeniorHousing-22-SeniorHousing-NORMALIZED-259,Markie Plaza,55+ Community,,(204) 253 5129,,,,,,www.globegeneral.ca,,410 St Anne's Rd,,St. George,49.846952,-97.0983959,Winnipeg,MB,R2M 3C2,Canada
Canada-MB-22-SeniorHousing-22-SeniorHousing-NORMALIZED-260,Kenbur Gardens,55+ Community,,(204) 940 3486,,,,,329stannes@edisonproperties.ca,www.edisonproperties.ca,,329 St Anne's Rd,,Alpine Place,49.85091,-97.099327,Winnipeg,MB,R2M 3B2,Canada
Canada-MB-22-SeniorHousing-22-SeniorHousing-NORMALIZED-261,Golden Arms,55+ Community,,(204) 255 8600,,,,,,www.globegeneral.ca,,11 St Michael Rd,,Pulberry,49.83347,-97.115234,Winnipeg,MB,R2M 2K5,Canada
Canada-MB-22-SeniorHousing-22-SeniorHousing-NORMALIZED-262,Dakota Towers,55+ Community,,(204) 255 1294,,,,,,,,1106 St Mary's Rd,,Pulberry,49.8344083,-97.1142945,Winnipeg,MB,R2M 3T5,Canada
Canada-MB-22-SeniorHousing-22-SeniorHousing-NORMALIZED-263,Dakota House (assisted Living),55+ Community,,(204) 663 4983,,,,,dakotaactivities@mymts.net,www.homesteadmanitoba.ca,,1145 Dakota St,,Dakota Crossing,49.820684,-97.097695,Winnipeg,MB,R2N 0A4,Canada
Canada-MB-22-SeniorHousing-22-SeniorHousing-NORMALIZED-264,Creekside Terrace,55+ Community,,(204) 415 3913,,,,,,,,200 Burning Glass Rd,,Sage Creek,49.836916,-97.0479026,Winnipeg,MB,R2X 0H3,Canada
Canada-MB-22-SeniorHousing-22-SeniorHousing-NORMALIZED-265,Chesterfield Housing Dev INC.,55+ Community,,(204) 504 6096,,,,,chesterfieldhousing@shaw.ca,,,30 Chesterfield Ave,,Worthington,49.8339561,-97.111694,Winnipeg,MB,R2M 1T6,Canada
Canada-MB-22-SeniorHousing-22-SeniorHousing-NORMALIZED-266,86 Niawka Road,55+ Community,,(204) 257 1887,,,,,,,,86 Niawka Rd,,Alpine Place,49.854249,-97.100862,Winnipeg,MB,R2M 3A5,Canada
Canada-MB-22-SeniorHousing-22-SeniorHousing-NORMALIZED-267,Anavet Lodge,55+ Community,,(204) 942 0991,,,,,,www.sam.mb.ca,,166 Beliveau Rd,,Worthington,49.8367188,-97.1056241,Winnipeg,MB,R2M 1S9,Canada
Canada-MB-22-SeniorHousing-22-SeniorHousing-NORMALIZED-268,60 Chesterfield Ave,55+ Community,,,,,,,,,,60 Chesterfield Ave,,Worthington,49.8342461,-97.1107254,Winnipeg,MB,R2M 5A3,Canada
