row_id,﻿name,license_num,website,contact,phone,fax,street_address,city,province,postal_code,facility_type
Canada-NB-13-NursingHomes-13-NursingHomes-1,Drew Nursing Home,,http://www.drewnursinghome.ca/,Linda Shannon,(506) 364-4900,(506) 364-4921,,moncton,NB,,Nursing Home
Canada-NB-13-NursingHomes-13-NursingHomes-2,Forest Dale Home,,http://www.forestdalehome.ca,Vicki Caissie,(506) 882-3015,(506) 882-3014,,moncton,NB,,Nursing Home
Canada-NB-13-NursingHomes-13-NursingHomes-3,Foyer St-Antoine,,http://www3.nbnet.nb.ca/fsa,George Cormier,(506) 525-4040,(506) 525-4090,,moncton,NB,,Nursing Home
Canada-NB-13-NursingHomes-13-NursingHomes-4,Jordan Lifecare Centre,,,Gary Buchanan,(506) 756-3355,(506) 756-2081,,moncton,NB,,Nursing Home
Canada-NB-13-NursingHomes-13-NursingHomes-5,Kenneth E. Spencer,,http://www.abschi.com/,Victor Shea,(506) 858-7870,(506) 858-9674,,moncton,NB,,Nursing Home
Canada-NB-13-NursingHomes-13-NursingHomes-6,La Villa Maria,,,Jean-Paul Mazerolle,(506) 876-3488,(506) 876-3466,,moncton,NB,,Nursing Home
Canada-NB-13-NursingHomes-13-NursingHomes-7,Le Foyer St-Thomas (Memramcook),,,Paul Rossignol,(506) 758-2110,(506) 758-9489,,moncton,NB,,Nursing Home
Canada-NB-13-NursingHomes-13-NursingHomes-8,Manoir St-Jean Baptiste,,,Ian Drapeau,(506) 743-7344,(506) 743-7343,,moncton,NB,,Nursing Home
Canada-NB-13-NursingHomes-13-NursingHomes-9,Monarch Hall,,http://www.shannex.com,Carole Morey,(506) 387-3168,(506) 387-3167,,moncton,NB,,Nursing Home
Canada-NB-13-NursingHomes-13-NursingHomes-10,Rexton Lions Nursing Home,,,Nancy Cail,(506) 523-7720,(506) 523-7703,,moncton,NB,,Nursing Home
Canada-NB-13-NursingHomes-13-NursingHomes-11,The Salvation Army Lakeview Manor,,,Kym Elder,(506) 387-2012,(506) 387-7200,,moncton,NB,,Nursing Home
Canada-NB-13-NursingHomes-13-NursingHomes-12,Villa du Repos,,,Ronald LeBlanc,(506) 857-3560,(506) 859-1619,,moncton,NB,,Nursing Home
Canada-NB-13-NursingHomes-13-NursingHomes-13,Villa Providence Shediac,,,Ronald LeBlanc,(506) 532-4484,(506) 532-5909,,moncton,NB,,Nursing Home
Canada-NB-13-NursingHomes-13-NursingHomes-14,Westford Nursing Home,,http://www.westfordnursinghome.com,Judy White,(506) 538-1302,(506) 538-7293,,moncton,NB,,Nursing Home
Canada-NB-13-NursingHomes-13-NursingHomes-15,Campobello Lodge,,,Sherry Johnston,(506) 752-7101,(506) 752-7105,,moncton,NB,,Nursing Home
Canada-NB-13-NursingHomes-13-NursingHomes-16,Carleton Kirk Lodge,,,Tim Stevens,(506) 643-7040,(506) 643-7038,,moncton,NB,,Nursing Home
Canada-NB-13-NursingHomes-13-NursingHomes-17,Church of St. John & St. Stephen,,,Shelley Fulton,(506) 643-6001,(506) 643-6126,,moncton,NB,,Nursing Home
Canada-NB-13-NursingHomes-13-NursingHomes-18,Dr. V.A. Snow Centre,,http://www.snownursing.com,Terry O'Neill,(506) 832-6210,(506) 832-7674,,moncton,NB,,Nursing Home
Canada-NB-13-NursingHomes-13-NursingHomes-19,Embassy Hall,,http://www.shannex.com,John Campbell,(506) 848-3170,(506) 848-3171,,moncton,NB,,Nursing Home
Canada-NB-13-NursingHomes-13-NursingHomes-20,Fundy Nursing Home,,,Debbie Harris,(506) 456-4218,(506) 456-3057,,moncton,NB,,Nursing Home
Canada-NB-13-NursingHomes-13-NursingHomes-21,Grand Manan Nursing Home,,,Joanne Ingalls,(506) 662-7111,(506) 662-7117,,moncton,NB,,Nursing Home
Canada-NB-13-NursingHomes-13-NursingHomes-22,Kennebec Manor,,,Judy Lane,(506) 632-9628,(506) 658-9376,,moncton,NB,,Nursing Home
Canada-NB-13-NursingHomes-13-NursingHomes-23,Kings Way Care Center,,,Judy Lane,(506) 847-1131,(506) 847-1134,,moncton,NB,,Nursing Home
Canada-NB-13-NursingHomes-13-NursingHomes-24,Kiwanis Nursing Home,,http://www.kiwanisnursinghome.com,Kerri Marr,(506) 432-3118,(506) 432-3104,,moncton,NB,,Nursing Home
Canada-NB-13-NursingHomes-13-NursingHomes-25,Lincourt Manor,,,Stacy Butler,(506) 466-7855,(506) 466-7853,,moncton,NB,,Nursing Home
Canada-NB-13-NursingHomes-13-NursingHomes-26,Loch Lomond Villa,,http://www.lochlomondvilla.com,Cindy Donovan,(506) 643-7175,(506) 643-7179,,moncton,NB,,Nursing Home
Canada-NB-13-NursingHomes-13-NursingHomes-27,Passamaquoddy Lodge,,http://www.passamaquoddylodge.ca,Lezlie LeBlanc,(506) 529-5240,(506) 529-5258,,moncton,NB,,Nursing Home
Canada-NB-13-NursingHomes-13-NursingHomes-28,Rocmaura,,http://www.rocmaura.com,Sheana Mohra,(506) 643-7050,(506) 643-7053,,moncton,NB,,Nursing Home
Canada-NB-13-NursingHomes-13-NursingHomes-29,Turnbull Nursing Home,,,Patti Alcorn,(506) 643-7200,(506) 648-9786,,moncton,NB,,Nursing Home
Canada-NB-13-NursingHomes-13-NursingHomes-30,Carleton Manor,,http://www.carletonmanor.com,Angela Acott-Smith,(506) 325-4373,(506) 325-4618,,moncton,NB,,Nursing Home
Canada-NB-13-NursingHomes-13-NursingHomes-31,Central Carleton Nursing Home,,,Kristi Schriver,(506) 375-3033,(506) 375-3035,,moncton,NB,,Nursing Home
Canada-NB-13-NursingHomes-13-NursingHomes-32,Central N.B. Nursing Home,,,Manley Black,(506) 369-7262,(506) 369-2331,,moncton,NB,,Nursing Home
Canada-NB-13-NursingHomes-13-NursingHomes-33,Mill Cove Nursing Home,,http://www.millcovenh.com,Dan Gilman,(506) 488-3033,(506) 488-3037,,moncton,NB,,Nursing Home
Canada-NB-13-NursingHomes-13-NursingHomes-34,Nashwaak Villa,,,Daphne Noonan,(506) 367-7734,(506) 367-7745,,moncton,NB,,Nursing Home
Canada-NB-13-NursingHomes-13-NursingHomes-35,Orchard View,,http://www.orchardviewcare.ca,Steve Little,(506) 488-3544,(506) 488-3551,,moncton,NB,,Nursing Home
Canada-NB-13-NursingHomes-13-NursingHomes-36,Pine Grove,,http://www.pinegrovenh.com,Cheryl Wiggins,(506) 444-3400,(506) 444-3407,,moncton,NB,,Nursing Home
Canada-NB-13-NursingHomes-13-NursingHomes-37,River View Manor,,http://www.riverviewmanor.ca,Guildo Cyr,(506) 278-6030,(506) 278-5962,,moncton,NB,,Nursing Home
Canada-NB-13-NursingHomes-13-NursingHomes-38,Thomas Hall,,http://www.shannex.com,Pam Bowen,(506) 447-6440,(506) 447-6441,,moncton,NB,,Nursing Home
Canada-NB-13-NursingHomes-13-NursingHomes-39,Tobique Valley Manor,,,Charlotte Bellefleur,(506) 356-6040,(506) 356-6041,,moncton,NB,,Nursing Home
Canada-NB-13-NursingHomes-13-NursingHomes-40,Victoria Glen Manor,,http://www.vgm.ca,Donna Miller-Wallace,(506) 273-4885,(506) 273-4975,,moncton,NB,,Nursing Home
Canada-NB-13-NursingHomes-13-NursingHomes-41,W.G. Bishop Nursing Home,,,Charlene Cobbett,(506) 327-7853,(506) 327-7812,,moncton,NB,,Nursing Home
Canada-NB-13-NursingHomes-13-NursingHomes-42,Wauklehegan Manor,,http://waukleheganmanor.weebly.com,Mike Harvey,(506) 784-6303,(506) 784-6344,,moncton,NB,,Nursing Home
Canada-NB-13-NursingHomes-13-NursingHomes-43,White Rapids Manor,,http://www.whiterapidsmanor.nb.ca,Kathy Jenkins,(506) 368-6508,(506) 368-6512,,moncton,NB,,Nursing Home
Canada-NB-13-NursingHomes-13-NursingHomes-44,York Care Centre,,http://www.yorkmanor.nb.ca,Kevin Harter,(506) 444-3880,(506) 444-3544,,moncton,NB,,Nursing Home
Canada-NB-13-NursingHomes-13-NursingHomes-45,Foyer Notre-Dame de St-LÃ©onard,,,Violette Thibodeau,(506) 423-3100,(506) 423-3152,,moncton,NB,,Nursing Home
Canada-NB-13-NursingHomes-13-NursingHomes-46,Foyer Ste-Elizabeth,,,Monique Gendron,(506) 258-3020,(506) 258-3010,,moncton,NB,,Nursing Home
Canada-NB-13-NursingHomes-13-NursingHomes-47,RÃ©sidence Mgr. Melanson,,,AndrÃ© Savoie,(506) 235-6030,(506) 235-6075,,moncton,NB,,Nursing Home
Canada-NB-13-NursingHomes-13-NursingHomes-48,RÃ©sidences Jodin,,,David Couturier,(506) 501-3014  ,(506) 501-3015,,moncton,NB,,Nursing Home
Canada-NB-13-NursingHomes-13-NursingHomes-49,Villa des Chutes,,,AmÃ©lie Cayouette,(506) 473-7726,(506) 473-7849,,moncton,NB,,Nursing Home
Canada-NB-13-NursingHomes-13-NursingHomes-50,Campbellton Nursing Home,,,Ken Murray,(506) 789-7350,(506) 789-7360,,moncton,NB,,Nursing Home
Canada-NB-13-NursingHomes-13-NursingHomes-51,Dalhousie Nursing Home,,,Diane LÃ©ger,(506) 684-7800,(506) 684-7832,,moncton,NB,,Nursing Home
Canada-NB-13-NursingHomes-13-NursingHomes-52,Foyer Notre-Dame de Lourdes,,http://www.fndl.org,LÃ©o-Paul Sonier,(506) 549-5085,(506) 549-5052,,moncton,NB,,Nursing Home
Canada-NB-13-NursingHomes-13-NursingHomes-53,Manoir Edith B. Pinet,,,Bruno Holmes,(506) 764-2444,(506) 764-2451,,moncton,NB,,Nursing Home
Canada-NB-13-NursingHomes-13-NursingHomes-54,RÃ©sidences Inkerman,,,Michel HachÃ©,(506) 336-3909,.,,moncton,NB,,Nursing Home
Canada-NB-13-NursingHomes-13-NursingHomes-55,RÃ©sidences Lucien Saindon,,,GaÃ«tan HachÃ©,(506) 344-3232,(506) 344-3240,,moncton,NB,,Nursing Home
Canada-NB-13-NursingHomes-13-NursingHomes-56,RÃ©sidences Mgr. Chiasson,,,Anne-Marie Richardson Chiasson,(506) 336-3266,(506) 336-3099,,moncton,NB,,Nursing Home
Canada-NB-13-NursingHomes-13-NursingHomes-57,Villa BeausÃ©jour,,,Roger Landry,(506) 726-2744,(506) 726-2745,,moncton,NB,,Nursing Home
Canada-NB-13-NursingHomes-13-NursingHomes-58,Villa Chaleur Inc.,,http://www.abschi.com,Victor Shea,(506) 549-5582,(506) 545-6424,,moncton,NB,,Nursing Home
Canada-NB-13-NursingHomes-13-NursingHomes-59,Villa Sormany,,,Wayne McWilliams,(506) 542-2731,(506) 542-2733,,moncton,NB,,Nursing Home
Canada-NB-13-NursingHomes-13-NursingHomes-60,Villa St-Joseph,,,Serge Robichaud,(506) 394-4800,(506) 394-4826,,moncton,NB,,Nursing Home
Canada-NB-13-NursingHomes-13-NursingHomes-61,Foyer Assomption,,,Anne Babineau,(506) 775-2040,(506) 775-2053,,moncton,NB,,Nursing Home
Canada-NB-13-NursingHomes-13-NursingHomes-62,Le Complexe Rendez-Vous Inc.,,,Ronald LeBlanc,(506) 776-0640,(506) 776-0608,,moncton,NB,,Nursing Home
Canada-NB-13-NursingHomes-13-NursingHomes-63,Miramichi Senior Citizens Home,,,Jean Doyle,(506) 778-6810,(506) 778-6860,,moncton,NB,,Nursing Home
Canada-NB-13-NursingHomes-13-NursingHomes-64,Mount St. Joseph,,http://www.mountsj.ca,Debbie Walls,(506) 778-6550,(506) 778-0193,,moncton,NB,,Nursing Home
Canada-NB-13-NursingHomes-13-NursingHomes-65,Tabusintac Nursing Home,,,Joanne Sonier,(506) 779-4100,(506) 779-8149,,moncton,NB,,Nursing Home
Canada-NB-13-NursingHomes-13-NursingHomes-66,Drew Nursing Home,,http://www.drewnursinghome.ca/,Linda Shannon,(506) 364-4900,(506) 364-4921,,saintjohn,NB,,Nursing Home
Canada-NB-13-NursingHomes-13-NursingHomes-67,Forest Dale Home,,http://www.forestdalehome.ca,Vicki Caissie,(506) 882-3015,(506) 882-3014,,saintjohn,NB,,Nursing Home
Canada-NB-13-NursingHomes-13-NursingHomes-68,Foyer St-Antoine,,http://www3.nbnet.nb.ca/fsa,George Cormier,(506) 525-4040,(506) 525-4090,,saintjohn,NB,,Nursing Home
Canada-NB-13-NursingHomes-13-NursingHomes-69,Jordan Lifecare Centre,,,Gary Buchanan,(506) 756-3355,(506) 756-2081,,saintjohn,NB,,Nursing Home
Canada-NB-13-NursingHomes-13-NursingHomes-70,Kenneth E. Spencer,,http://www.abschi.com/,Victor Shea,(506) 858-7870,(506) 858-9674,,saintjohn,NB,,Nursing Home
Canada-NB-13-NursingHomes-13-NursingHomes-71,La Villa Maria,,,Jean-Paul Mazerolle,(506) 876-3488,(506) 876-3466,,saintjohn,NB,,Nursing Home
Canada-NB-13-NursingHomes-13-NursingHomes-72,Le Foyer St-Thomas (Memramcook),,,Paul Rossignol,(506) 758-2110,(506) 758-9489,,saintjohn,NB,,Nursing Home
Canada-NB-13-NursingHomes-13-NursingHomes-73,Manoir St-Jean Baptiste,,,Ian Drapeau,(506) 743-7344,(506) 743-7343,,saintjohn,NB,,Nursing Home
Canada-NB-13-NursingHomes-13-NursingHomes-74,Monarch Hall,,http://www.shannex.com,Carole Morey,(506) 387-3168,(506) 387-3167,,saintjohn,NB,,Nursing Home
Canada-NB-13-NursingHomes-13-NursingHomes-75,Rexton Lions Nursing Home,,,Nancy Cail,(506) 523-7720,(506) 523-7703,,saintjohn,NB,,Nursing Home
Canada-NB-13-NursingHomes-13-NursingHomes-76,The Salvation Army Lakeview Manor,,,Kym Elder,(506) 387-2012,(506) 387-7200,,saintjohn,NB,,Nursing Home
Canada-NB-13-NursingHomes-13-NursingHomes-77,Villa du Repos,,,Ronald LeBlanc,(506) 857-3560,(506) 859-1619,,saintjohn,NB,,Nursing Home
Canada-NB-13-NursingHomes-13-NursingHomes-78,Villa Providence Shediac,,,Ronald LeBlanc,(506) 532-4484,(506) 532-5909,,saintjohn,NB,,Nursing Home
Canada-NB-13-NursingHomes-13-NursingHomes-79,Westford Nursing Home,,http://www.westfordnursinghome.com,Judy White,(506) 538-1302,(506) 538-7293,,saintjohn,NB,,Nursing Home
Canada-NB-13-NursingHomes-13-NursingHomes-80,Campobello Lodge,,,Sherry Johnston,(506) 752-7101,(506) 752-7105,,saintjohn,NB,,Nursing Home
Canada-NB-13-NursingHomes-13-NursingHomes-81,Carleton Kirk Lodge,,,Tim Stevens,(506) 643-7040,(506) 643-7038,,saintjohn,NB,,Nursing Home
Canada-NB-13-NursingHomes-13-NursingHomes-82,Church of St. John & St. Stephen,,,Shelley Fulton,(506) 643-6001,(506) 643-6126,,saintjohn,NB,,Nursing Home
Canada-NB-13-NursingHomes-13-NursingHomes-83,Dr. V.A. Snow Centre,,http://www.snownursing.com,Terry O'Neill,(506) 832-6210,(506) 832-7674,,saintjohn,NB,,Nursing Home
Canada-NB-13-NursingHomes-13-NursingHomes-84,Embassy Hall,,http://www.shannex.com,John Campbell,(506) 848-3170,(506) 848-3171,,saintjohn,NB,,Nursing Home
Canada-NB-13-NursingHomes-13-NursingHomes-85,Fundy Nursing Home,,,Debbie Harris,(506) 456-4218,(506) 456-3057,,saintjohn,NB,,Nursing Home
Canada-NB-13-NursingHomes-13-NursingHomes-86,Grand Manan Nursing Home,,,Joanne Ingalls,(506) 662-7111,(506) 662-7117,,saintjohn,NB,,Nursing Home
Canada-NB-13-NursingHomes-13-NursingHomes-87,Kennebec Manor,,,Judy Lane,(506) 632-9628,(506) 658-9376,,saintjohn,NB,,Nursing Home
Canada-NB-13-NursingHomes-13-NursingHomes-88,Kings Way Care Center,,,Judy Lane,(506) 847-1131,(506) 847-1134,,saintjohn,NB,,Nursing Home
Canada-NB-13-NursingHomes-13-NursingHomes-89,Kiwanis Nursing Home,,http://www.kiwanisnursinghome.com,Kerri Marr,(506) 432-3118,(506) 432-3104,,saintjohn,NB,,Nursing Home
Canada-NB-13-NursingHomes-13-NursingHomes-90,Lincourt Manor,,,Stacy Butler,(506) 466-7855,(506) 466-7853,,saintjohn,NB,,Nursing Home
Canada-NB-13-NursingHomes-13-NursingHomes-91,Loch Lomond Villa,,http://www.lochlomondvilla.com,Cindy Donovan,(506) 643-7175,(506) 643-7179,,saintjohn,NB,,Nursing Home
Canada-NB-13-NursingHomes-13-NursingHomes-92,Passamaquoddy Lodge,,http://www.passamaquoddylodge.ca,Lezlie LeBlanc,(506) 529-5240,(506) 529-5258,,saintjohn,NB,,Nursing Home
Canada-NB-13-NursingHomes-13-NursingHomes-93,Rocmaura,,http://www.rocmaura.com,Sheana Mohra,(506) 643-7050,(506) 643-7053,,saintjohn,NB,,Nursing Home
Canada-NB-13-NursingHomes-13-NursingHomes-94,Turnbull Nursing Home,,,Patti Alcorn,(506) 643-7200,(506) 648-9786,,saintjohn,NB,,Nursing Home
Canada-NB-13-NursingHomes-13-NursingHomes-95,Carleton Manor,,http://www.carletonmanor.com,Angela Acott-Smith,(506) 325-4373,(506) 325-4618,,saintjohn,NB,,Nursing Home
Canada-NB-13-NursingHomes-13-NursingHomes-96,Central Carleton Nursing Home,,,Kristi Schriver,(506) 375-3033,(506) 375-3035,,saintjohn,NB,,Nursing Home
Canada-NB-13-NursingHomes-13-NursingHomes-97,Central N.B. Nursing Home,,,Manley Black,(506) 369-7262,(506) 369-2331,,saintjohn,NB,,Nursing Home
Canada-NB-13-NursingHomes-13-NursingHomes-98,Mill Cove Nursing Home,,http://www.millcovenh.com,Dan Gilman,(506) 488-3033,(506) 488-3037,,saintjohn,NB,,Nursing Home
Canada-NB-13-NursingHomes-13-NursingHomes-99,Nashwaak Villa,,,Daphne Noonan,(506) 367-7734,(506) 367-7745,,saintjohn,NB,,Nursing Home
Canada-NB-13-NursingHomes-13-NursingHomes-100,Orchard View,,http://www.orchardviewcare.ca,Steve Little,(506) 488-3544,(506) 488-3551,,saintjohn,NB,,Nursing Home
Canada-NB-13-NursingHomes-13-NursingHomes-101,Pine Grove,,http://www.pinegrovenh.com,Cheryl Wiggins,(506) 444-3400,(506) 444-3407,,saintjohn,NB,,Nursing Home
Canada-NB-13-NursingHomes-13-NursingHomes-102,River View Manor,,http://www.riverviewmanor.ca,Guildo Cyr,(506) 278-6030,(506) 278-5962,,saintjohn,NB,,Nursing Home
Canada-NB-13-NursingHomes-13-NursingHomes-103,Thomas Hall,,http://www.shannex.com,Pam Bowen,(506) 447-6440,(506) 447-6441,,saintjohn,NB,,Nursing Home
Canada-NB-13-NursingHomes-13-NursingHomes-104,Tobique Valley Manor,,,Charlotte Bellefleur,(506) 356-6040,(506) 356-6041,,saintjohn,NB,,Nursing Home
Canada-NB-13-NursingHomes-13-NursingHomes-105,Victoria Glen Manor,,http://www.vgm.ca,Donna Miller-Wallace,(506) 273-4885,(506) 273-4975,,saintjohn,NB,,Nursing Home
Canada-NB-13-NursingHomes-13-NursingHomes-106,W.G. Bishop Nursing Home,,,Charlene Cobbett,(506) 327-7853,(506) 327-7812,,saintjohn,NB,,Nursing Home
Canada-NB-13-NursingHomes-13-NursingHomes-107,Wauklehegan Manor,,http://waukleheganmanor.weebly.com,Mike Harvey,(506) 784-6303,(506) 784-6344,,saintjohn,NB,,Nursing Home
Canada-NB-13-NursingHomes-13-NursingHomes-108,White Rapids Manor,,http://www.whiterapidsmanor.nb.ca,Kathy Jenkins,(506) 368-6508,(506) 368-6512,,saintjohn,NB,,Nursing Home
Canada-NB-13-NursingHomes-13-NursingHomes-109,York Care Centre,,http://www.yorkmanor.nb.ca,Kevin Harter,(506) 444-3880,(506) 444-3544,,saintjohn,NB,,Nursing Home
Canada-NB-13-NursingHomes-13-NursingHomes-110,Foyer Notre-Dame de St-LÃ©onard,,,Violette Thibodeau,(506) 423-3100,(506) 423-3152,,saintjohn,NB,,Nursing Home
Canada-NB-13-NursingHomes-13-NursingHomes-111,Foyer Ste-Elizabeth,,,Monique Gendron,(506) 258-3020,(506) 258-3010,,saintjohn,NB,,Nursing Home
Canada-NB-13-NursingHomes-13-NursingHomes-112,RÃ©sidence Mgr. Melanson,,,AndrÃ© Savoie,(506) 235-6030,(506) 235-6075,,saintjohn,NB,,Nursing Home
Canada-NB-13-NursingHomes-13-NursingHomes-113,RÃ©sidences Jodin,,,David Couturier,(506) 501-3014  ,(506) 501-3015,,saintjohn,NB,,Nursing Home
Canada-NB-13-NursingHomes-13-NursingHomes-114,Villa des Chutes,,,AmÃ©lie Cayouette,(506) 473-7726,(506) 473-7849,,saintjohn,NB,,Nursing Home
Canada-NB-13-NursingHomes-13-NursingHomes-115,Campbellton Nursing Home,,,Ken Murray,(506) 789-7350,(506) 789-7360,,saintjohn,NB,,Nursing Home
Canada-NB-13-NursingHomes-13-NursingHomes-116,Dalhousie Nursing Home,,,Diane LÃ©ger,(506) 684-7800,(506) 684-7832,,saintjohn,NB,,Nursing Home
Canada-NB-13-NursingHomes-13-NursingHomes-117,Foyer Notre-Dame de Lourdes,,http://www.fndl.org,LÃ©o-Paul Sonier,(506) 549-5085,(506) 549-5052,,saintjohn,NB,,Nursing Home
Canada-NB-13-NursingHomes-13-NursingHomes-118,Manoir Edith B. Pinet,,,Bruno Holmes,(506) 764-2444,(506) 764-2451,,saintjohn,NB,,Nursing Home
Canada-NB-13-NursingHomes-13-NursingHomes-119,RÃ©sidences Inkerman,,,Michel HachÃ©,(506) 336-3909,.,,saintjohn,NB,,Nursing Home
Canada-NB-13-NursingHomes-13-NursingHomes-120,RÃ©sidences Lucien Saindon,,,GaÃ«tan HachÃ©,(506) 344-3232,(506) 344-3240,,saintjohn,NB,,Nursing Home
Canada-NB-13-NursingHomes-13-NursingHomes-121,RÃ©sidences Mgr. Chiasson,,,Anne-Marie Richardson Chiasson,(506) 336-3266,(506) 336-3099,,saintjohn,NB,,Nursing Home
Canada-NB-13-NursingHomes-13-NursingHomes-122,Villa BeausÃ©jour,,,Roger Landry,(506) 726-2744,(506) 726-2745,,saintjohn,NB,,Nursing Home
Canada-NB-13-NursingHomes-13-NursingHomes-123,Villa Chaleur Inc.,,http://www.abschi.com,Victor Shea,(506) 549-5582,(506) 545-6424,,saintjohn,NB,,Nursing Home
Canada-NB-13-NursingHomes-13-NursingHomes-124,Villa Sormany,,,Wayne McWilliams,(506) 542-2731,(506) 542-2733,,saintjohn,NB,,Nursing Home
Canada-NB-13-NursingHomes-13-NursingHomes-125,Villa St-Joseph,,,Serge Robichaud,(506) 394-4800,(506) 394-4826,,saintjohn,NB,,Nursing Home
Canada-NB-13-NursingHomes-13-NursingHomes-126,Foyer Assomption,,,Anne Babineau,(506) 775-2040,(506) 775-2053,,saintjohn,NB,,Nursing Home
Canada-NB-13-NursingHomes-13-NursingHomes-127,Le Complexe Rendez-Vous Inc.,,,Ronald LeBlanc,(506) 776-0640,(506) 776-0608,,saintjohn,NB,,Nursing Home
Canada-NB-13-NursingHomes-13-NursingHomes-128,Miramichi Senior Citizens Home,,,Jean Doyle,(506) 778-6810,(506) 778-6860,,saintjohn,NB,,Nursing Home
Canada-NB-13-NursingHomes-13-NursingHomes-129,Mount St. Joseph,,http://www.mountsj.ca,Debbie Walls,(506) 778-6550,(506) 778-0193,,saintjohn,NB,,Nursing Home
Canada-NB-13-NursingHomes-13-NursingHomes-130,Tabusintac Nursing Home,,,Joanne Sonier,(506) 779-4100,(506) 779-8149,,saintjohn,NB,,Nursing Home
Canada-NB-13-NursingHomes-13-NursingHomes-131,Drew Nursing Home,,http://www.drewnursinghome.ca/,Linda Shannon,(506) 364-4900,(506) 364-4921,,fredericton,NB,,Nursing Home
Canada-NB-13-NursingHomes-13-NursingHomes-132,Forest Dale Home,,http://www.forestdalehome.ca,Vicki Caissie,(506) 882-3015,(506) 882-3014,,fredericton,NB,,Nursing Home
Canada-NB-13-NursingHomes-13-NursingHomes-133,Foyer St-Antoine,,http://www3.nbnet.nb.ca/fsa,George Cormier,(506) 525-4040,(506) 525-4090,,fredericton,NB,,Nursing Home
Canada-NB-13-NursingHomes-13-NursingHomes-134,Jordan Lifecare Centre,,,Gary Buchanan,(506) 756-3355,(506) 756-2081,,fredericton,NB,,Nursing Home
Canada-NB-13-NursingHomes-13-NursingHomes-135,Kenneth E. Spencer,,http://www.abschi.com/,Victor Shea,(506) 858-7870,(506) 858-9674,,fredericton,NB,,Nursing Home
Canada-NB-13-NursingHomes-13-NursingHomes-136,La Villa Maria,,,Jean-Paul Mazerolle,(506) 876-3488,(506) 876-3466,,fredericton,NB,,Nursing Home
Canada-NB-13-NursingHomes-13-NursingHomes-137,Le Foyer St-Thomas (Memramcook),,,Paul Rossignol,(506) 758-2110,(506) 758-9489,,fredericton,NB,,Nursing Home
Canada-NB-13-NursingHomes-13-NursingHomes-138,Manoir St-Jean Baptiste,,,Ian Drapeau,(506) 743-7344,(506) 743-7343,,fredericton,NB,,Nursing Home
Canada-NB-13-NursingHomes-13-NursingHomes-139,Monarch Hall,,http://www.shannex.com,Carole Morey,(506) 387-3168,(506) 387-3167,,fredericton,NB,,Nursing Home
Canada-NB-13-NursingHomes-13-NursingHomes-140,Rexton Lions Nursing Home,,,Nancy Cail,(506) 523-7720,(506) 523-7703,,fredericton,NB,,Nursing Home
Canada-NB-13-NursingHomes-13-NursingHomes-141,The Salvation Army Lakeview Manor,,,Kym Elder,(506) 387-2012,(506) 387-7200,,fredericton,NB,,Nursing Home
Canada-NB-13-NursingHomes-13-NursingHomes-142,Villa du Repos,,,Ronald LeBlanc,(506) 857-3560,(506) 859-1619,,fredericton,NB,,Nursing Home
Canada-NB-13-NursingHomes-13-NursingHomes-143,Villa Providence Shediac,,,Ronald LeBlanc,(506) 532-4484,(506) 532-5909,,fredericton,NB,,Nursing Home
Canada-NB-13-NursingHomes-13-NursingHomes-144,Westford Nursing Home,,http://www.westfordnursinghome.com,Judy White,(506) 538-1302,(506) 538-7293,,fredericton,NB,,Nursing Home
Canada-NB-13-NursingHomes-13-NursingHomes-145,Campobello Lodge,,,Sherry Johnston,(506) 752-7101,(506) 752-7105,,fredericton,NB,,Nursing Home
Canada-NB-13-NursingHomes-13-NursingHomes-146,Carleton Kirk Lodge,,,Tim Stevens,(506) 643-7040,(506) 643-7038,,fredericton,NB,,Nursing Home
Canada-NB-13-NursingHomes-13-NursingHomes-147,Church of St. John & St. Stephen,,,Shelley Fulton,(506) 643-6001,(506) 643-6126,,fredericton,NB,,Nursing Home
Canada-NB-13-NursingHomes-13-NursingHomes-148,Dr. V.A. Snow Centre,,http://www.snownursing.com,Terry O'Neill,(506) 832-6210,(506) 832-7674,,fredericton,NB,,Nursing Home
Canada-NB-13-NursingHomes-13-NursingHomes-149,Embassy Hall,,http://www.shannex.com,John Campbell,(506) 848-3170,(506) 848-3171,,fredericton,NB,,Nursing Home
Canada-NB-13-NursingHomes-13-NursingHomes-150,Fundy Nursing Home,,,Debbie Harris,(506) 456-4218,(506) 456-3057,,fredericton,NB,,Nursing Home
Canada-NB-13-NursingHomes-13-NursingHomes-151,Grand Manan Nursing Home,,,Joanne Ingalls,(506) 662-7111,(506) 662-7117,,fredericton,NB,,Nursing Home
Canada-NB-13-NursingHomes-13-NursingHomes-152,Kennebec Manor,,,Judy Lane,(506) 632-9628,(506) 658-9376,,fredericton,NB,,Nursing Home
Canada-NB-13-NursingHomes-13-NursingHomes-153,Kings Way Care Center,,,Judy Lane,(506) 847-1131,(506) 847-1134,,fredericton,NB,,Nursing Home
Canada-NB-13-NursingHomes-13-NursingHomes-154,Kiwanis Nursing Home,,http://www.kiwanisnursinghome.com,Kerri Marr,(506) 432-3118,(506) 432-3104,,fredericton,NB,,Nursing Home
Canada-NB-13-NursingHomes-13-NursingHomes-155,Lincourt Manor,,,Stacy Butler,(506) 466-7855,(506) 466-7853,,fredericton,NB,,Nursing Home
Canada-NB-13-NursingHomes-13-NursingHomes-156,Loch Lomond Villa,,http://www.lochlomondvilla.com,Cindy Donovan,(506) 643-7175,(506) 643-7179,,fredericton,NB,,Nursing Home
Canada-NB-13-NursingHomes-13-NursingHomes-157,Passamaquoddy Lodge,,http://www.passamaquoddylodge.ca,Lezlie LeBlanc,(506) 529-5240,(506) 529-5258,,fredericton,NB,,Nursing Home
Canada-NB-13-NursingHomes-13-NursingHomes-158,Rocmaura,,http://www.rocmaura.com,Sheana Mohra,(506) 643-7050,(506) 643-7053,,fredericton,NB,,Nursing Home
Canada-NB-13-NursingHomes-13-NursingHomes-159,Turnbull Nursing Home,,,Patti Alcorn,(506) 643-7200,(506) 648-9786,,fredericton,NB,,Nursing Home
Canada-NB-13-NursingHomes-13-NursingHomes-160,Carleton Manor,,http://www.carletonmanor.com,Angela Acott-Smith,(506) 325-4373,(506) 325-4618,,fredericton,NB,,Nursing Home
Canada-NB-13-NursingHomes-13-NursingHomes-161,Central Carleton Nursing Home,,,Kristi Schriver,(506) 375-3033,(506) 375-3035,,fredericton,NB,,Nursing Home
Canada-NB-13-NursingHomes-13-NursingHomes-162,Central N.B. Nursing Home,,,Manley Black,(506) 369-7262,(506) 369-2331,,fredericton,NB,,Nursing Home
Canada-NB-13-NursingHomes-13-NursingHomes-163,Mill Cove Nursing Home,,http://www.millcovenh.com,Dan Gilman,(506) 488-3033,(506) 488-3037,,fredericton,NB,,Nursing Home
Canada-NB-13-NursingHomes-13-NursingHomes-164,Nashwaak Villa,,,Daphne Noonan,(506) 367-7734,(506) 367-7745,,fredericton,NB,,Nursing Home
Canada-NB-13-NursingHomes-13-NursingHomes-165,Orchard View,,http://www.orchardviewcare.ca,Steve Little,(506) 488-3544,(506) 488-3551,,fredericton,NB,,Nursing Home
Canada-NB-13-NursingHomes-13-NursingHomes-166,Pine Grove,,http://www.pinegrovenh.com,Cheryl Wiggins,(506) 444-3400,(506) 444-3407,,fredericton,NB,,Nursing Home
Canada-NB-13-NursingHomes-13-NursingHomes-167,River View Manor,,http://www.riverviewmanor.ca,Guildo Cyr,(506) 278-6030,(506) 278-5962,,fredericton,NB,,Nursing Home
Canada-NB-13-NursingHomes-13-NursingHomes-168,Thomas Hall,,http://www.shannex.com,Pam Bowen,(506) 447-6440,(506) 447-6441,,fredericton,NB,,Nursing Home
Canada-NB-13-NursingHomes-13-NursingHomes-169,Tobique Valley Manor,,,Charlotte Bellefleur,(506) 356-6040,(506) 356-6041,,fredericton,NB,,Nursing Home
Canada-NB-13-NursingHomes-13-NursingHomes-170,Victoria Glen Manor,,http://www.vgm.ca,Donna Miller-Wallace,(506) 273-4885,(506) 273-4975,,fredericton,NB,,Nursing Home
Canada-NB-13-NursingHomes-13-NursingHomes-171,W.G. Bishop Nursing Home,,,Charlene Cobbett,(506) 327-7853,(506) 327-7812,,fredericton,NB,,Nursing Home
Canada-NB-13-NursingHomes-13-NursingHomes-172,Wauklehegan Manor,,http://waukleheganmanor.weebly.com,Mike Harvey,(506) 784-6303,(506) 784-6344,,fredericton,NB,,Nursing Home
Canada-NB-13-NursingHomes-13-NursingHomes-173,White Rapids Manor,,http://www.whiterapidsmanor.nb.ca,Kathy Jenkins,(506) 368-6508,(506) 368-6512,,fredericton,NB,,Nursing Home
Canada-NB-13-NursingHomes-13-NursingHomes-174,York Care Centre,,http://www.yorkmanor.nb.ca,Kevin Harter,(506) 444-3880,(506) 444-3544,,fredericton,NB,,Nursing Home
Canada-NB-13-NursingHomes-13-NursingHomes-175,Foyer Notre-Dame de St-LÃ©onard,,,Violette Thibodeau,(506) 423-3100,(506) 423-3152,,fredericton,NB,,Nursing Home
Canada-NB-13-NursingHomes-13-NursingHomes-176,Foyer Ste-Elizabeth,,,Monique Gendron,(506) 258-3020,(506) 258-3010,,fredericton,NB,,Nursing Home
Canada-NB-13-NursingHomes-13-NursingHomes-177,RÃ©sidence Mgr. Melanson,,,AndrÃ© Savoie,(506) 235-6030,(506) 235-6075,,fredericton,NB,,Nursing Home
Canada-NB-13-NursingHomes-13-NursingHomes-178,RÃ©sidences Jodin,,,David Couturier,(506) 501-3014  ,(506) 501-3015,,fredericton,NB,,Nursing Home
Canada-NB-13-NursingHomes-13-NursingHomes-179,Villa des Chutes,,,AmÃ©lie Cayouette,(506) 473-7726,(506) 473-7849,,fredericton,NB,,Nursing Home
Canada-NB-13-NursingHomes-13-NursingHomes-180,Campbellton Nursing Home,,,Ken Murray,(506) 789-7350,(506) 789-7360,,fredericton,NB,,Nursing Home
Canada-NB-13-NursingHomes-13-NursingHomes-181,Dalhousie Nursing Home,,,Diane LÃ©ger,(506) 684-7800,(506) 684-7832,,fredericton,NB,,Nursing Home
Canada-NB-13-NursingHomes-13-NursingHomes-182,Foyer Notre-Dame de Lourdes,,http://www.fndl.org,LÃ©o-Paul Sonier,(506) 549-5085,(506) 549-5052,,fredericton,NB,,Nursing Home
Canada-NB-13-NursingHomes-13-NursingHomes-183,Manoir Edith B. Pinet,,,Bruno Holmes,(506) 764-2444,(506) 764-2451,,fredericton,NB,,Nursing Home
Canada-NB-13-NursingHomes-13-NursingHomes-184,RÃ©sidences Inkerman,,,Michel HachÃ©,(506) 336-3909,.,,fredericton,NB,,Nursing Home
Canada-NB-13-NursingHomes-13-NursingHomes-185,RÃ©sidences Lucien Saindon,,,GaÃ«tan HachÃ©,(506) 344-3232,(506) 344-3240,,fredericton,NB,,Nursing Home
Canada-NB-13-NursingHomes-13-NursingHomes-186,RÃ©sidences Mgr. Chiasson,,,Anne-Marie Richardson Chiasson,(506) 336-3266,(506) 336-3099,,fredericton,NB,,Nursing Home
Canada-NB-13-NursingHomes-13-NursingHomes-187,Villa BeausÃ©jour,,,Roger Landry,(506) 726-2744,(506) 726-2745,,fredericton,NB,,Nursing Home
Canada-NB-13-NursingHomes-13-NursingHomes-188,Villa Chaleur Inc.,,http://www.abschi.com,Victor Shea,(506) 549-5582,(506) 545-6424,,fredericton,NB,,Nursing Home
Canada-NB-13-NursingHomes-13-NursingHomes-189,Villa Sormany,,,Wayne McWilliams,(506) 542-2731,(506) 542-2733,,fredericton,NB,,Nursing Home
Canada-NB-13-NursingHomes-13-NursingHomes-190,Villa St-Joseph,,,Serge Robichaud,(506) 394-4800,(506) 394-4826,,fredericton,NB,,Nursing Home
Canada-NB-13-NursingHomes-13-NursingHomes-191,Foyer Assomption,,,Anne Babineau,(506) 775-2040,(506) 775-2053,,fredericton,NB,,Nursing Home
Canada-NB-13-NursingHomes-13-NursingHomes-192,Le Complexe Rendez-Vous Inc.,,,Ronald LeBlanc,(506) 776-0640,(506) 776-0608,,fredericton,NB,,Nursing Home
Canada-NB-13-NursingHomes-13-NursingHomes-193,Miramichi Senior Citizens Home,,,Jean Doyle,(506) 778-6810,(506) 778-6860,,fredericton,NB,,Nursing Home
Canada-NB-13-NursingHomes-13-NursingHomes-194,Mount St. Joseph,,http://www.mountsj.ca,Debbie Walls,(506) 778-6550,(506) 778-0193,,fredericton,NB,,Nursing Home
Canada-NB-13-NursingHomes-13-NursingHomes-195,Tabusintac Nursing Home,,,Joanne Sonier,(506) 779-4100,(506) 779-8149,,fredericton,NB,,Nursing Home
Canada-NB-13-NursingHomes-13-NursingHomes-196,Drew Nursing Home,,http://www.drewnursinghome.ca/,Linda Shannon,(506) 364-4900,(506) 364-4921,,edmunston,NB,,Nursing Home
Canada-NB-13-NursingHomes-13-NursingHomes-197,Forest Dale Home,,http://www.forestdalehome.ca,Vicki Caissie,(506) 882-3015,(506) 882-3014,,edmunston,NB,,Nursing Home
Canada-NB-13-NursingHomes-13-NursingHomes-198,Foyer St-Antoine,,http://www3.nbnet.nb.ca/fsa,George Cormier,(506) 525-4040,(506) 525-4090,,edmunston,NB,,Nursing Home
Canada-NB-13-NursingHomes-13-NursingHomes-199,Jordan Lifecare Centre,,,Gary Buchanan,(506) 756-3355,(506) 756-2081,,edmunston,NB,,Nursing Home
Canada-NB-13-NursingHomes-13-NursingHomes-200,Kenneth E. Spencer,,http://www.abschi.com/,Victor Shea,(506) 858-7870,(506) 858-9674,,edmunston,NB,,Nursing Home
Canada-NB-13-NursingHomes-13-NursingHomes-201,La Villa Maria,,,Jean-Paul Mazerolle,(506) 876-3488,(506) 876-3466,,edmunston,NB,,Nursing Home
Canada-NB-13-NursingHomes-13-NursingHomes-202,Le Foyer St-Thomas (Memramcook),,,Paul Rossignol,(506) 758-2110,(506) 758-9489,,edmunston,NB,,Nursing Home
Canada-NB-13-NursingHomes-13-NursingHomes-203,Manoir St-Jean Baptiste,,,Ian Drapeau,(506) 743-7344,(506) 743-7343,,edmunston,NB,,Nursing Home
Canada-NB-13-NursingHomes-13-NursingHomes-204,Monarch Hall,,http://www.shannex.com,Carole Morey,(506) 387-3168,(506) 387-3167,,edmunston,NB,,Nursing Home
Canada-NB-13-NursingHomes-13-NursingHomes-205,Rexton Lions Nursing Home,,,Nancy Cail,(506) 523-7720,(506) 523-7703,,edmunston,NB,,Nursing Home
Canada-NB-13-NursingHomes-13-NursingHomes-206,The Salvation Army Lakeview Manor,,,Kym Elder,(506) 387-2012,(506) 387-7200,,edmunston,NB,,Nursing Home
Canada-NB-13-NursingHomes-13-NursingHomes-207,Villa du Repos,,,Ronald LeBlanc,(506) 857-3560,(506) 859-1619,,edmunston,NB,,Nursing Home
Canada-NB-13-NursingHomes-13-NursingHomes-208,Villa Providence Shediac,,,Ronald LeBlanc,(506) 532-4484,(506) 532-5909,,edmunston,NB,,Nursing Home
Canada-NB-13-NursingHomes-13-NursingHomes-209,Westford Nursing Home,,http://www.westfordnursinghome.com,Judy White,(506) 538-1302,(506) 538-7293,,edmunston,NB,,Nursing Home
Canada-NB-13-NursingHomes-13-NursingHomes-210,Campobello Lodge,,,Sherry Johnston,(506) 752-7101,(506) 752-7105,,edmunston,NB,,Nursing Home
Canada-NB-13-NursingHomes-13-NursingHomes-211,Carleton Kirk Lodge,,,Tim Stevens,(506) 643-7040,(506) 643-7038,,edmunston,NB,,Nursing Home
Canada-NB-13-NursingHomes-13-NursingHomes-212,Church of St. John & St. Stephen,,,Shelley Fulton,(506) 643-6001,(506) 643-6126,,edmunston,NB,,Nursing Home
Canada-NB-13-NursingHomes-13-NursingHomes-213,Dr. V.A. Snow Centre,,http://www.snownursing.com,Terry O'Neill,(506) 832-6210,(506) 832-7674,,edmunston,NB,,Nursing Home
Canada-NB-13-NursingHomes-13-NursingHomes-214,Embassy Hall,,http://www.shannex.com,John Campbell,(506) 848-3170,(506) 848-3171,,edmunston,NB,,Nursing Home
Canada-NB-13-NursingHomes-13-NursingHomes-215,Fundy Nursing Home,,,Debbie Harris,(506) 456-4218,(506) 456-3057,,edmunston,NB,,Nursing Home
Canada-NB-13-NursingHomes-13-NursingHomes-216,Grand Manan Nursing Home,,,Joanne Ingalls,(506) 662-7111,(506) 662-7117,,edmunston,NB,,Nursing Home
Canada-NB-13-NursingHomes-13-NursingHomes-217,Kennebec Manor,,,Judy Lane,(506) 632-9628,(506) 658-9376,,edmunston,NB,,Nursing Home
Canada-NB-13-NursingHomes-13-NursingHomes-218,Kings Way Care Center,,,Judy Lane,(506) 847-1131,(506) 847-1134,,edmunston,NB,,Nursing Home
Canada-NB-13-NursingHomes-13-NursingHomes-219,Kiwanis Nursing Home,,http://www.kiwanisnursinghome.com,Kerri Marr,(506) 432-3118,(506) 432-3104,,edmunston,NB,,Nursing Home
Canada-NB-13-NursingHomes-13-NursingHomes-220,Lincourt Manor,,,Stacy Butler,(506) 466-7855,(506) 466-7853,,edmunston,NB,,Nursing Home
Canada-NB-13-NursingHomes-13-NursingHomes-221,Loch Lomond Villa,,http://www.lochlomondvilla.com,Cindy Donovan,(506) 643-7175,(506) 643-7179,,edmunston,NB,,Nursing Home
Canada-NB-13-NursingHomes-13-NursingHomes-222,Passamaquoddy Lodge,,http://www.passamaquoddylodge.ca,Lezlie LeBlanc,(506) 529-5240,(506) 529-5258,,edmunston,NB,,Nursing Home
Canada-NB-13-NursingHomes-13-NursingHomes-223,Rocmaura,,http://www.rocmaura.com,Sheana Mohra,(506) 643-7050,(506) 643-7053,,edmunston,NB,,Nursing Home
Canada-NB-13-NursingHomes-13-NursingHomes-224,Turnbull Nursing Home,,,Patti Alcorn,(506) 643-7200,(506) 648-9786,,edmunston,NB,,Nursing Home
Canada-NB-13-NursingHomes-13-NursingHomes-225,Carleton Manor,,http://www.carletonmanor.com,Angela Acott-Smith,(506) 325-4373,(506) 325-4618,,edmunston,NB,,Nursing Home
Canada-NB-13-NursingHomes-13-NursingHomes-226,Central Carleton Nursing Home,,,Kristi Schriver,(506) 375-3033,(506) 375-3035,,edmunston,NB,,Nursing Home
Canada-NB-13-NursingHomes-13-NursingHomes-227,Central N.B. Nursing Home,,,Manley Black,(506) 369-7262,(506) 369-2331,,edmunston,NB,,Nursing Home
Canada-NB-13-NursingHomes-13-NursingHomes-228,Mill Cove Nursing Home,,http://www.millcovenh.com,Dan Gilman,(506) 488-3033,(506) 488-3037,,edmunston,NB,,Nursing Home
Canada-NB-13-NursingHomes-13-NursingHomes-229,Nashwaak Villa,,,Daphne Noonan,(506) 367-7734,(506) 367-7745,,edmunston,NB,,Nursing Home
Canada-NB-13-NursingHomes-13-NursingHomes-230,Orchard View,,http://www.orchardviewcare.ca,Steve Little,(506) 488-3544,(506) 488-3551,,edmunston,NB,,Nursing Home
Canada-NB-13-NursingHomes-13-NursingHomes-231,Pine Grove,,http://www.pinegrovenh.com,Cheryl Wiggins,(506) 444-3400,(506) 444-3407,,edmunston,NB,,Nursing Home
Canada-NB-13-NursingHomes-13-NursingHomes-232,River View Manor,,http://www.riverviewmanor.ca,Guildo Cyr,(506) 278-6030,(506) 278-5962,,edmunston,NB,,Nursing Home
Canada-NB-13-NursingHomes-13-NursingHomes-233,Thomas Hall,,http://www.shannex.com,Pam Bowen,(506) 447-6440,(506) 447-6441,,edmunston,NB,,Nursing Home
Canada-NB-13-NursingHomes-13-NursingHomes-234,Tobique Valley Manor,,,Charlotte Bellefleur,(506) 356-6040,(506) 356-6041,,edmunston,NB,,Nursing Home
Canada-NB-13-NursingHomes-13-NursingHomes-235,Victoria Glen Manor,,http://www.vgm.ca,Donna Miller-Wallace,(506) 273-4885,(506) 273-4975,,edmunston,NB,,Nursing Home
Canada-NB-13-NursingHomes-13-NursingHomes-236,W.G. Bishop Nursing Home,,,Charlene Cobbett,(506) 327-7853,(506) 327-7812,,edmunston,NB,,Nursing Home
Canada-NB-13-NursingHomes-13-NursingHomes-237,Wauklehegan Manor,,http://waukleheganmanor.weebly.com,Mike Harvey,(506) 784-6303,(506) 784-6344,,edmunston,NB,,Nursing Home
Canada-NB-13-NursingHomes-13-NursingHomes-238,White Rapids Manor,,http://www.whiterapidsmanor.nb.ca,Kathy Jenkins,(506) 368-6508,(506) 368-6512,,edmunston,NB,,Nursing Home
Canada-NB-13-NursingHomes-13-NursingHomes-239,York Care Centre,,http://www.yorkmanor.nb.ca,Kevin Harter,(506) 444-3880,(506) 444-3544,,edmunston,NB,,Nursing Home
Canada-NB-13-NursingHomes-13-NursingHomes-240,Foyer Notre-Dame de St-LÃ©onard,,,Violette Thibodeau,(506) 423-3100,(506) 423-3152,,edmunston,NB,,Nursing Home
Canada-NB-13-NursingHomes-13-NursingHomes-241,Foyer Ste-Elizabeth,,,Monique Gendron,(506) 258-3020,(506) 258-3010,,edmunston,NB,,Nursing Home
Canada-NB-13-NursingHomes-13-NursingHomes-242,RÃ©sidence Mgr. Melanson,,,AndrÃ© Savoie,(506) 235-6030,(506) 235-6075,,edmunston,NB,,Nursing Home
Canada-NB-13-NursingHomes-13-NursingHomes-243,RÃ©sidences Jodin,,,David Couturier,(506) 501-3014  ,(506) 501-3015,,edmunston,NB,,Nursing Home
Canada-NB-13-NursingHomes-13-NursingHomes-244,Villa des Chutes,,,AmÃ©lie Cayouette,(506) 473-7726,(506) 473-7849,,edmunston,NB,,Nursing Home
Canada-NB-13-NursingHomes-13-NursingHomes-245,Campbellton Nursing Home,,,Ken Murray,(506) 789-7350,(506) 789-7360,,edmunston,NB,,Nursing Home
Canada-NB-13-NursingHomes-13-NursingHomes-246,Dalhousie Nursing Home,,,Diane LÃ©ger,(506) 684-7800,(506) 684-7832,,edmunston,NB,,Nursing Home
Canada-NB-13-NursingHomes-13-NursingHomes-247,Foyer Notre-Dame de Lourdes,,http://www.fndl.org,LÃ©o-Paul Sonier,(506) 549-5085,(506) 549-5052,,edmunston,NB,,Nursing Home
Canada-NB-13-NursingHomes-13-NursingHomes-248,Manoir Edith B. Pinet,,,Bruno Holmes,(506) 764-2444,(506) 764-2451,,edmunston,NB,,Nursing Home
Canada-NB-13-NursingHomes-13-NursingHomes-249,RÃ©sidences Inkerman,,,Michel HachÃ©,(506) 336-3909,.,,edmunston,NB,,Nursing Home
Canada-NB-13-NursingHomes-13-NursingHomes-250,RÃ©sidences Lucien Saindon,,,GaÃ«tan HachÃ©,(506) 344-3232,(506) 344-3240,,edmunston,NB,,Nursing Home
Canada-NB-13-NursingHomes-13-NursingHomes-251,RÃ©sidences Mgr. Chiasson,,,Anne-Marie Richardson Chiasson,(506) 336-3266,(506) 336-3099,,edmunston,NB,,Nursing Home
Canada-NB-13-NursingHomes-13-NursingHomes-252,Villa BeausÃ©jour,,,Roger Landry,(506) 726-2744,(506) 726-2745,,edmunston,NB,,Nursing Home
Canada-NB-13-NursingHomes-13-NursingHomes-253,Villa Chaleur Inc.,,http://www.abschi.com,Victor Shea,(506) 549-5582,(506) 545-6424,,edmunston,NB,,Nursing Home
Canada-NB-13-NursingHomes-13-NursingHomes-254,Villa Sormany,,,Wayne McWilliams,(506) 542-2731,(506) 542-2733,,edmunston,NB,,Nursing Home
Canada-NB-13-NursingHomes-13-NursingHomes-255,Villa St-Joseph,,,Serge Robichaud,(506) 394-4800,(506) 394-4826,,edmunston,NB,,Nursing Home
Canada-NB-13-NursingHomes-13-NursingHomes-256,Foyer Assomption,,,Anne Babineau,(506) 775-2040,(506) 775-2053,,edmunston,NB,,Nursing Home
Canada-NB-13-NursingHomes-13-NursingHomes-257,Le Complexe Rendez-Vous Inc.,,,Ronald LeBlanc,(506) 776-0640,(506) 776-0608,,edmunston,NB,,Nursing Home
Canada-NB-13-NursingHomes-13-NursingHomes-258,Miramichi Senior Citizens Home,,,Jean Doyle,(506) 778-6810,(506) 778-6860,,edmunston,NB,,Nursing Home
Canada-NB-13-NursingHomes-13-NursingHomes-259,Mount St. Joseph,,http://www.mountsj.ca,Debbie Walls,(506) 778-6550,(506) 778-0193,,edmunston,NB,,Nursing Home
Canada-NB-13-NursingHomes-13-NursingHomes-260,Tabusintac Nursing Home,,,Joanne Sonier,(506) 779-4100,(506) 779-8149,,edmunston,NB,,Nursing Home
Canada-NB-13-NursingHomes-13-NursingHomes-261,Drew Nursing Home,,http://www.drewnursinghome.ca/,Linda Shannon,(506) 364-4900,(506) 364-4921,,campbellton,NB,,Nursing Home
Canada-NB-13-NursingHomes-13-NursingHomes-262,Forest Dale Home,,http://www.forestdalehome.ca,Vicki Caissie,(506) 882-3015,(506) 882-3014,,campbellton,NB,,Nursing Home
Canada-NB-13-NursingHomes-13-NursingHomes-263,Foyer St-Antoine,,http://www3.nbnet.nb.ca/fsa,George Cormier,(506) 525-4040,(506) 525-4090,,campbellton,NB,,Nursing Home
Canada-NB-13-NursingHomes-13-NursingHomes-264,Jordan Lifecare Centre,,,Gary Buchanan,(506) 756-3355,(506) 756-2081,,campbellton,NB,,Nursing Home
Canada-NB-13-NursingHomes-13-NursingHomes-265,Kenneth E. Spencer,,http://www.abschi.com/,Victor Shea,(506) 858-7870,(506) 858-9674,,campbellton,NB,,Nursing Home
Canada-NB-13-NursingHomes-13-NursingHomes-266,La Villa Maria,,,Jean-Paul Mazerolle,(506) 876-3488,(506) 876-3466,,campbellton,NB,,Nursing Home
Canada-NB-13-NursingHomes-13-NursingHomes-267,Le Foyer St-Thomas (Memramcook),,,Paul Rossignol,(506) 758-2110,(506) 758-9489,,campbellton,NB,,Nursing Home
Canada-NB-13-NursingHomes-13-NursingHomes-268,Manoir St-Jean Baptiste,,,Ian Drapeau,(506) 743-7344,(506) 743-7343,,campbellton,NB,,Nursing Home
Canada-NB-13-NursingHomes-13-NursingHomes-269,Monarch Hall,,http://www.shannex.com,Carole Morey,(506) 387-3168,(506) 387-3167,,campbellton,NB,,Nursing Home
Canada-NB-13-NursingHomes-13-NursingHomes-270,Rexton Lions Nursing Home,,,Nancy Cail,(506) 523-7720,(506) 523-7703,,campbellton,NB,,Nursing Home
Canada-NB-13-NursingHomes-13-NursingHomes-271,The Salvation Army Lakeview Manor,,,Kym Elder,(506) 387-2012,(506) 387-7200,,campbellton,NB,,Nursing Home
Canada-NB-13-NursingHomes-13-NursingHomes-272,Villa du Repos,,,Ronald LeBlanc,(506) 857-3560,(506) 859-1619,,campbellton,NB,,Nursing Home
Canada-NB-13-NursingHomes-13-NursingHomes-273,Villa Providence Shediac,,,Ronald LeBlanc,(506) 532-4484,(506) 532-5909,,campbellton,NB,,Nursing Home
Canada-NB-13-NursingHomes-13-NursingHomes-274,Westford Nursing Home,,http://www.westfordnursinghome.com,Judy White,(506) 538-1302,(506) 538-7293,,campbellton,NB,,Nursing Home
Canada-NB-13-NursingHomes-13-NursingHomes-275,Campobello Lodge,,,Sherry Johnston,(506) 752-7101,(506) 752-7105,,campbellton,NB,,Nursing Home
Canada-NB-13-NursingHomes-13-NursingHomes-276,Carleton Kirk Lodge,,,Tim Stevens,(506) 643-7040,(506) 643-7038,,campbellton,NB,,Nursing Home
Canada-NB-13-NursingHomes-13-NursingHomes-277,Church of St. John & St. Stephen,,,Shelley Fulton,(506) 643-6001,(506) 643-6126,,campbellton,NB,,Nursing Home
Canada-NB-13-NursingHomes-13-NursingHomes-278,Dr. V.A. Snow Centre,,http://www.snownursing.com,Terry O'Neill,(506) 832-6210,(506) 832-7674,,campbellton,NB,,Nursing Home
Canada-NB-13-NursingHomes-13-NursingHomes-279,Embassy Hall,,http://www.shannex.com,John Campbell,(506) 848-3170,(506) 848-3171,,campbellton,NB,,Nursing Home
Canada-NB-13-NursingHomes-13-NursingHomes-280,Fundy Nursing Home,,,Debbie Harris,(506) 456-4218,(506) 456-3057,,campbellton,NB,,Nursing Home
Canada-NB-13-NursingHomes-13-NursingHomes-281,Grand Manan Nursing Home,,,Joanne Ingalls,(506) 662-7111,(506) 662-7117,,campbellton,NB,,Nursing Home
Canada-NB-13-NursingHomes-13-NursingHomes-282,Kennebec Manor,,,Judy Lane,(506) 632-9628,(506) 658-9376,,campbellton,NB,,Nursing Home
Canada-NB-13-NursingHomes-13-NursingHomes-283,Kings Way Care Center,,,Judy Lane,(506) 847-1131,(506) 847-1134,,campbellton,NB,,Nursing Home
Canada-NB-13-NursingHomes-13-NursingHomes-284,Kiwanis Nursing Home,,http://www.kiwanisnursinghome.com,Kerri Marr,(506) 432-3118,(506) 432-3104,,campbellton,NB,,Nursing Home
Canada-NB-13-NursingHomes-13-NursingHomes-285,Lincourt Manor,,,Stacy Butler,(506) 466-7855,(506) 466-7853,,campbellton,NB,,Nursing Home
Canada-NB-13-NursingHomes-13-NursingHomes-286,Loch Lomond Villa,,http://www.lochlomondvilla.com,Cindy Donovan,(506) 643-7175,(506) 643-7179,,campbellton,NB,,Nursing Home
Canada-NB-13-NursingHomes-13-NursingHomes-287,Passamaquoddy Lodge,,http://www.passamaquoddylodge.ca,Lezlie LeBlanc,(506) 529-5240,(506) 529-5258,,campbellton,NB,,Nursing Home
Canada-NB-13-NursingHomes-13-NursingHomes-288,Rocmaura,,http://www.rocmaura.com,Sheana Mohra,(506) 643-7050,(506) 643-7053,,campbellton,NB,,Nursing Home
Canada-NB-13-NursingHomes-13-NursingHomes-289,Turnbull Nursing Home,,,Patti Alcorn,(506) 643-7200,(506) 648-9786,,campbellton,NB,,Nursing Home
Canada-NB-13-NursingHomes-13-NursingHomes-290,Carleton Manor,,http://www.carletonmanor.com,Angela Acott-Smith,(506) 325-4373,(506) 325-4618,,campbellton,NB,,Nursing Home
Canada-NB-13-NursingHomes-13-NursingHomes-291,Central Carleton Nursing Home,,,Kristi Schriver,(506) 375-3033,(506) 375-3035,,campbellton,NB,,Nursing Home
Canada-NB-13-NursingHomes-13-NursingHomes-292,Central N.B. Nursing Home,,,Manley Black,(506) 369-7262,(506) 369-2331,,campbellton,NB,,Nursing Home
Canada-NB-13-NursingHomes-13-NursingHomes-293,Mill Cove Nursing Home,,http://www.millcovenh.com,Dan Gilman,(506) 488-3033,(506) 488-3037,,campbellton,NB,,Nursing Home
Canada-NB-13-NursingHomes-13-NursingHomes-294,Nashwaak Villa,,,Daphne Noonan,(506) 367-7734,(506) 367-7745,,campbellton,NB,,Nursing Home
Canada-NB-13-NursingHomes-13-NursingHomes-295,Orchard View,,http://www.orchardviewcare.ca,Steve Little,(506) 488-3544,(506) 488-3551,,campbellton,NB,,Nursing Home
Canada-NB-13-NursingHomes-13-NursingHomes-296,Pine Grove,,http://www.pinegrovenh.com,Cheryl Wiggins,(506) 444-3400,(506) 444-3407,,campbellton,NB,,Nursing Home
Canada-NB-13-NursingHomes-13-NursingHomes-297,River View Manor,,http://www.riverviewmanor.ca,Guildo Cyr,(506) 278-6030,(506) 278-5962,,campbellton,NB,,Nursing Home
Canada-NB-13-NursingHomes-13-NursingHomes-298,Thomas Hall,,http://www.shannex.com,Pam Bowen,(506) 447-6440,(506) 447-6441,,campbellton,NB,,Nursing Home
Canada-NB-13-NursingHomes-13-NursingHomes-299,Tobique Valley Manor,,,Charlotte Bellefleur,(506) 356-6040,(506) 356-6041,,campbellton,NB,,Nursing Home
Canada-NB-13-NursingHomes-13-NursingHomes-300,Victoria Glen Manor,,http://www.vgm.ca,Donna Miller-Wallace,(506) 273-4885,(506) 273-4975,,campbellton,NB,,Nursing Home
Canada-NB-13-NursingHomes-13-NursingHomes-301,W.G. Bishop Nursing Home,,,Charlene Cobbett,(506) 327-7853,(506) 327-7812,,campbellton,NB,,Nursing Home
Canada-NB-13-NursingHomes-13-NursingHomes-302,Wauklehegan Manor,,http://waukleheganmanor.weebly.com,Mike Harvey,(506) 784-6303,(506) 784-6344,,campbellton,NB,,Nursing Home
Canada-NB-13-NursingHomes-13-NursingHomes-303,White Rapids Manor,,http://www.whiterapidsmanor.nb.ca,Kathy Jenkins,(506) 368-6508,(506) 368-6512,,campbellton,NB,,Nursing Home
Canada-NB-13-NursingHomes-13-NursingHomes-304,York Care Centre,,http://www.yorkmanor.nb.ca,Kevin Harter,(506) 444-3880,(506) 444-3544,,campbellton,NB,,Nursing Home
Canada-NB-13-NursingHomes-13-NursingHomes-305,Foyer Notre-Dame de St-LÃ©onard,,,Violette Thibodeau,(506) 423-3100,(506) 423-3152,,campbellton,NB,,Nursing Home
Canada-NB-13-NursingHomes-13-NursingHomes-306,Foyer Ste-Elizabeth,,,Monique Gendron,(506) 258-3020,(506) 258-3010,,campbellton,NB,,Nursing Home
Canada-NB-13-NursingHomes-13-NursingHomes-307,RÃ©sidence Mgr. Melanson,,,AndrÃ© Savoie,(506) 235-6030,(506) 235-6075,,campbellton,NB,,Nursing Home
Canada-NB-13-NursingHomes-13-NursingHomes-308,RÃ©sidences Jodin,,,David Couturier,(506) 501-3014  ,(506) 501-3015,,campbellton,NB,,Nursing Home
Canada-NB-13-NursingHomes-13-NursingHomes-309,Villa des Chutes,,,AmÃ©lie Cayouette,(506) 473-7726,(506) 473-7849,,campbellton,NB,,Nursing Home
Canada-NB-13-NursingHomes-13-NursingHomes-310,Campbellton Nursing Home,,,Ken Murray,(506) 789-7350,(506) 789-7360,,campbellton,NB,,Nursing Home
Canada-NB-13-NursingHomes-13-NursingHomes-311,Dalhousie Nursing Home,,,Diane LÃ©ger,(506) 684-7800,(506) 684-7832,,campbellton,NB,,Nursing Home
Canada-NB-13-NursingHomes-13-NursingHomes-312,Foyer Notre-Dame de Lourdes,,http://www.fndl.org,LÃ©o-Paul Sonier,(506) 549-5085,(506) 549-5052,,campbellton,NB,,Nursing Home
Canada-NB-13-NursingHomes-13-NursingHomes-313,Manoir Edith B. Pinet,,,Bruno Holmes,(506) 764-2444,(506) 764-2451,,campbellton,NB,,Nursing Home
Canada-NB-13-NursingHomes-13-NursingHomes-314,RÃ©sidences Inkerman,,,Michel HachÃ©,(506) 336-3909,.,,campbellton,NB,,Nursing Home
Canada-NB-13-NursingHomes-13-NursingHomes-315,RÃ©sidences Lucien Saindon,,,GaÃ«tan HachÃ©,(506) 344-3232,(506) 344-3240,,campbellton,NB,,Nursing Home
Canada-NB-13-NursingHomes-13-NursingHomes-316,RÃ©sidences Mgr. Chiasson,,,Anne-Marie Richardson Chiasson,(506) 336-3266,(506) 336-3099,,campbellton,NB,,Nursing Home
Canada-NB-13-NursingHomes-13-NursingHomes-317,Villa BeausÃ©jour,,,Roger Landry,(506) 726-2744,(506) 726-2745,,campbellton,NB,,Nursing Home
Canada-NB-13-NursingHomes-13-NursingHomes-318,Villa Chaleur Inc.,,http://www.abschi.com,Victor Shea,(506) 549-5582,(506) 545-6424,,campbellton,NB,,Nursing Home
Canada-NB-13-NursingHomes-13-NursingHomes-319,Villa Sormany,,,Wayne McWilliams,(506) 542-2731,(506) 542-2733,,campbellton,NB,,Nursing Home
Canada-NB-13-NursingHomes-13-NursingHomes-320,Villa St-Joseph,,,Serge Robichaud,(506) 394-4800,(506) 394-4826,,campbellton,NB,,Nursing Home
Canada-NB-13-NursingHomes-13-NursingHomes-321,Foyer Assomption,,,Anne Babineau,(506) 775-2040,(506) 775-2053,,campbellton,NB,,Nursing Home
Canada-NB-13-NursingHomes-13-NursingHomes-322,Le Complexe Rendez-Vous Inc.,,,Ronald LeBlanc,(506) 776-0640,(506) 776-0608,,campbellton,NB,,Nursing Home
Canada-NB-13-NursingHomes-13-NursingHomes-323,Miramichi Senior Citizens Home,,,Jean Doyle,(506) 778-6810,(506) 778-6860,,campbellton,NB,,Nursing Home
Canada-NB-13-NursingHomes-13-NursingHomes-324,Mount St. Joseph,,http://www.mountsj.ca,Debbie Walls,(506) 778-6550,(506) 778-0193,,campbellton,NB,,Nursing Home
Canada-NB-13-NursingHomes-13-NursingHomes-325,Tabusintac Nursing Home,,,Joanne Sonier,(506) 779-4100,(506) 779-8149,,campbellton,NB,,Nursing Home
Canada-NB-13-NursingHomes-13-NursingHomes-326,Drew Nursing Home,,http://www.drewnursinghome.ca/,Linda Shannon,(506) 364-4900,(506) 364-4921,,bathurst,NB,,Nursing Home
Canada-NB-13-NursingHomes-13-NursingHomes-327,Forest Dale Home,,http://www.forestdalehome.ca,Vicki Caissie,(506) 882-3015,(506) 882-3014,,bathurst,NB,,Nursing Home
Canada-NB-13-NursingHomes-13-NursingHomes-328,Foyer St-Antoine,,http://www3.nbnet.nb.ca/fsa,George Cormier,(506) 525-4040,(506) 525-4090,,bathurst,NB,,Nursing Home
Canada-NB-13-NursingHomes-13-NursingHomes-329,Jordan Lifecare Centre,,,Gary Buchanan,(506) 756-3355,(506) 756-2081,,bathurst,NB,,Nursing Home
Canada-NB-13-NursingHomes-13-NursingHomes-330,Kenneth E. Spencer,,http://www.abschi.com/,Victor Shea,(506) 858-7870,(506) 858-9674,,bathurst,NB,,Nursing Home
Canada-NB-13-NursingHomes-13-NursingHomes-331,La Villa Maria,,,Jean-Paul Mazerolle,(506) 876-3488,(506) 876-3466,,bathurst,NB,,Nursing Home
Canada-NB-13-NursingHomes-13-NursingHomes-332,Le Foyer St-Thomas (Memramcook),,,Paul Rossignol,(506) 758-2110,(506) 758-9489,,bathurst,NB,,Nursing Home
Canada-NB-13-NursingHomes-13-NursingHomes-333,Manoir St-Jean Baptiste,,,Ian Drapeau,(506) 743-7344,(506) 743-7343,,bathurst,NB,,Nursing Home
Canada-NB-13-NursingHomes-13-NursingHomes-334,Monarch Hall,,http://www.shannex.com,Carole Morey,(506) 387-3168,(506) 387-3167,,bathurst,NB,,Nursing Home
Canada-NB-13-NursingHomes-13-NursingHomes-335,Rexton Lions Nursing Home,,,Nancy Cail,(506) 523-7720,(506) 523-7703,,bathurst,NB,,Nursing Home
Canada-NB-13-NursingHomes-13-NursingHomes-336,The Salvation Army Lakeview Manor,,,Kym Elder,(506) 387-2012,(506) 387-7200,,bathurst,NB,,Nursing Home
Canada-NB-13-NursingHomes-13-NursingHomes-337,Villa du Repos,,,Ronald LeBlanc,(506) 857-3560,(506) 859-1619,,bathurst,NB,,Nursing Home
Canada-NB-13-NursingHomes-13-NursingHomes-338,Villa Providence Shediac,,,Ronald LeBlanc,(506) 532-4484,(506) 532-5909,,bathurst,NB,,Nursing Home
Canada-NB-13-NursingHomes-13-NursingHomes-339,Westford Nursing Home,,http://www.westfordnursinghome.com,Judy White,(506) 538-1302,(506) 538-7293,,bathurst,NB,,Nursing Home
Canada-NB-13-NursingHomes-13-NursingHomes-340,Campobello Lodge,,,Sherry Johnston,(506) 752-7101,(506) 752-7105,,bathurst,NB,,Nursing Home
Canada-NB-13-NursingHomes-13-NursingHomes-341,Carleton Kirk Lodge,,,Tim Stevens,(506) 643-7040,(506) 643-7038,,bathurst,NB,,Nursing Home
Canada-NB-13-NursingHomes-13-NursingHomes-342,Church of St. John & St. Stephen,,,Shelley Fulton,(506) 643-6001,(506) 643-6126,,bathurst,NB,,Nursing Home
Canada-NB-13-NursingHomes-13-NursingHomes-343,Dr. V.A. Snow Centre,,http://www.snownursing.com,Terry O'Neill,(506) 832-6210,(506) 832-7674,,bathurst,NB,,Nursing Home
Canada-NB-13-NursingHomes-13-NursingHomes-344,Embassy Hall,,http://www.shannex.com,John Campbell,(506) 848-3170,(506) 848-3171,,bathurst,NB,,Nursing Home
Canada-NB-13-NursingHomes-13-NursingHomes-345,Fundy Nursing Home,,,Debbie Harris,(506) 456-4218,(506) 456-3057,,bathurst,NB,,Nursing Home
Canada-NB-13-NursingHomes-13-NursingHomes-346,Grand Manan Nursing Home,,,Joanne Ingalls,(506) 662-7111,(506) 662-7117,,bathurst,NB,,Nursing Home
Canada-NB-13-NursingHomes-13-NursingHomes-347,Kennebec Manor,,,Judy Lane,(506) 632-9628,(506) 658-9376,,bathurst,NB,,Nursing Home
Canada-NB-13-NursingHomes-13-NursingHomes-348,Kings Way Care Center,,,Judy Lane,(506) 847-1131,(506) 847-1134,,bathurst,NB,,Nursing Home
Canada-NB-13-NursingHomes-13-NursingHomes-349,Kiwanis Nursing Home,,http://www.kiwanisnursinghome.com,Kerri Marr,(506) 432-3118,(506) 432-3104,,bathurst,NB,,Nursing Home
Canada-NB-13-NursingHomes-13-NursingHomes-350,Lincourt Manor,,,Stacy Butler,(506) 466-7855,(506) 466-7853,,bathurst,NB,,Nursing Home
Canada-NB-13-NursingHomes-13-NursingHomes-351,Loch Lomond Villa,,http://www.lochlomondvilla.com,Cindy Donovan,(506) 643-7175,(506) 643-7179,,bathurst,NB,,Nursing Home
Canada-NB-13-NursingHomes-13-NursingHomes-352,Passamaquoddy Lodge,,http://www.passamaquoddylodge.ca,Lezlie LeBlanc,(506) 529-5240,(506) 529-5258,,bathurst,NB,,Nursing Home
Canada-NB-13-NursingHomes-13-NursingHomes-353,Rocmaura,,http://www.rocmaura.com,Sheana Mohra,(506) 643-7050,(506) 643-7053,,bathurst,NB,,Nursing Home
Canada-NB-13-NursingHomes-13-NursingHomes-354,Turnbull Nursing Home,,,Patti Alcorn,(506) 643-7200,(506) 648-9786,,bathurst,NB,,Nursing Home
Canada-NB-13-NursingHomes-13-NursingHomes-355,Carleton Manor,,http://www.carletonmanor.com,Angela Acott-Smith,(506) 325-4373,(506) 325-4618,,bathurst,NB,,Nursing Home
Canada-NB-13-NursingHomes-13-NursingHomes-356,Central Carleton Nursing Home,,,Kristi Schriver,(506) 375-3033,(506) 375-3035,,bathurst,NB,,Nursing Home
Canada-NB-13-NursingHomes-13-NursingHomes-357,Central N.B. Nursing Home,,,Manley Black,(506) 369-7262,(506) 369-2331,,bathurst,NB,,Nursing Home
Canada-NB-13-NursingHomes-13-NursingHomes-358,Mill Cove Nursing Home,,http://www.millcovenh.com,Dan Gilman,(506) 488-3033,(506) 488-3037,,bathurst,NB,,Nursing Home
Canada-NB-13-NursingHomes-13-NursingHomes-359,Nashwaak Villa,,,Daphne Noonan,(506) 367-7734,(506) 367-7745,,bathurst,NB,,Nursing Home
Canada-NB-13-NursingHomes-13-NursingHomes-360,Orchard View,,http://www.orchardviewcare.ca,Steve Little,(506) 488-3544,(506) 488-3551,,bathurst,NB,,Nursing Home
Canada-NB-13-NursingHomes-13-NursingHomes-361,Pine Grove,,http://www.pinegrovenh.com,Cheryl Wiggins,(506) 444-3400,(506) 444-3407,,bathurst,NB,,Nursing Home
Canada-NB-13-NursingHomes-13-NursingHomes-362,River View Manor,,http://www.riverviewmanor.ca,Guildo Cyr,(506) 278-6030,(506) 278-5962,,bathurst,NB,,Nursing Home
Canada-NB-13-NursingHomes-13-NursingHomes-363,Thomas Hall,,http://www.shannex.com,Pam Bowen,(506) 447-6440,(506) 447-6441,,bathurst,NB,,Nursing Home
Canada-NB-13-NursingHomes-13-NursingHomes-364,Tobique Valley Manor,,,Charlotte Bellefleur,(506) 356-6040,(506) 356-6041,,bathurst,NB,,Nursing Home
Canada-NB-13-NursingHomes-13-NursingHomes-365,Victoria Glen Manor,,http://www.vgm.ca,Donna Miller-Wallace,(506) 273-4885,(506) 273-4975,,bathurst,NB,,Nursing Home
Canada-NB-13-NursingHomes-13-NursingHomes-366,W.G. Bishop Nursing Home,,,Charlene Cobbett,(506) 327-7853,(506) 327-7812,,bathurst,NB,,Nursing Home
Canada-NB-13-NursingHomes-13-NursingHomes-367,Wauklehegan Manor,,http://waukleheganmanor.weebly.com,Mike Harvey,(506) 784-6303,(506) 784-6344,,bathurst,NB,,Nursing Home
Canada-NB-13-NursingHomes-13-NursingHomes-368,White Rapids Manor,,http://www.whiterapidsmanor.nb.ca,Kathy Jenkins,(506) 368-6508,(506) 368-6512,,bathurst,NB,,Nursing Home
Canada-NB-13-NursingHomes-13-NursingHomes-369,York Care Centre,,http://www.yorkmanor.nb.ca,Kevin Harter,(506) 444-3880,(506) 444-3544,,bathurst,NB,,Nursing Home
Canada-NB-13-NursingHomes-13-NursingHomes-370,Foyer Notre-Dame de St-LÃ©onard,,,Violette Thibodeau,(506) 423-3100,(506) 423-3152,,bathurst,NB,,Nursing Home
Canada-NB-13-NursingHomes-13-NursingHomes-371,Foyer Ste-Elizabeth,,,Monique Gendron,(506) 258-3020,(506) 258-3010,,bathurst,NB,,Nursing Home
Canada-NB-13-NursingHomes-13-NursingHomes-372,RÃ©sidence Mgr. Melanson,,,AndrÃ© Savoie,(506) 235-6030,(506) 235-6075,,bathurst,NB,,Nursing Home
Canada-NB-13-NursingHomes-13-NursingHomes-373,RÃ©sidences Jodin,,,David Couturier,(506) 501-3014  ,(506) 501-3015,,bathurst,NB,,Nursing Home
Canada-NB-13-NursingHomes-13-NursingHomes-374,Villa des Chutes,,,AmÃ©lie Cayouette,(506) 473-7726,(506) 473-7849,,bathurst,NB,,Nursing Home
Canada-NB-13-NursingHomes-13-NursingHomes-375,Campbellton Nursing Home,,,Ken Murray,(506) 789-7350,(506) 789-7360,,bathurst,NB,,Nursing Home
Canada-NB-13-NursingHomes-13-NursingHomes-376,Dalhousie Nursing Home,,,Diane LÃ©ger,(506) 684-7800,(506) 684-7832,,bathurst,NB,,Nursing Home
Canada-NB-13-NursingHomes-13-NursingHomes-377,Foyer Notre-Dame de Lourdes,,http://www.fndl.org,LÃ©o-Paul Sonier,(506) 549-5085,(506) 549-5052,,bathurst,NB,,Nursing Home
Canada-NB-13-NursingHomes-13-NursingHomes-378,Manoir Edith B. Pinet,,,Bruno Holmes,(506) 764-2444,(506) 764-2451,,bathurst,NB,,Nursing Home
Canada-NB-13-NursingHomes-13-NursingHomes-379,RÃ©sidences Inkerman,,,Michel HachÃ©,(506) 336-3909,.,,bathurst,NB,,Nursing Home
Canada-NB-13-NursingHomes-13-NursingHomes-380,RÃ©sidences Lucien Saindon,,,GaÃ«tan HachÃ©,(506) 344-3232,(506) 344-3240,,bathurst,NB,,Nursing Home
Canada-NB-13-NursingHomes-13-NursingHomes-381,RÃ©sidences Mgr. Chiasson,,,Anne-Marie Richardson Chiasson,(506) 336-3266,(506) 336-3099,,bathurst,NB,,Nursing Home
Canada-NB-13-NursingHomes-13-NursingHomes-382,Villa BeausÃ©jour,,,Roger Landry,(506) 726-2744,(506) 726-2745,,bathurst,NB,,Nursing Home
Canada-NB-13-NursingHomes-13-NursingHomes-383,Villa Chaleur Inc.,,http://www.abschi.com,Victor Shea,(506) 549-5582,(506) 545-6424,,bathurst,NB,,Nursing Home
Canada-NB-13-NursingHomes-13-NursingHomes-384,Villa Sormany,,,Wayne McWilliams,(506) 542-2731,(506) 542-2733,,bathurst,NB,,Nursing Home
Canada-NB-13-NursingHomes-13-NursingHomes-385,Villa St-Joseph,,,Serge Robichaud,(506) 394-4800,(506) 394-4826,,bathurst,NB,,Nursing Home
Canada-NB-13-NursingHomes-13-NursingHomes-386,Foyer Assomption,,,Anne Babineau,(506) 775-2040,(506) 775-2053,,bathurst,NB,,Nursing Home
Canada-NB-13-NursingHomes-13-NursingHomes-387,Le Complexe Rendez-Vous Inc.,,,Ronald LeBlanc,(506) 776-0640,(506) 776-0608,,bathurst,NB,,Nursing Home
Canada-NB-13-NursingHomes-13-NursingHomes-388,Miramichi Senior Citizens Home,,,Jean Doyle,(506) 778-6810,(506) 778-6860,,bathurst,NB,,Nursing Home
Canada-NB-13-NursingHomes-13-NursingHomes-389,Mount St. Joseph,,http://www.mountsj.ca,Debbie Walls,(506) 778-6550,(506) 778-0193,,bathurst,NB,,Nursing Home
Canada-NB-13-NursingHomes-13-NursingHomes-390,Tabusintac Nursing Home,,,Joanne Sonier,(506) 779-4100,(506) 779-8149,,bathurst,NB,,Nursing Home
Canada-NB-13-NursingHomes-13-NursingHomes-391,Drew Nursing Home,,http://www.drewnursinghome.ca/,Linda Shannon,(506) 364-4900,(506) 364-4921,,miramichi,NB,,Nursing Home
Canada-NB-13-NursingHomes-13-NursingHomes-392,Forest Dale Home,,http://www.forestdalehome.ca,Vicki Caissie,(506) 882-3015,(506) 882-3014,,miramichi,NB,,Nursing Home
Canada-NB-13-NursingHomes-13-NursingHomes-393,Foyer St-Antoine,,http://www3.nbnet.nb.ca/fsa,George Cormier,(506) 525-4040,(506) 525-4090,,miramichi,NB,,Nursing Home
Canada-NB-13-NursingHomes-13-NursingHomes-394,Jordan Lifecare Centre,,,Gary Buchanan,(506) 756-3355,(506) 756-2081,,miramichi,NB,,Nursing Home
Canada-NB-13-NursingHomes-13-NursingHomes-395,Kenneth E. Spencer,,http://www.abschi.com/,Victor Shea,(506) 858-7870,(506) 858-9674,,miramichi,NB,,Nursing Home
Canada-NB-13-NursingHomes-13-NursingHomes-396,La Villa Maria,,,Jean-Paul Mazerolle,(506) 876-3488,(506) 876-3466,,miramichi,NB,,Nursing Home
Canada-NB-13-NursingHomes-13-NursingHomes-397,Le Foyer St-Thomas (Memramcook),,,Paul Rossignol,(506) 758-2110,(506) 758-9489,,miramichi,NB,,Nursing Home
Canada-NB-13-NursingHomes-13-NursingHomes-398,Manoir St-Jean Baptiste,,,Ian Drapeau,(506) 743-7344,(506) 743-7343,,miramichi,NB,,Nursing Home
Canada-NB-13-NursingHomes-13-NursingHomes-399,Monarch Hall,,http://www.shannex.com,Carole Morey,(506) 387-3168,(506) 387-3167,,miramichi,NB,,Nursing Home
Canada-NB-13-NursingHomes-13-NursingHomes-400,Rexton Lions Nursing Home,,,Nancy Cail,(506) 523-7720,(506) 523-7703,,miramichi,NB,,Nursing Home
Canada-NB-13-NursingHomes-13-NursingHomes-401,The Salvation Army Lakeview Manor,,,Kym Elder,(506) 387-2012,(506) 387-7200,,miramichi,NB,,Nursing Home
Canada-NB-13-NursingHomes-13-NursingHomes-402,Villa du Repos,,,Ronald LeBlanc,(506) 857-3560,(506) 859-1619,,miramichi,NB,,Nursing Home
Canada-NB-13-NursingHomes-13-NursingHomes-403,Villa Providence Shediac,,,Ronald LeBlanc,(506) 532-4484,(506) 532-5909,,miramichi,NB,,Nursing Home
Canada-NB-13-NursingHomes-13-NursingHomes-404,Westford Nursing Home,,http://www.westfordnursinghome.com,Judy White,(506) 538-1302,(506) 538-7293,,miramichi,NB,,Nursing Home
Canada-NB-13-NursingHomes-13-NursingHomes-405,Campobello Lodge,,,Sherry Johnston,(506) 752-7101,(506) 752-7105,,miramichi,NB,,Nursing Home
Canada-NB-13-NursingHomes-13-NursingHomes-406,Carleton Kirk Lodge,,,Tim Stevens,(506) 643-7040,(506) 643-7038,,miramichi,NB,,Nursing Home
Canada-NB-13-NursingHomes-13-NursingHomes-407,Church of St. John & St. Stephen,,,Shelley Fulton,(506) 643-6001,(506) 643-6126,,miramichi,NB,,Nursing Home
Canada-NB-13-NursingHomes-13-NursingHomes-408,Dr. V.A. Snow Centre,,http://www.snownursing.com,Terry O'Neill,(506) 832-6210,(506) 832-7674,,miramichi,NB,,Nursing Home
Canada-NB-13-NursingHomes-13-NursingHomes-409,Embassy Hall,,http://www.shannex.com,John Campbell,(506) 848-3170,(506) 848-3171,,miramichi,NB,,Nursing Home
Canada-NB-13-NursingHomes-13-NursingHomes-410,Fundy Nursing Home,,,Debbie Harris,(506) 456-4218,(506) 456-3057,,miramichi,NB,,Nursing Home
Canada-NB-13-NursingHomes-13-NursingHomes-411,Grand Manan Nursing Home,,,Joanne Ingalls,(506) 662-7111,(506) 662-7117,,miramichi,NB,,Nursing Home
Canada-NB-13-NursingHomes-13-NursingHomes-412,Kennebec Manor,,,Judy Lane,(506) 632-9628,(506) 658-9376,,miramichi,NB,,Nursing Home
Canada-NB-13-NursingHomes-13-NursingHomes-413,Kings Way Care Center,,,Judy Lane,(506) 847-1131,(506) 847-1134,,miramichi,NB,,Nursing Home
Canada-NB-13-NursingHomes-13-NursingHomes-414,Kiwanis Nursing Home,,http://www.kiwanisnursinghome.com,Kerri Marr,(506) 432-3118,(506) 432-3104,,miramichi,NB,,Nursing Home
Canada-NB-13-NursingHomes-13-NursingHomes-415,Lincourt Manor,,,Stacy Butler,(506) 466-7855,(506) 466-7853,,miramichi,NB,,Nursing Home
Canada-NB-13-NursingHomes-13-NursingHomes-416,Loch Lomond Villa,,http://www.lochlomondvilla.com,Cindy Donovan,(506) 643-7175,(506) 643-7179,,miramichi,NB,,Nursing Home
Canada-NB-13-NursingHomes-13-NursingHomes-417,Passamaquoddy Lodge,,http://www.passamaquoddylodge.ca,Lezlie LeBlanc,(506) 529-5240,(506) 529-5258,,miramichi,NB,,Nursing Home
Canada-NB-13-NursingHomes-13-NursingHomes-418,Rocmaura,,http://www.rocmaura.com,Sheana Mohra,(506) 643-7050,(506) 643-7053,,miramichi,NB,,Nursing Home
Canada-NB-13-NursingHomes-13-NursingHomes-419,Turnbull Nursing Home,,,Patti Alcorn,(506) 643-7200,(506) 648-9786,,miramichi,NB,,Nursing Home
Canada-NB-13-NursingHomes-13-NursingHomes-420,Carleton Manor,,http://www.carletonmanor.com,Angela Acott-Smith,(506) 325-4373,(506) 325-4618,,miramichi,NB,,Nursing Home
Canada-NB-13-NursingHomes-13-NursingHomes-421,Central Carleton Nursing Home,,,Kristi Schriver,(506) 375-3033,(506) 375-3035,,miramichi,NB,,Nursing Home
Canada-NB-13-NursingHomes-13-NursingHomes-422,Central N.B. Nursing Home,,,Manley Black,(506) 369-7262,(506) 369-2331,,miramichi,NB,,Nursing Home
Canada-NB-13-NursingHomes-13-NursingHomes-423,Mill Cove Nursing Home,,http://www.millcovenh.com,Dan Gilman,(506) 488-3033,(506) 488-3037,,miramichi,NB,,Nursing Home
Canada-NB-13-NursingHomes-13-NursingHomes-424,Nashwaak Villa,,,Daphne Noonan,(506) 367-7734,(506) 367-7745,,miramichi,NB,,Nursing Home
Canada-NB-13-NursingHomes-13-NursingHomes-425,Orchard View,,http://www.orchardviewcare.ca,Steve Little,(506) 488-3544,(506) 488-3551,,miramichi,NB,,Nursing Home
Canada-NB-13-NursingHomes-13-NursingHomes-426,Pine Grove,,http://www.pinegrovenh.com,Cheryl Wiggins,(506) 444-3400,(506) 444-3407,,miramichi,NB,,Nursing Home
Canada-NB-13-NursingHomes-13-NursingHomes-427,River View Manor,,http://www.riverviewmanor.ca,Guildo Cyr,(506) 278-6030,(506) 278-5962,,miramichi,NB,,Nursing Home
Canada-NB-13-NursingHomes-13-NursingHomes-428,Thomas Hall,,http://www.shannex.com,Pam Bowen,(506) 447-6440,(506) 447-6441,,miramichi,NB,,Nursing Home
Canada-NB-13-NursingHomes-13-NursingHomes-429,Tobique Valley Manor,,,Charlotte Bellefleur,(506) 356-6040,(506) 356-6041,,miramichi,NB,,Nursing Home
Canada-NB-13-NursingHomes-13-NursingHomes-430,Victoria Glen Manor,,http://www.vgm.ca,Donna Miller-Wallace,(506) 273-4885,(506) 273-4975,,miramichi,NB,,Nursing Home
Canada-NB-13-NursingHomes-13-NursingHomes-431,W.G. Bishop Nursing Home,,,Charlene Cobbett,(506) 327-7853,(506) 327-7812,,miramichi,NB,,Nursing Home
Canada-NB-13-NursingHomes-13-NursingHomes-432,Wauklehegan Manor,,http://waukleheganmanor.weebly.com,Mike Harvey,(506) 784-6303,(506) 784-6344,,miramichi,NB,,Nursing Home
Canada-NB-13-NursingHomes-13-NursingHomes-433,White Rapids Manor,,http://www.whiterapidsmanor.nb.ca,Kathy Jenkins,(506) 368-6508,(506) 368-6512,,miramichi,NB,,Nursing Home
Canada-NB-13-NursingHomes-13-NursingHomes-434,York Care Centre,,http://www.yorkmanor.nb.ca,Kevin Harter,(506) 444-3880,(506) 444-3544,,miramichi,NB,,Nursing Home
Canada-NB-13-NursingHomes-13-NursingHomes-435,Foyer Notre-Dame de St-LÃ©onard,,,Violette Thibodeau,(506) 423-3100,(506) 423-3152,,miramichi,NB,,Nursing Home
Canada-NB-13-NursingHomes-13-NursingHomes-436,Foyer Ste-Elizabeth,,,Monique Gendron,(506) 258-3020,(506) 258-3010,,miramichi,NB,,Nursing Home
Canada-NB-13-NursingHomes-13-NursingHomes-437,RÃ©sidence Mgr. Melanson,,,AndrÃ© Savoie,(506) 235-6030,(506) 235-6075,,miramichi,NB,,Nursing Home
Canada-NB-13-NursingHomes-13-NursingHomes-438,RÃ©sidences Jodin,,,David Couturier,(506) 501-3014  ,(506) 501-3015,,miramichi,NB,,Nursing Home
Canada-NB-13-NursingHomes-13-NursingHomes-439,Villa des Chutes,,,AmÃ©lie Cayouette,(506) 473-7726,(506) 473-7849,,miramichi,NB,,Nursing Home
Canada-NB-13-NursingHomes-13-NursingHomes-440,Campbellton Nursing Home,,,Ken Murray,(506) 789-7350,(506) 789-7360,,miramichi,NB,,Nursing Home
Canada-NB-13-NursingHomes-13-NursingHomes-441,Dalhousie Nursing Home,,,Diane LÃ©ger,(506) 684-7800,(506) 684-7832,,miramichi,NB,,Nursing Home
Canada-NB-13-NursingHomes-13-NursingHomes-442,Foyer Notre-Dame de Lourdes,,http://www.fndl.org,LÃ©o-Paul Sonier,(506) 549-5085,(506) 549-5052,,miramichi,NB,,Nursing Home
Canada-NB-13-NursingHomes-13-NursingHomes-443,Manoir Edith B. Pinet,,,Bruno Holmes,(506) 764-2444,(506) 764-2451,,miramichi,NB,,Nursing Home
Canada-NB-13-NursingHomes-13-NursingHomes-444,RÃ©sidences Inkerman,,,Michel HachÃ©,(506) 336-3909,.,,miramichi,NB,,Nursing Home
Canada-NB-13-NursingHomes-13-NursingHomes-445,RÃ©sidences Lucien Saindon,,,GaÃ«tan HachÃ©,(506) 344-3232,(506) 344-3240,,miramichi,NB,,Nursing Home
Canada-NB-13-NursingHomes-13-NursingHomes-446,RÃ©sidences Mgr. Chiasson,,,Anne-Marie Richardson Chiasson,(506) 336-3266,(506) 336-3099,,miramichi,NB,,Nursing Home
Canada-NB-13-NursingHomes-13-NursingHomes-447,Villa BeausÃ©jour,,,Roger Landry,(506) 726-2744,(506) 726-2745,,miramichi,NB,,Nursing Home
Canada-NB-13-NursingHomes-13-NursingHomes-448,Villa Chaleur Inc.,,http://www.abschi.com,Victor Shea,(506) 549-5582,(506) 545-6424,,miramichi,NB,,Nursing Home
Canada-NB-13-NursingHomes-13-NursingHomes-449,Villa Sormany,,,Wayne McWilliams,(506) 542-2731,(506) 542-2733,,miramichi,NB,,Nursing Home
Canada-NB-13-NursingHomes-13-NursingHomes-450,Villa St-Joseph,,,Serge Robichaud,(506) 394-4800,(506) 394-4826,,miramichi,NB,,Nursing Home
Canada-NB-13-NursingHomes-13-NursingHomes-451,Foyer Assomption,,,Anne Babineau,(506) 775-2040,(506) 775-2053,,miramichi,NB,,Nursing Home
Canada-NB-13-NursingHomes-13-NursingHomes-452,Le Complexe Rendez-Vous Inc.,,,Ronald LeBlanc,(506) 776-0640,(506) 776-0608,,miramichi,NB,,Nursing Home
Canada-NB-13-NursingHomes-13-NursingHomes-453,Miramichi Senior Citizens Home,,,Jean Doyle,(506) 778-6810,(506) 778-6860,,miramichi,NB,,Nursing Home
Canada-NB-13-NursingHomes-13-NursingHomes-454,Mount St. Joseph,,http://www.mountsj.ca,Debbie Walls,(506) 778-6550,(506) 778-0193,,miramichi,NB,,Nursing Home
Canada-NB-13-NursingHomes-13-NursingHomes-455,Tabusintac Nursing Home,,,Joanne Sonier,(506) 779-4100,(506) 779-8149,,miramichi,NB,,Nursing Home
