row_id,name,license_num,licensure_status,care_level,owner,number_of_floors,number_of_suites,size_of_suites,facilities,services,website,source,contact,phone,cell,fax,email,street_address,po_box,city,province,postal_code,country
Canada-MB-20-LongTermCare-20-LongTermCare-1,Abbeyfield House Dominion City,,,,,,,,,,www.abbeyfielddominioncity.ca,,Dave Kirkpatrick,(204) 427-2557,,(204) 427-2224,info@abbeyfielddominioncity.ca,152 Franklin Ave,Box 69,Dominion City,MB,R0A 0H0,Canada
Canada-MB-20-LongTermCare-20-LongTermCare-2,Cambridge House,,,,,,,,,,www.geriatricare.ca,,Joyce LloydResidence Manager,(204)785-1066 Ext 1,,(204) 785-2251,jloyd@geriatricare.ca,300 Tudor Road,,Selkirk,MB,R1A 2G6,Canada
Canada-MB-20-LongTermCare-20-LongTermCare-3,ArlingtonHaus,,,,,,,,,,,,Pam TaylorAdministratorThe Bethania Group,(204) 783-3752,,(204) 772-5534,pam.taylor@bethania.ca,880 Arlington Street,,Winnipeg,MB,R3E 3H2,Canada
Canada-MB-20-LongTermCare-20-LongTermCare-4,The Waverley,,,,,,,,,,www.reveraliving.com,,Jodi  Arnal or Janice Benson,(204) 487-9600,,,jodi.arnal@reveraliving.comjanice.benson@reveraliving.com,857 Wilkes Ave,,Winnipeg,MB,R3P 2M2,Canada
Canada-MB-20-LongTermCare-20-LongTermCare-5,Fred Douglas Gardens,,,,,,,,,,www.freddouglassociety.com;www.lifelease.ca,,Acorn Developments,(204) 982-2000,,(204) 669-4509,admin@fdl.mb.ca,100 the Promenade,,Winnipeg,MB,R3B 2H9,Canada
Canada-MB-20-LongTermCare-20-LongTermCare-6,The Landing at Riverwood Square,,,,,,,,,,www.riverwoodsquare.com,,,(204) 275-7632,,(204) 261-3484,lsherrin@riverwoodsquare.com,1778 Pembina Hwy,,Winnipeg,MB,R3T 1R2,Canada
Canada-MB-20-LongTermCare-20-LongTermCare-7,Rotary Villas at Crocus Gardens,,,,,,,,,,www.rotaryvillas.ca,,,(204) 725-1340,,(204) 726-1811,info@rotaryvillas.ca,Unit A 1340 10th Street,,Brandon,MB,R7A 6Z3,Canada
Canada-MB-20-LongTermCare-20-LongTermCare-8,Woodland Courts,,,,,,,,,,www.geriatricare.ca,,,(204) 785-1066,,(204) 785-2251,jlloyd@geriatricare.ca,387 Annie Street,,Selkirk,MB,R1A 3Y8,Canada
Canada-MB-20-LongTermCare-20-LongTermCare-9,Windsor Park Place,,,,,,,,,,www.actionmarguerite.ca,,,(204) 233-3692(ext. 554),,(204) 233-6803,tparisien@actionmarguerite.ca,875 Elizabeth Road,,,MB,,Canada
Canada-MB-20-LongTermCare-20-LongTermCare-10,Beacon Hill Lodge,,,,,,,,,,www.reveraliving.com/long-term-care/locations/beacon-hill-lodge,,,(204) 942-7541,,(204) 944-0136,beaconhilllodge@reveraliving.com,190 Fort Street,,Winnipeg,MB,R3C 1C9,Canada
Canada-MB-20-LongTermCare-20-LongTermCare-11,Rosewood,,,,,,,,,,www.reveraliving.com/Rosewood,,,(204) 487-9600,,(204) 488-3876,rosewood@reveraliving.com,857 Wilkes Avenue,,Winnipeg,MB,R3P 2M2,Canada
Canada-MB-20-LongTermCare-20-LongTermCare-12,Riverside Lions Seniors Residences,,,,,,,,,,www.riversidelions.mb.ca,,,(204) 255-8940,,(204) 255-1527,bshields@riversidelions.mb.ca,180 Worthington Avenue,,Winnipeg,MB,R2M 1S4,Canada
Canada-MB-20-LongTermCare-20-LongTermCare-13,Niverville Credit Union Manor,,,,,,,,,,,,,(204) 388-5000ext 207,,(204) 388-6431,,Unit 100-111 2nd Ave,,S Niverville,MB,R0A 0A1,Canada
Canada-MB-20-LongTermCare-20-LongTermCare-14,Bayshore Home Health,,,,,,,,,,www.bayshore.ca,,"Olwyn Lewis, BA, RN, BNArea Director",204.943.7124 Ext 40414,,204.943.7136,olewis@bayshore.ca,1700 Ness Avenue,,Winnipeg,MB,R3J 3Y1,Canada
Canada-MB-20-LongTermCare-20-LongTermCare-15,ReÌ©sidence Despins,,,,,,,,,,www.resdespins.ca,,,(204) 480-2900,,(204) 235-6419,afoidart@despinscharities.ca,151 Despins Street,,Winnipeg,MB,R2H 0L7,Canada
Canada-MB-20-LongTermCare-20-LongTermCare-16,We Care Home Health Services,,,,,,,,,,www.wecare.ca,,,(204) 987-3044,,(204)987-3060,pamfox@wecare.ca,209-1661 Portage Ave,,Winnipeg,MB,R3J 3T7,Canada
Canada-MB-20-LongTermCare-20-LongTermCare-17,VIP Home Care Inc.,,,,,,,,,,www.viphomecare.ca,,Cori WestraClient Care Manager,(204) 504-4077,,(204)954-9598,cwestra@viphomecare.ca,144-99 Scurfield Blvd,,Winnipeg,MB,R3Y 1M6,Canada
Canada-MB-20-LongTermCare-20-LongTermCare-18,Reliable Home Care Agency Inc.,,,,,,,,,,www.reliablehomecare.ca,,,(204) 415-3471(204) 415-3472,,(204) 415-3576,info@reliablehomecare.ca,1320 Portage Avenue,,Winnipeg,MB,R3G 0V2,Canada
Canada-MB-20-LongTermCare-20-LongTermCare-19,"McCare Global Healthcare Services, Inc.",,,,,,,,,,www.mccareglobal.com,,,(204) 480-4086,,(204)691-2557,contact@mccareglobal.com,1380 Notre Dame Ave,,Winnipeg,MB,R3E 0P7,Canada
Canada-MB-20-LongTermCare-20-LongTermCare-20,LifeTime Home Care,,,,,,,,,,www.lifetimehomecare.ca,,,(204) 615-0300,,,info@lifetimecare.ca,300-330 St Mary Ave,,Winnipeg,MB,R3C 3Z5,Canada
Canada-MB-20-LongTermCare-20-LongTermCare-21,Golden Healthcare Resources,,,,,,,,,,www.goldenhr.ca,,Eamon O'BrienMarketing Coordinator,(204)772-4499,,(204)772-4583,,,,,MB,,Canada
Canada-MB-20-LongTermCare-20-LongTermCare-22,Thorvaldson Care Centre,,,,,,,,,,www.thorcare.ca.,,,(204) 452-4044,,(204) 452-4054,thorcare@shaw.ca,495 Stradbrook Avenue,,Winnipeg,MB,R3L 0K2,Canada
Canada-MB-20-LongTermCare-20-LongTermCare-23,Jocelyn House,,,,,,,,,,www.jocelynhouse.ca,,Jackie StephenExecutive DirectorJocelyn House HospiceJocelyn Hutton Foundation,(204) 253-5898,(204) 781-2828,,,177 Egerton Road,,Winnipeg,MB,R2M 2W7,Canada
Canada-MB-20-LongTermCare-20-LongTermCare-24,Brummitt-Feasby ALS House,,,,,,,,,,www.alsmb.ca/als-manitoba/services,,,(204) 888-7319,,,,,,,MB,,Canada
Canada-MB-20-LongTermCare-20-LongTermCare-25,Vista Park Lodge,,,,,,,,,,www.extendicarevistaparklodge.com,,,(204) 257-6688,,(204) 257-0446,HNgawaDjomo@extendicare.com,144 Novavista Drive,,Winnipeg,MB,R2N 1P8,Canada
Canada-MB-20-LongTermCare-20-LongTermCare-26,Valleyview Care Centre,,,,,,,,,,www.reveraliving.com,,,(204) 728-2030,,(204) 578-3423,valleyview@reveraliving.com,3015 Victoria Avenue,,Brandon,MB,R7B 2K2,Canada
Canada-MB-20-LongTermCare-20-LongTermCare-27,Tuxedo Villa,,,,,,,,,,www.extendicaretuxedovilla.com,,,(204) 889-2650,,(204) 896-0258,CNH_Tuxedovilla@extendicare.com,2060 Corydon Ave,,Winnipeg,MB,R3P 0N3,Canada
Canada-MB-20-LongTermCare-20-LongTermCare-28,Tudor House,,,,,,,,,,www.geriatricare.ca,,,(204) 482-6601,,(204) 482-4369,jamartyniw@geriatricare.ca,800 Manitoba Avenue,,Selkirk,MB,R1A 2C9,Canada
Canada-MB-20-LongTermCare-20-LongTermCare-29,River East Personal Care Home,,,,,,,,,,www.rivereast.ca;Email,,,(204) 668-7460,,(204) 668-7456,krohm@extendicare.com,1375 Molson Street,,Winnipeg,MB,R2K 4K8,Canada
Canada-MB-20-LongTermCare-20-LongTermCare-30,Red River Place,,,,,,,,,,www.extendicareredriverplace.com,,,(204) 482-3036,,(204) 482-9499,lpalmer@extendicare.com,133 Manchester Avenue,,Selkirk,MB,R1A 0B5,Canada
Canada-MB-20-LongTermCare-20-LongTermCare-31,Poseidon Care Centre,,,,,,,,,,www.reveraliving.com/long-term-care/locations/poseidon,,,(204) 452-6204,,(204) 474-2173,poseidon@reveraliving.com,,,,MB,,Canada
Canada-MB-20-LongTermCare-20-LongTermCare-32,St. Norbert Personal Care Home,,,,,,,,,,www.wrha.mb.ca/st-norbert,,,(204) 269-4538,,(204) 269-6374,snpch@mts.net,50 St Pierre Street,,Winnipeg,MB,R3V 1J6,Canada
Canada-MB-20-LongTermCare-20-LongTermCare-33,Nisichawayasihk (Nelson House) Personal Care Home,,,,,,,,,,http://nisichawayasihkpersonalcarehome.org/,,,(204) 484-2350,,(204) 484-2011,nhpchome@mts.net,,Box 460,Nelson House,MB,R0B 1A0,Canada
Canada-MB-20-LongTermCare-20-LongTermCare-34,Parkview Place Care Centre,,,,,,,,,,personalcarehome.org,,,(204) 942-5291,,(204) 947-1969,parkviewplace@reveraliving.com,440 Edmonton Street,,Winnipeg,MB,R3B 2M4,Canada
Canada-MB-20-LongTermCare-20-LongTermCare-35,Ochekwi Sipi Cree Nation Personal Care Home,,,,,,,,,,,,Gloria Cook,(204) 645-2811,,,direcpch@mymts.net,,P.O. Box 366,Koostatak,MB,R0C 1S0,Canada
Canada-MB-20-LongTermCare-20-LongTermCare-36,Oakview Place,,,,,,,,,,www.extendicareoakviewplace.com,,,(204) 888-3005,,(204) 831-8101,,2395 Ness Avenue,,Winnipeg,MB,R3J 1A5,Canada
Canada-MB-20-LongTermCare-20-LongTermCare-37,Hillcrest Place,,,,,,,,,,www.extendicare.com,,,(204) 728-6690,,(204) 726-0089,rbooth-navid@extendicare.com,930 26th Street,,Brandon,MB,R7B 2B8,Canada
Canada-MB-20-LongTermCare-20-LongTermCare-38,Heritage Lodge,,,,,,,,,,www.reveraliving.com/long-term-care/locations/heritage-lodge,,,(204) 888-7940,,(204) 832-6544,heritagelodge@reveraliving.com,3555 Portage Ave,,Winnipeg,MB,R3K 0X2,Canada
Canada-MB-20-LongTermCare-20-LongTermCare-39,Heritage Life Personal Care Home,,,,,,,,,,www.heritagecentre.ca/pch,,,(204) 388  5000,,(204) 388  7316,reception@hlpch.ca,100A Herit,,age Trail Niverville,MB,R0A-0A1,Canada
Canada-MB-20-LongTermCare-20-LongTermCare-40,Golden Door Geriatric Centre,,,,,,,,,,www.goldendoor.ca,,,(204) 269-6308,,(204) 269-5626,info@goldendoor.ca,1679 Pembina Highway,,Winnipeg,MB,R3T 2G6,Canada
Canada-MB-20-LongTermCare-20-LongTermCare-41,Maples Personal Care Home,,,,,,,,,,www.reveraliving.com/long-term-care/locations/maples,,,(204) 632-8570,,(204) 697-0249,maples@reveraliving.com,500 Mandalay Drive,,Winnipeg,MB,R2P 1V4,Canada
Canada-MB-20-LongTermCare-20-LongTermCare-42,George Colon Memorial Home,,,,,,,,,,,,Margaret Colin,204-538-2560,,,mcgcmh@mymts.net,,PO Box 261,Oxford House,MB,R0B 1C0,Canada
Canada-MB-20-LongTermCare-20-LongTermCare-43,Dinsdale Personal Care Home,,,,,,,,,,www.dinsdalepch.ca,,,(204) 727-3636,,(204) 727-2103,stodd@dinsdalepch.ca,510-6th Street,,Brandon,MB,R7A 3N9,Canada
Canada-MB-20-LongTermCare-20-LongTermCare-44,Kildonan Personal Care Centre,,,,,,,,,,www.reveraliving.com/long-term-care/locations/kildonan,,,(204) 334-4633,,(204) 334-4632,kildonan@reveraliving.com,1970 Henderson Highway,,Winnipeg,MB,R2G 1P4,Canada
Canada-MB-20-LongTermCare-20-LongTermCare-45,Charleswood Care Centre,,,,,,,,,,www.reveraliving.com/long-term-care/locations/charleswood-care-centre,,,(204) 888-3363,,(204) 896-4763,charleswood@reveraliving.com,5501 Roblin Boulevard,,Winnipeg,MB,R3R 0G8,Canada
Canada-MB-20-LongTermCare-20-LongTermCare-46,Betel Home - Selkirk,,,,,,,,,,www.betelhome; foundation.ca/selkirk.html,,Angela Eyjolfson,(204) 482-5469,,(204)-642-7243,aeyjolfson@ierha.ca,212 Manchester Ave,,Selkirk,MB,R1A 0B6,Canada
Canada-MB-20-LongTermCare-20-LongTermCare-47,Betel Home - Gimli,,,,,,,,,,www.betelhomefoundation.ca,,,(204) 642-5556,,(204 642-7243,aeyjolfson@ierha.ca,Angela Eyjolfson CEO,Box 10,Gimli,MB,R0C 1B0,Canada
Canada-MB-20-LongTermCare-20-LongTermCare-48,Lions Supportive Housing,,,,,,,,,,www.lhc.ca,,,(204) 784-2730,,(204) 784-1241,mcoquete@lhc.ca,320 Sherbrook Street,,Winnipeg,MB,R3B 2W6,Canada
Canada-MB-20-LongTermCare-20-LongTermCare-49,Irene Baron Eden Centre,,,,,,,,,,www.ib-ec.ca,,,(204) 667-7747,,(204) 667-9424,dlemieux@extendicare.com,1385 Molson Street,,Winnipeg,MB,R2K 4K8,Canada
Canada-MB-20-LongTermCare-20-LongTermCare-50,Harmony Court at Riverwood Square,,,,,,,,,,www.riverwoodsquare.com,,,(204) 275-7632,,(204) 261-3484,lsherrin@riverwoodsquare.com,1778 Pembina Highway,,Winnipeg,MB,R3T 1R2,Canada
Canada-MB-20-LongTermCare-20-LongTermCare-51,Greendale Estate,,,,,,,,,,www.greendaleestate.ca,,,(204) 434-6928,,(204) 434-9217,Dave Claringbouldalshous@mymts.net,231 Park Street,,Grunthal,MB,R0A 0R0,Canada
Canada-MB-20-LongTermCare-20-LongTermCare-52,The Gardens on Tenth Inc.,,,,,,,,,,www.gardensontenth.ca,,"Laurie Schellenberg, Managing Director",(204) 324-8945,,,laurie@gardensontenth.ca,140 10th Ave,Box 900,NE Altona,MB,R0G 0B0,Canada
Canada-MB-20-LongTermCare-20-LongTermCare-53,Fred Douglas Heritage House,,,,,,,,,,www.freddouglassociety.com/supportive-housing/,,,(204) 949-9027,,(204) 947-2687,admin@fdl.mb.ca,100 the Promenade,,,MB,R3B 2H9,Canada
Canada-MB-20-LongTermCare-20-LongTermCare-54,Chez Nous,,,,,,,,,,www.actionmarguerite.ca,,,(204) 233-3692Ext. 554,,(204) 233-6803,tparisien@actionmarguerite.ca,187 avenue de la Cathedrale,,Winnipeg,MB,R2H 3C6,Canada
