row_id,Facility Name,Address1,City,Zip,State,County,Contact Phone,Fax,Contact,Email,Website,DHEC License,Link to details,Country,Facility Type
USA-SC-58-SC-OfficeOnAging-output-1,Rolling Green Village Health Care Facility,1 Hoke Smith Blvd,Greenville,29615,SC,Greenville,864-987-9800,,,,,NCF-0456,http://nfbl.sc.gov/FacilityInformation.php?FacID=101,US,Nursing Facility
USA-SC-58-SC-OfficeOnAging-output-2,Emeritus At Greenville,1306 Pelham Rd,Greenville,29615,SC,Greenville,864-286-6600,,,,,NCF-0785,http://nfbl.sc.gov/FacilityInformation.php?FacID=102,US,Nursing Facility
USA-SC-58-SC-OfficeOnAging-output-3,Linville Courts At The Cascades Verdae,30 Springcrest Ct,Greenville,29607,SC,Greenville,864-528-5501,,,,,NCF-0956,http://nfbl.sc.gov/FacilityInformation.php?FacID=103,US,Nursing Facility
USA-SC-58-SC-OfficeOnAging-output-4,PruittHealth Aiken,830 Laurens St,Aiken,29801,SC,Aiken,803-641-8000,803-649-2298,Adam Butler,ANButler@pruitthealth.com,,NCF-0942,http://nfbl.sc.gov/FacilityInformation.php?FacID=104,US,Nursing Facility
USA-SC-58-SC-OfficeOnAging-output-5,Heartland Of West Ashley Rehabilitation And Nursing Center,1137 Sam Rittenberg Blvd,Charleston,29407,SC,Charleston,843-763-0233,843-769-2359,Rachel Campbell,rachel.campbell@hcr-manorcare.com,hcr-manorcare.com,NCF-0413,http://nfbl.sc.gov/FacilityInformation.php?FacID=105,US,Nursing Facility
USA-SC-58-SC-OfficeOnAging-output-6,Life Care Center Of Hilton Head,120 Lamotte Dr,Hilton Head Island,29926,SC,Beaufort,843-681-6006,843-681-2853,Lisa Mayhew,lisa_mayhew@lcca.com,lcca.com/12/,NCF-0725,http://nfbl.sc.gov/FacilityInformation.php?FacID=106,US,Nursing Facility
USA-SC-58-SC-OfficeOnAging-output-7,Preston Health Center,87 Birdsong Way,Hilton Head Island,29926,SC,Beaufort,843-689-7077,,,,,NCF-0576,http://nfbl.sc.gov/FacilityInformation.php?FacID=107,US,Nursing Facility
USA-SC-58-SC-OfficeOnAging-output-8,Covenant Dove of Greenville,661 Rutherford Rd,Greenville,29609,SC,Greenville,864-232-2442,864-232-5398,Emma Bowers,ebowers@oriannia.com,,NCF-0805,http://nfbl.sc.gov/FacilityInformation.php?FacID=108,US,Nursing Facility
USA-SC-58-SC-OfficeOnAging-output-9,John Edward Harter Nursing Center,185 Revolutionary Trl,Fairfax,29827,SC,Allendale,803-632-3334,803-632-5678,Melissa All,chrystald@achospital.org,,NCF-0259,http://nfbl.sc.gov/FacilityInformation.php?FacID=109,US,Nursing Facility
USA-SC-58-SC-OfficeOnAging-output-10,PruittHealth of Barnwell,31 Wren St,Barnwell,29812,SC,Barnwell,803-259-5547,803-259-7350,Rovella Phillips,RoPhillips@pruitthealth.com,www.PruittHealth.com,NCF-0893,http://nfbl.sc.gov/FacilityInformation.php?FacID=110,US,Nursing Facility
USA-SC-58-SC-OfficeOnAging-output-11,Glorified Health & Rehab Of Greenville,8 N Texas Ave,Greenville,29611,SC,Greenville,864-295-1331,864-269-7144,Business Office,,www.covenantdove.com/glorified,NCF-0903,http://nfbl.sc.gov/FacilityInformation.php?FacID=111,US,Nursing Facility
USA-SC-58-SC-OfficeOnAging-output-12,Alpha Health & Rehab Of Greer,401 Chandler Rd,Greer,29651,SC,Greenville,864-879-1370,864.877.2523,Erica Atkinson,EAtkinson@covenantdove.com,,NCF-0908,http://nfbl.sc.gov/FacilityInformation.php?FacID=113,US,Nursing Facility
USA-SC-58-SC-OfficeOnAging-output-13,Opus Post Acute Rehabilitation,300 Agape Dr,West Columbia,29169,SC,Lexington,803-939-3000,803-451-4729,Taylor Hersey,thersey@agapesenior.com,www.agapesenior.com,NCF-0976,http://nfbl.sc.gov/FacilityInformation.php?FacID=114,US,Nursing Facility
USA-SC-58-SC-OfficeOnAging-output-14,Countrywood Nursing Center,1645 Ridge Rd,Hopkins,29061,SC,Richland,803-776-3873,803-217-0365,LaShay Hayes,lhayes@sterling-health.com,,NCF-0946,http://nfbl.sc.gov/FacilityInformation.php?FacID=115,US,Nursing Facility
USA-SC-58-SC-OfficeOnAging-output-15,Conway Manor,3300 4th Ave,Conway,29527,SC,Horry,843-248-5728,843-248-0043,Holly Vaughn,admissions@conwaymanor.net,conwaymanor.com,NCF-0899,http://nfbl.sc.gov/FacilityInformation.php?FacID=116,US,Nursing Facility
USA-SC-58-SC-OfficeOnAging-output-16,Bayview Manor,11 Todd Dr,Beaufort,29902,SC,Beaufort,843-524-8911,843-770-4657,Debra Caton-Saunders,admissions@bayviewmanor.net,www.gobayviewmanor.com,NCF-0898,http://nfbl.sc.gov/FacilityInformation.php?FacID=117,US,Nursing Facility
USA-SC-58-SC-OfficeOnAging-output-17,Veterans Victory House,2461 Sidneys Rd,Walterboro,29488,SC,Colleton,843-538-3000,,Sarah Kirchman,STK27@scdmh.org,www.hmrveteranservices.com,NCF-0921,http://nfbl.sc.gov/FacilityInformation.php?FacID=118,US,Nursing Facility
USA-SC-58-SC-OfficeOnAging-output-18,PruittHealth Blythewood,1075 Heather Green Dr,Columbia,29229,SC,Richland,803-382-2300,803-382-2303,Will McNamara,WMcNamara@pruitthealth.com,urready.com,NCF-0959,http://nfbl.sc.gov/FacilityInformation.php?FacID=119,US,Nursing Facility
USA-SC-58-SC-OfficeOnAging-output-19,Palmetto Health Baptist Subacute Rehabilitation Center,1330 Taylor St,Columbia,29201,SC,Richland,803-296-5010,,,,,NCF-0740,http://nfbl.sc.gov/FacilityInformation.php?FacID=120,US,Nursing Facility
USA-SC-58-SC-OfficeOnAging-output-20,Heartland Health Care Center-charleston,1800 Eagle Landing Blvd,Hanahan,29410,SC,Berkeley,843-553-0656,843-553-9773,Jamie Connor,4015ADMISS@hcr-manorcare.com,,NCF-0526,http://nfbl.sc.gov/FacilityInformation.php?FacID=121,US,Nursing Facility
USA-SC-58-SC-OfficeOnAging-output-21,Presbyterian Home Of South Carolina-Florence,2350 W Lucas St,Florence,29501,SC,Florence,843-665-2222,843-665-2235,Melody Adams,melody.adams@preshomesc.org,www.preshomesc.org/,NCF-0420,http://nfbl.sc.gov/FacilityInformation.php?FacID=122,US,Nursing Facility
USA-SC-58-SC-OfficeOnAging-output-22,White Oak Of Rock Hill,1915 Ebenezer Rd,Rock Hill,29732,SC,York,803-366-8155,803-325-9930,Maureen Moore,mmoore@whiteoakmanor.com,www.whiteoakmanor.com,NCF-0885,http://nfbl.sc.gov/FacilityInformation.php?FacID=123,US,Nursing Facility
USA-SC-58-SC-OfficeOnAging-output-23,White Oak Manor Spartanburg,295 E Pearl St,Spartanburg,29303,SC,Spartanburg,864-585-0241,864-585-8778,Mary Culbreth,mculbreth@whiteoakmanor.com,www.whiteoakmanor.com,NCF-0889,http://nfbl.sc.gov/FacilityInformation.php?FacID=124,US,Nursing Facility
USA-SC-58-SC-OfficeOnAging-output-24,White Oak Manor York,111 S Congress St,York,29745,SC,York,803-684-0035,803-684-0078,Kandise McDonald,kmcdonald@whiteoakmanor.com,www.whiteoakmanor.com,NCF-0887,http://nfbl.sc.gov/FacilityInformation.php?FacID=125,US,Nursing Facility
USA-SC-58-SC-OfficeOnAging-output-25,IVA Rehabilitation and Healthcare Center,406 W Broad St,Iva,29655,SC,Anderson,864-348-7433,864-348-3863,Melissa Neese,mneese@covenantdove.com,www.covenantdove.com,NCF-0904,http://nfbl.sc.gov/FacilityInformation.php?FacID=126,US,Nursing Facility
USA-SC-58-SC-OfficeOnAging-output-26,Millenium Post Acute Rehabilitation,2416 Sunset Blvd,West Columbia,29169,SC,Lexington,803-796-8024,803-576-4266,Don Deppe,ddeppe@ensignservices.net,,NCF-1066,http://nfbl.sc.gov/FacilityInformation.php?FacID=127,US,Nursing Facility
USA-SC-58-SC-OfficeOnAging-output-27,Blue Ridge of Sumter,1761 Pinewood Rd,Sumter,29154,SC,Sumter,803-481-8591,803-274-1331,Shelby McMillan,admissions@sumter.care,www.sumter.care,NCF-0745,http://nfbl.sc.gov/FacilityInformation.php?FacID=128,US,Nursing Facility
USA-SC-58-SC-OfficeOnAging-output-28,Chester Nursing Center,1 Medical Park Dr,Chester,29706,SC,Chester,803-581-3151,803-581-8842,"Glenda Griggs, RN   D.O.N.",glenda.griggs@chesterregional.com,,NCF-0895,http://nfbl.sc.gov/FacilityInformation.php?FacID=129,US,Nursing Facility
USA-SC-58-SC-OfficeOnAging-output-29,Seneca Health And Rehabilitation Center,140 Tokeena Rd,Seneca,29678,SC,Oconee,864-882-1642,864-888-1411,Pam Long,PELong@savasc.com,,NCF-0917,http://nfbl.sc.gov/FacilityInformation.php?FacID=130,US,Nursing Facility
USA-SC-58-SC-OfficeOnAging-output-30,Sumter East Health And Rehabilitation Center,880 Carolina Ave,Sumter,29150,SC,Sumter,803-775-5394,803-773-0554,(803 )847-0428,,,NCF-0919,http://nfbl.sc.gov/FacilityInformation.php?FacID=131,US,Nursing Facility
USA-SC-58-SC-OfficeOnAging-output-31,Patewood Rehabilitation and Healthcare Center,2 Griffith Road,Greenville,29607,SC,Greenville,864-990-1918,864-288-1468,Pam Turner,pturner@covenantdove.com,www.covenantdove.com,NCF-0900,http://nfbl.sc.gov/FacilityInformation.php?FacID=132,US,Nursing Facility
USA-SC-58-SC-OfficeOnAging-output-32,Presbyterian Home Of South Carolina-columbia,700 Davega Dr,Lexington,29073,SC,Lexington,803-796-8700,803-753-9184,Jennifer Barnhill,jennifer.barnhill@preshomesc.org,,NCF-0545,http://nfbl.sc.gov/FacilityInformation.php?FacID=133,US,Nursing Facility
USA-SC-58-SC-OfficeOnAging-output-33,Ridgeland Nursing Center,1516 Grays Hwy,Ridgeland,29936,SC,Jasper,843-726-5581,843-726-3741,"Kathy K. Hogsett, SW    ext",khogsett@ridgelandnc.com,ridgelandnc.com,NCF-0553,http://nfbl.sc.gov/FacilityInformation.php?FacID=134,US,Nursing Facility
USA-SC-58-SC-OfficeOnAging-output-34,Blue Ridge In The Fields,117 Bellfield Rd,Ridgeway,29130,SC,Fairfield,803-337-2257,803-337-2255,Joy Cowley 803-226-1815,admissions@fairfield.care,,NCF-0981,http://nfbl.sc.gov/FacilityInformation.php?FacID=135,US,Nursing Facility
USA-SC-58-SC-OfficeOnAging-output-35,Golden Age-Inman,82 N Main St,Inman,29349,SC,Spartanburg,864-472-6636,864-472-6524,Debbie Lawter,DLLawter@savasc.com,,NCF-0857,http://nfbl.sc.gov/FacilityInformation.php?FacID=136,US,Nursing Facility
USA-SC-58-SC-OfficeOnAging-output-36,Unihealth Post-Acute Care Oakwood,401 Witsell St,Walterboro,29488,SC,Colleton,843-549-5546,843-549-2024,Rachel Campbel,sgelzer@uhs-pruitt.com,urready.com,NCF-0949,http://nfbl.sc.gov/FacilityInformation.php?FacID=137,US,Nursing Facility
USA-SC-58-SC-OfficeOnAging-output-37,Southern Oaks Rehabilitation and Healthcare,109 Bentz Rd,Piedmont,29673,SC,Anderson,864-845-5177,877-249-2531,Carrie Pritchett,cpritchett@orianna.com,www.orianna.com,NCF-0907,http://nfbl.sc.gov/FacilityInformation.php?FacID=138,US,Nursing Facility
USA-SC-58-SC-OfficeOnAging-output-38,Saluda Nursing Center,581 Newberry Hwy,Saluda,29138,SC,Saluda,864-445-2146,,Allison Quattlebaum,allison_snc@yahoo.com,,NCF-0265,http://nfbl.sc.gov/FacilityInformation.php?FacID=140,US,Nursing Facility
USA-SC-58-SC-OfficeOnAging-output-39,White Oak Of Columbia,3001 Beechaven Rd,Columbia,29204,SC,Richland,803-782-4363,803-782-4366,YOLANDA EADDY,yeaddy@whiteoakmanor.com,whiteoakmanor.com,NCF-0886,http://nfbl.sc.gov/FacilityInformation.php?FacID=141,US,Nursing Facility
USA-SC-58-SC-OfficeOnAging-output-40,White Oak Manor Lancaster,253 Craig Manor Rd,Lancaster,29720,SC,Lancaster,803-286-1464,803-286-5493,Aaron Dunn,rdunn@whiteoakmanor.com,www.whiteoakmanor.com,NCF-0883,http://nfbl.sc.gov/FacilityInformation.php?FacID=142,US,Nursing Facility
USA-SC-58-SC-OfficeOnAging-output-41,Willow Brook Court At Park Pointe Village,2993 Van Valin Dr,Rock Hill,29732,SC,York,803-980-8621,,,,,NCF-0916,http://nfbl.sc.gov/FacilityInformation.php?FacID=143,US,Nursing Facility
USA-SC-58-SC-OfficeOnAging-output-42,Lila Doyle At Oconee Medical Center,101 Lila Doyle Dr,Seneca,29672,SC,Oconee,864-885-7675,864-885-7715,Susan Picard,spicard@ghs.org,www.ghs.org,NCF-0990,http://nfbl.sc.gov/FacilityInformation.php?FacID=144,US,Nursing Facility
USA-SC-58-SC-OfficeOnAging-output-43,Loris Extended Care Center,3620 Stevens St,Loris,29569,SC,Horry,843-716-7106,843-716-7026,Melanie McCluskey,mmccluskey@wilsonseniorcare.com,,NCF-0207,http://nfbl.sc.gov/FacilityInformation.php?FacID=145,US,Nursing Facility
USA-SC-58-SC-OfficeOnAging-output-44,Grand Strand Rehab and Nursing Center,4452 Socastee Blvd,Myrtle Beach,29588,SC,Horry,843-293-1137,843-293-1999,,,,NCF-0993,http://nfbl.sc.gov/FacilityInformation.php?FacID=146,US,Nursing Facility
USA-SC-58-SC-OfficeOnAging-output-45,Abbeville Nursing Home,83 Thomson Cir,Abbeville,29620,SC,Abbeville,864-366-5122,864-366-6123,Kim Falls,abbnh@wctel.net,,NCF-0266,http://nfbl.sc.gov/FacilityInformation.php?FacID=147,US,Nursing Facility
USA-SC-58-SC-OfficeOnAging-output-46,Franke Health Care Center,1885 Rifle Range Rd,Mount Pleasant,29464,SC,Charleston,843-856-4700,,,,,NCF-0800,http://nfbl.sc.gov/FacilityInformation.php?FacID=149,US,Nursing Facility
USA-SC-58-SC-OfficeOnAging-output-47,Laurel Baye Healthcare Of Blackville,1612 Jones Bridge Rd,Blackville,29817,SC,Barnwell,803-284-4313,803-284-1746,Brittany Owens,Bowens@laurelbaye.com,,NCF-0755,http://nfbl.sc.gov/FacilityInformation.php?FacID=150,US,Nursing Facility
USA-SC-58-SC-OfficeOnAging-output-48,Orangeburg Rehab and Healthcare Center,575 Stonewall Jackson Blvd,Orangeburg,29115,SC,Orangeburg,803-534-7771,803-531-5682,Michelle Holbrook,jnoble@covenantdove.com,www.covenantdove.com,NCF-0858,http://nfbl.sc.gov/FacilityInformation.php?FacID=151,US,Nursing Facility
USA-SC-58-SC-OfficeOnAging-output-49,Jolley Acres Healthcare Center,1180 Wolfe Trlal,Orangeburg,29115,SC,Orangeburg,803-534-1001,803--533-1205,Kimberly Harrell,kimberly.kincheloe@palmltc.com,,NCF-0929,http://nfbl.sc.gov/FacilityInformation.php?FacID=152,US,Nursing Facility
USA-SC-58-SC-OfficeOnAging-output-50,Ellenburg Nursing Center,611 E Hampton St,Anderson,29624,SC,Anderson,864-226-5054,864-226-5643,Jane Capps,jcapps@ellenburgnursingcenter.com,,NCF-0231,http://nfbl.sc.gov/FacilityInformation.php?FacID=153,US,Nursing Facility
USA-SC-58-SC-OfficeOnAging-output-51,"Dundee Manor, LLC",710 15-401 Byp W,Bennettsville,29512,SC,Marlboro,843-479-6251,843-479-8101,"C Crowley, Admissions/Social Service",socialservices@dundeemanor.net,,NCF-0897,http://nfbl.sc.gov/FacilityInformation.php?FacID=155,US,Nursing Facility
USA-SC-58-SC-OfficeOnAging-output-52,Cheraw Healthcare,400 Moffat Dr,Cheraw,29520,SC,Chesterfield,843-537-5253,843-537-4014,,info@cherawhc.com,www.cherawhealthcare.com,NCF-0951,http://nfbl.sc.gov/FacilityInformation.php?FacID=156,US,Nursing Facility
USA-SC-58-SC-OfficeOnAging-output-53,Methodist Oaks,1000 Methodist Oaks Dr,Orangeburg,29115,SC,Orangeburg,803-534-1212,803-535-1540,Maria Hall,maria.hall@theoakssc.com,theoakssc.com,NCF-0735,http://nfbl.sc.gov/FacilityInformation.php?FacID=157,US,Nursing Facility
USA-SC-58-SC-OfficeOnAging-output-54,"Riverside Health And Rehab, Charleston",2375 Baker Hospital Blvd.,North Charleston,29405,SC,Charleston,843-744-2750,843-747-5869,Ronda Greaves,ronda.greaves@fundltc.com,www.riversidehealthrehabsc.com,NCF-0870,http://nfbl.sc.gov/FacilityInformation.php?FacID=158,US,Nursing Facility
USA-SC-58-SC-OfficeOnAging-output-55,Sandpiper Rehab and Nursing,1049 Anna Knapp Blvd,Mount Pleasant,29464,SC,Charleston,843-881-3210,843-737-6076,Kay Drummond and Kimberly Greene,kdrummond@sandpipercenter.com,,NCF-0876,http://nfbl.sc.gov/FacilityInformation.php?FacID=159,US,Nursing Facility
USA-SC-58-SC-OfficeOnAging-output-56,Blue Ridge in Brookview House,510 Thompson St,Gaffney,29340,SC,Cherokee,864-489-3101,864-488-9910,Erica Smith,Admiss@brookview.care,palmettohealthandrehab.com,NCF-0979,http://nfbl.sc.gov/FacilityInformation.php?FacID=160,US,Nursing Facility
USA-SC-58-SC-OfficeOnAging-output-57,Faith Healthcare Center,617 W Marion St,Florence,29501,SC,Florence,843-669-9958,,,,,NCF-0927,http://nfbl.sc.gov/FacilityInformation.php?FacID=161,US,Nursing Facility
USA-SC-58-SC-OfficeOnAging-output-58,Fountain Inn Nursing Home,501 Gulliver St,Fountain Inn,29644,SC,Greenville,864-862-2554,864-862-0458,Lisa Stewart,lstewart@carlyleseniorcare.com,,NCF-0985,http://nfbl.sc.gov/FacilityInformation.php?FacID=162,US,Nursing Facility
USA-SC-58-SC-OfficeOnAging-output-59,Cherokee County Long Term Care Facility,1434 N Limestone St,Gaffney,29340,SC,Cherokee,864-487-2717,864-487-2798,Amanda Knowles X513,amanda.k@peachtreectr.com,www.peachtreectr.com,NCF-0972,http://nfbl.sc.gov/FacilityInformation.php?FacID=163,US,Nursing Facility
USA-SC-58-SC-OfficeOnAging-output-60,Pruitt Health - Bamberg,439 North St,Bamberg,29003,SC,Bamberg,803-245-7525,8032457527,Amber Reynolds,areynolds@pruitthealth.com,,NCF-0322,http://nfbl.sc.gov/FacilityInformation.php?FacID=164,US,Nursing Facility
USA-SC-58-SC-OfficeOnAging-output-61,Laurel Crest Retirement Center,100 Joseph Walker Dr,West Columbia,29169,SC,Lexington,803-796-0370,,,,,NCF-0647,http://nfbl.sc.gov/FacilityInformation.php?FacID=165,US,Nursing Facility
USA-SC-58-SC-OfficeOnAging-output-62,Manna Health & Rehab Of Pickens,716 E Cedar Rock St,Pickens,29671,SC,Pickens,864-878-4739,864-878-1657,Laura Spearman,LSpearman@covenantdove.com,www.covenantdove.com/manna,NCF-0910,http://nfbl.sc.gov/FacilityInformation.php?FacID=166,US,Nursing Facility
USA-SC-58-SC-OfficeOnAging-output-63,Heartland Health Care Center Greenville West,600 Sulphur Springs Rd,Greenville,29617,SC,Greenville,864-246-2721,864-294-7041,Chris Patrie,4033admiss2@hcr-manorcare,www.hcr-manorcare.com,NCF-0953,http://nfbl.sc.gov/FacilityInformation.php?FacID=167,US,Nursing Facility
USA-SC-58-SC-OfficeOnAging-output-64,Morrell Nursing Center,900 N Marquis Hwy,Hartsville,29550,SC,Darlington,843-383-5164,,,,,NCF-0881,http://nfbl.sc.gov/FacilityInformation.php?FacID=168,US,Nursing Facility
USA-SC-58-SC-OfficeOnAging-output-65,Mountainview Nursing Home,340 Cedar Springs Rd,Spartanburg,29302,SC,Spartanburg,864-582-4175,864-583-2310,Sue Kemp or Julie Gombash,skemp@mountainviewnh.com,www.mountainviewnh.com,NCF-0149,http://nfbl.sc.gov/FacilityInformation.php?FacID=169,US,Nursing Facility
USA-SC-58-SC-OfficeOnAging-output-66,Mullins Nursing  & Rehabilitation Center,518 S Main St,Mullins,29574,SC,Marion,843-464-8211,843-464-1330,Leslie Hayes,LHayes@CarolinasHospital.com,http:,NCF-0828,http://nfbl.sc.gov/FacilityInformation.php?FacID=170,US,Nursing Facility
USA-SC-58-SC-OfficeOnAging-output-67,Sunny Acres Nursing Home,1727 Buck Swamp Rd,Fork,29543,SC,Dillon,843-464-6212,843-464-0089,Kay Middleton,mmiddleton@carlyleseniorcare.com,,NCF-0987,http://nfbl.sc.gov/FacilityInformation.php?FacID=171,US,Nursing Facility
USA-SC-58-SC-OfficeOnAging-output-68,Westminster Health And Rehabilitation Center,831 Mcdow Dr,Rock Hill,29732,SC,York,803-326-3100,,,,,NCF-0819,http://nfbl.sc.gov/FacilityInformation.php?FacID=172,US,Nursing Facility
USA-SC-58-SC-OfficeOnAging-output-69,Martha Franks Baptist Retirement Community,1 Martha Franks Dr,Laurens,29360,SC,Laurens,864-681-8280,864-681-8286,Joyce Holliday,jholliday@scbma.com,www.marthafranks.com,NCF-0435,http://nfbl.sc.gov/FacilityInformation.php?FacID=173,US,Nursing Facility
USA-SC-58-SC-OfficeOnAging-output-70,Mccoy Memorial Nursing Center,207 Chappell Dr,Bishopville,29010,SC,Lee,803-484-5636,803-753-9921,Melissa Boykin,mboykin@carlyleseniorcare.com,,NCF-0986,http://nfbl.sc.gov/FacilityInformation.php?FacID=174,US,Nursing Facility
USA-SC-58-SC-OfficeOnAging-output-71,Methodist Manor Healthcare Center,2100 Twin Church Rd,Florence,29501,SC,Florence,843-664-0700,,,,,NCF-0579,http://nfbl.sc.gov/FacilityInformation.php?FacID=175,US,Nursing Facility
USA-SC-58-SC-OfficeOnAging-output-72,Laurens County Health Care System Skilled Nursing Facility,22725 Hwy 76 E,Clinton,29325,SC,Laurens,864-938-2843,,,,,NCF-0991,http://nfbl.sc.gov/FacilityInformation.php?FacID=176,US,Nursing Facility
USA-SC-58-SC-OfficeOnAging-output-73,Rock Hill Post Acute Care Center,159 Sedgewood Dr,Rock Hill,29732,SC,York,803-329-6565,803-985-9104,Scott Thompson or Tiffany Atkins,Tatkins@ensignservices.net,www.rockhillcarecenter.com,NCF-0975,http://nfbl.sc.gov/FacilityInformation.php?FacID=177,US,Nursing Facility
USA-SC-58-SC-OfficeOnAging-output-74,Trinity Mission Health & Rehab of Edgefield,226 W.A. Reel Dr,Edgefield,29824,SC,Edgefield,803-637-5312,901-372-5819,Ron Arant,rarant@covenantdove.com,www.covenantdove.com,NCF-0941,http://nfbl.sc.gov/FacilityInformation.php?FacID=178,US,Nursing Facility
USA-SC-58-SC-OfficeOnAging-output-75,Greenville Memorial Medical Center Subacute Unit,701 Grove Rd,Greenville,29605,SC,Greenville,864-455-5993,,,,,NCF-0989,http://nfbl.sc.gov/FacilityInformation.php?FacID=179,US,Nursing Facility
USA-SC-58-SC-OfficeOnAging-output-76,Fleetwood Rehabilitation and Healthcare,200 Anne Dr,Easley,29640,SC,Pickens,864-859-9754,864-859-0697,,,,NCF-0913,http://nfbl.sc.gov/FacilityInformation.php?FacID=180,US,Nursing Facility
USA-SC-58-SC-OfficeOnAging-output-77,Nhc Healthcare Clinton,304 Jacobs Hwy,Clinton,29325,SC,Laurens,864-833-2550,864-938-9240,Deborah Bolton,dbolton@nhcclinton.net,www.nhcclinton.com,NCF-0804,http://nfbl.sc.gov/FacilityInformation.php?FacID=181,US,Nursing Facility
USA-SC-58-SC-OfficeOnAging-output-78,Life Care Center Of Charleston,2600 Elms Plantation Blvd,North Charleston,29406,SC,Charleston,843-764-3500,843-764-0995,Donna Moynihan,Donna_Moynihan@lcca.com,,NCF-0878,http://nfbl.sc.gov/FacilityInformation.php?FacID=182,US,Nursing Facility
USA-SC-58-SC-OfficeOnAging-output-79,Tuomey Subacute Skilled Care Program,129 N Washington St,Sumter,29150,SC,Sumter,803-774-9000,,,,,NCF-0973,http://nfbl.sc.gov/FacilityInformation.php?FacID=183,US,Nursing Facility
USA-SC-58-SC-OfficeOnAging-output-80,Pruitt Health - Rock Hill,261 S Herlong Ave,Rock Hill,29732,SC,York,803-366-7133,803-325-8411,Kate Johnson,katejohnson@pruitthealth.com,www.pruitthealth.com,NCF-0947,http://nfbl.sc.gov/FacilityInformation.php?FacID=184,US,Nursing Facility
USA-SC-58-SC-OfficeOnAging-output-81,Honorage Nursing Center,1207 N Cashua Rd,Florence,29501,SC,Florence,843-665-6172,843-665-1233,,,,NCF-0329,http://nfbl.sc.gov/FacilityInformation.php?FacID=185,US,Nursing Facility
USA-SC-58-SC-OfficeOnAging-output-82,Diamond Health & Rehab Of Simpsonville,807 Se Main St,Simpsonville,29681,SC,Greenville,864-963-6069,,,,,NCF-0905,http://nfbl.sc.gov/FacilityInformation.php?FacID=186,US,Nursing Facility
USA-SC-58-SC-OfficeOnAging-output-83,Kingston Nursing Center,2379 Cypress Circle,Conway,29526,SC,Horry,843-347-8179,843-234-5056,Sarah Bowler,Sarah.Bowler@cmc-sc.com,www.conwaymedicalcenter.com,NCF-0518,http://nfbl.sc.gov/FacilityInformation.php?FacID=187,US,Nursing Facility
USA-SC-58-SC-OfficeOnAging-output-84,Kingstree Nursing Facility,401 Nelson Blvd,Kingstree,29556,SC,Williamsburg,843-355-6116,843-355-2261,Ashley Monteith,amonteith@carlyleseniorcare.com,,NCF-0984,http://nfbl.sc.gov/FacilityInformation.php?FacID=188,US,Nursing Facility
USA-SC-58-SC-OfficeOnAging-output-85,Lake City-Scranton Healthcare Center,1940 Boyd Rd,Scranton,29591,SC,Florence,843-389-9201,843-389-9202,"Lynn Gibbs, Administrator",admiss@lakecityltc.com,,NCF-0928,http://nfbl.sc.gov/FacilityInformation.php?FacID=189,US,Nursing Facility
USA-SC-58-SC-OfficeOnAging-output-86,Dr. Ronald E. McNair Nursing And Rehabilitation Center,56 Genesis Dr,Lake City,29560,SC,Florence,843-389-3685,843-210-3026,Mona Singletary,l_mcnairnsgctr@ftc-i.net,,NCF-0918,http://nfbl.sc.gov/FacilityInformation.php?FacID=190,US,Nursing Facility
USA-SC-58-SC-OfficeOnAging-output-87,C M Tucker Jr Nursing Care Center Roddey Pavilion,2200 Harden St,Columbia,29203,SC,Richland,803-737-5301,803-737-7140,Melanie Muir,Melanie.Muir@scdmh.org,,NCF-0726,http://nfbl.sc.gov/FacilityInformation.php?FacID=191,US,Nursing Facility
USA-SC-58-SC-OfficeOnAging-output-88,Camp Care,59 Blackstock Rd,Inman,29349,SC,Spartanburg,864-472-2028,864-472-6901,Beth Ann Vickery,beth.vickery@fundltc.com,,NCF-0862,http://nfbl.sc.gov/FacilityInformation.php?FacID=192,US,Nursing Facility
USA-SC-58-SC-OfficeOnAging-output-89,Chesterfield Convalescent Center,1150 State Rd,Cheraw,29520,SC,Chesterfield,843-537-2060,843-537-3676,Darlene Lovelace and Lisa Adair (SSD),darlenehlovelace@yahoo.com,,NCF-0552,http://nfbl.sc.gov/FacilityInformation.php?FacID=193,US,Nursing Facility
USA-SC-58-SC-OfficeOnAging-output-90,Clemson Area Retirement Center-health Care Center,500 Downs Loop,Clemson,29631,SC,Pickens,864-654-1155,,,,,NCF-0391,http://nfbl.sc.gov/FacilityInformation.php?FacID=194,US,Nursing Facility
USA-SC-58-SC-OfficeOnAging-output-91,Commander Nursing Center,4438 Pamplico Hwy,Florence,29505,SC,Florence,843-669-3502,843-667-9425,Rosalind Collins,cmdnursing@aol.com,,NCF-0233,http://nfbl.sc.gov/FacilityInformation.php?FacID=195,US,Nursing Facility
USA-SC-58-SC-OfficeOnAging-output-92,C M Tucker Jr Nursing Care Center Fewell And Stone Pavilions,2200 Harden St,Columbia,29203,SC,Richland,803-737-5399,803-737-7526,Sarah Kirchman,Sarah.Kirchman@scdmh.org,,NCF-0334,http://nfbl.sc.gov/FacilityInformation.php?FacID=196,US,Nursing Facility
USA-SC-58-SC-OfficeOnAging-output-93,Laurel Baye Healthcare Of Williston,5721 Springfield Rd,Williston,29853,SC,Barnwell,803-266-3229,803-266-2257,"Lynne Green, Director of Admissions",lgreen@laurelbaye.com,,NCF-0754,http://nfbl.sc.gov/FacilityInformation.php?FacID=197,US,Nursing Facility
USA-SC-58-SC-OfficeOnAging-output-94,Inman Healthcare,51 N Main St,Inman,29349,SC,Spartanburg,864-472-9370,864-472-6672,Karen Wingo,KAWingo@savasc.com,http:,NCF-0864,http://nfbl.sc.gov/FacilityInformation.php?FacID=198,US,Nursing Facility
USA-SC-58-SC-OfficeOnAging-output-95,J F Hawkins Nursing Home,1330 Kinard St,Newberry,29108,SC,Newberry,803-276-2601,803-276-2602,Niki Perkins,nperkins@newberryccrc.com,www.newberryccrc.com,NCF-0234,http://nfbl.sc.gov/FacilityInformation.php?FacID=199,US,Nursing Facility
USA-SC-58-SC-OfficeOnAging-output-96,PruittHealth Dillon,413 Lakeside Ct,Dillon,29536,SC,Dillon,843-774-2741,8437741647,Celeste J. Campbell,CCampbell@uhs-pruitt.com,,NCF-0835,http://nfbl.sc.gov/FacilityInformation.php?FacID=200,US,Nursing Facility
USA-SC-58-SC-OfficeOnAging-output-97,Lake Marion Nursing Facility,1527 Urbana Rd,Summerton,29148,SC,Clarendon,803-485-2317,803-485-8578,"Rebecca Thomas, Admissions Coordinator",amiles@clarendonltc.org,www.clarendonltc.org,NCF-0736,http://nfbl.sc.gov/FacilityInformation.php?FacID=201,US,Nursing Facility
USA-SC-58-SC-OfficeOnAging-output-98,Transitional Care Unit At Springs Memorial Hospital,800 W Meeting St,Lancaster,29720,SC,Lancaster,803-286-1481,,,,,NCF-0723,http://nfbl.sc.gov/FacilityInformation.php?FacID=202,US,Nursing Facility
USA-SC-58-SC-OfficeOnAging-output-99,Bethea Baptist Health Care Center,157 Home Ave,Darlington,29532,SC,Darlington,843-393-2867,843-393-2458,Jenny Doll,jdoll@scbma.com,bethearetirement.com,NCF-0189,http://nfbl.sc.gov/FacilityInformation.php?FacID=203,US,Nursing Facility
USA-SC-58-SC-OfficeOnAging-output-100,Capstone Health & Rehab Of Easley,1850 Crestview Rd,Easley,29642,SC,Pickens,864-859-3236,864-442-9847,Central Admissions,lspearman@orianna.com,www.orianna.com/store-page/capstone-rehabilitation-and-healthcare-center/,NCF-0901,http://nfbl.sc.gov/FacilityInformation.php?FacID=204,US,Nursing Facility
USA-SC-58-SC-OfficeOnAging-output-101,Brian Center Nursing Care-St Andrews,3514 Sidney Rd,Columbia,29210,SC,Lexington,803-798-9715,803-798-1731,Hiedi Smola,standrews_ad@choice-health.net,,NCF-0875,http://nfbl.sc.gov/FacilityInformation.php?FacID=205,US,Nursing Facility
USA-SC-58-SC-OfficeOnAging-output-102,Rice Estate Rehabilitation And Healthcare,100 Finley Rd,Columbia,29203,SC,Richland,803-691-5720,,,,,NCF-0831,http://nfbl.sc.gov/FacilityInformation.php?FacID=206,US,Nursing Facility
USA-SC-58-SC-OfficeOnAging-output-103,Heritage At Lowman Rehabilitation And Healthcare,201 Fortress Dr,Chapin,29036,SC,Richland,803-732-3000,803-781-0292,,Rehab@theheritageatlowman.org,www.lutheranhomessc.org,NCF-0688,http://nfbl.sc.gov/FacilityInformation.php?FacID=207,US,Nursing Facility
USA-SC-58-SC-OfficeOnAging-output-104,Magnolia Manor-Columbia,1007 N Kings Street,Columbia,29223,SC,Richland,803-699-4111,803-699-1845,J. Blake Mc Clure,,,NCF-0868,http://nfbl.sc.gov/FacilityInformation.php?FacID=208,US,Nursing Facility
USA-SC-58-SC-OfficeOnAging-output-105,Life Care Center Of Columbia,2514 Faraway Dr,Columbia,29223,SC,Richland,803-865-1999,803865-0759,Tina Thompson,Tina_thompson@lcca.com,,NCF-0634,http://nfbl.sc.gov/FacilityInformation.php?FacID=209,US,Nursing Facility
USA-SC-58-SC-OfficeOnAging-output-106,Hallmark  Rehab and Health Center,255 Midland Pkwy,Summerville,29485,SC,Dorchester,843-821-5005,843-821-5005,LUCINDA AMBROISE,ADMISS@HALLMARKLTC.COM,,NCF-0932,http://nfbl.sc.gov/FacilityInformation.php?FacID=210,US,Nursing Facility
USA-SC-58-SC-OfficeOnAging-output-107,Pruitt Health Pickens,163 Love And Care Rd,Six Mile,29682,SC,Pickens,864-868-2307,864-868-7813,Teresa Diller,tdiller@pruitthealth.com,www.pruitthealth.com,NCF-0580,http://nfbl.sc.gov/FacilityInformation.php?FacID=211,US,Nursing Facility
USA-SC-58-SC-OfficeOnAging-output-108,Health Care Center Of Wesley Commons,1110 Marshall Rd,Greenwood,29646,SC,Greenwood,864-227-7250,864-227-7199,Ellen Jenks,ejenks@wesleycommons.org,www.wesleycommons.org,NCF-0304,http://nfbl.sc.gov/FacilityInformation.php?FacID=212,US,Nursing Facility
USA-SC-58-SC-OfficeOnAging-output-109,Heartland Of Columbia,2601 Forest Dr,Columbia,29204,SC,Richland,803-256-4983,803-779-0738,Mark Bowen,512admiss@hcr-manorcare.com,,NCF-0316,http://nfbl.sc.gov/FacilityInformation.php?FacID=213,US,Nursing Facility
USA-SC-58-SC-OfficeOnAging-output-110,White Oak Estates,400 Webber Rd,Spartanburg,29307,SC,Spartanburg,864-579-7004,864-579-7714,Laura Davis,ldavis@whiteoakmanor.com,www.whiteoakmanor.com,NCF-0888,http://nfbl.sc.gov/FacilityInformation.php?FacID=214,US,Nursing Facility
USA-SC-58-SC-OfficeOnAging-output-111,Medford Nursing Center,105 Medford Dr,Darlington,29532,SC,Darlington,843-398-7000,,,,,NCF-0891,http://nfbl.sc.gov/FacilityInformation.php?FacID=215,US,Nursing Facility
USA-SC-58-SC-OfficeOnAging-output-112,Pepper Hill Nursing & Rehab Center,3525 Augustus Rd,Aiken,29801,SC,Aiken,803-642-8376,803-642-8356,Ron Arant,ronarant@pepperhill.com,pepperhill.com,NCF-0879,http://nfbl.sc.gov/FacilityInformation.php?FacID=216,US,Assisted Living Facility and a Nursing Facility
USA-SC-58-SC-OfficeOnAging-output-113,Lexington Medical Center Extended Care,815 Old Cherokee Rd,Lexington,29072,SC,Lexington,803-359-5181,803-808-9436,Admissions Department,jcoverton@lexhealth.org,www.lexmed.com/locations/extended-care,NCF-0730,http://nfbl.sc.gov/FacilityInformation.php?FacID=217,US,Nursing Facility
USA-SC-58-SC-OfficeOnAging-output-114,PruittHealth North Augusta,1200 Talisman Dr,North Augusta,29841,SC,Aiken,803-278-2170,803-442-9344,Kathy Gill,kagill@uhs-pruitt.com,uhs-pruitt.com,NCF-0721,http://nfbl.sc.gov/FacilityInformation.php?FacID=218,US,Nursing Facility
USA-SC-58-SC-OfficeOnAging-output-115,Emeritus At Anderson Place Health Care Center,311 Simpson Rd,Anderson,29621,SC,Anderson,864-261-3875,,,,,NCF-0872,http://nfbl.sc.gov/FacilityInformation.php?FacID=219,US,Nursing Facility
USA-SC-58-SC-OfficeOnAging-output-116,Nhc Healthcare North Augusta,350 Austin Graybill Rd,North Augusta,29860,SC,Aiken,803-278-4272,803-278-1794,Julie Knight/ Jessica Randall,jknight@nhcnorthaugusta.com,www.nhcnorthaugusta.com,NCF-0799,http://nfbl.sc.gov/FacilityInformation.php?FacID=220,US,Nursing Facility
USA-SC-58-SC-OfficeOnAging-output-117,Nhc Healthcare Parklane,7601 Parklane Rd,Columbia,29223,SC,Richland,803-741-9090,803-461-0805,Jennifer McClellan,jmcclellan@nhcparklane.com,,NCF-0797,http://nfbl.sc.gov/FacilityInformation.php?FacID=221,US,Nursing Facility
USA-SC-58-SC-OfficeOnAging-output-118,Southland Health Care Center,722 S Dargan St,Florence,29506,SC,Florence,843-669-4403,843-669-4534,Beth Shealy,bshealy@southlandhealthcare.net,,NCF-0599,http://nfbl.sc.gov/FacilityInformation.php?FacID=222,US,Nursing Facility
USA-SC-58-SC-OfficeOnAging-output-119,Lancaster Convalescent Center,2044 Pageland Hwy,Lancaster,29720,SC,Lancaster,803-285-7907,803-289-1790,Brenda Moseley,brenda.moseley@fundltc.com,,NCF-0551,http://nfbl.sc.gov/FacilityInformation.php?FacID=223,US,Nursing Facility
USA-SC-58-SC-OfficeOnAging-output-120,White Oak Of Newberry,2555 Kinard St,Newberry,29108,SC,Newberry,803-276-6060,803-321-1049,Gail Sligh,gsligh@whiteoakmanor.com,"www, whiteoakmanor.com",NCF-0884,http://nfbl.sc.gov/FacilityInformation.php?FacID=224,US,Nursing Facility
USA-SC-58-SC-OfficeOnAging-output-121,Heartland Healthcare of Union,709 Rice Ave Ext,Union,29379,SC,Union,864-427-0306,864-427-9148,Amanda Gallman,Amanda.gallman@hcr-manorcare.com,,NCF-0443,http://nfbl.sc.gov/FacilityInformation.php?FacID=225,US,Nursing Facility
USA-SC-58-SC-OfficeOnAging-output-122,Ellen Sagar Nursing Center,1817 Jonesville Hwy,Union,29379,SC,Union,864-301-3500,864-427-2666,Allison Miller,amiller6@srhs.com,,NCF-0217,http://nfbl.sc.gov/FacilityInformation.php?FacID=226,US,Nursing Facility
USA-SC-58-SC-OfficeOnAging-output-123,Woodruff Manor,1114 E Georgia Rd,Woodruff,29388,SC,Spartanburg,864-476-7092,864-476-0753,Crystal Lewis,admissions@woodruffmanor.com,Woodruffmanor.net,NCF-0823,http://nfbl.sc.gov/FacilityInformation.php?FacID=227,US,Nursing Facility
USA-SC-58-SC-OfficeOnAging-output-124,Summit Hills Skilled Nursing Facility,100 Summit Hills Dr,Spartanburg,29307,SC,Spartanburg,864-591-2222,,,,,NCF-0950,http://nfbl.sc.gov/FacilityInformation.php?FacID=228,US,Nursing Facility
USA-SC-58-SC-OfficeOnAging-output-125,Broad Creek Care Center Skilled Nursing,801 Lemon Grass Ct,Hilton Head Island,29928,SC,Beaufort,843-341-7300,,,,,NCF-0753,http://nfbl.sc.gov/FacilityInformation.php?FacID=229,US,Nursing Facility
USA-SC-58-SC-OfficeOnAging-output-126,Magnolia Manor-Greenville,411 Ansel St,Greenville,29601,SC,Greenville,864-232-5368,864-232-7599,Nick Athans,nickolas.athans@fundltc.com,,NCF-0860,http://nfbl.sc.gov/FacilityInformation.php?FacID=230,US,Nursing Facility
USA-SC-58-SC-OfficeOnAging-output-127,Magnolia Manor-Greenwood,1415 Pkwy,Greenwood,29646,SC,Greenwood,864-227-9500,864-227-9498,Terry Greer,marion.greer@fundltc.com,,NCF-0866,http://nfbl.sc.gov/FacilityInformation.php?FacID=231,US,Nursing Facility
USA-SC-58-SC-OfficeOnAging-output-128,Springdale Healthcare Center,146 Battleship Rd,Camden,29020,SC,Kershaw,803-432-3741,803-432-8931,LeShaunda Henderson,leshaunda.henderson@palmltc.com,,NCF-0925,http://nfbl.sc.gov/FacilityInformation.php?FacID=232,US,Nursing Facility
USA-SC-58-SC-OfficeOnAging-output-129,St George Healthcare Center,905 Dukes St,Saint George,29477,SC,Dorchester,843-563-4602,843-563-4721,Laurie Branch,admiss@stgeorgeltc.com,,NCF-0924,http://nfbl.sc.gov/FacilityInformation.php?FacID=233,US,Nursing Facility
USA-SC-58-SC-OfficeOnAging-output-130,Hope Health & Rehab Of Marietta,2906 Geer Hwy,Marietta,29661,SC,Greenville,864-836-6381,864-836-7229,Evelyn Guy,eguy@covenantdove.com,www.covenantdove.com,NCF-0920,http://nfbl.sc.gov/FacilityInformation.php?FacID=234,US,Nursing Facility
USA-SC-58-SC-OfficeOnAging-output-131,"NHC HealthCare, Laurens",379 Pinehaven St Ext,Laurens,29360,SC,Laurens,864-984-6584,864-984-1642,Tonie Campbell,tcampbell@nhclaurens.com,www.nhclaurens.com,NCF-0326,http://nfbl.sc.gov/FacilityInformation.php?FacID=235,US,Nursing Facility
USA-SC-58-SC-OfficeOnAging-output-132,NHC HealthCare Lexington,2993 Sunset Blvd,West Columbia,29169,SC,Lexington,803-939-0026,803-939-9242,Ashley Whaley,awhaley@nhclexington.com,www.nhclexington.com,NCF-0798,http://nfbl.sc.gov/FacilityInformation.php?FacID=236,US,Nursing Facility
USA-SC-58-SC-OfficeOnAging-output-133,Magnolia Manor-Inman,63 Blackstock Rd,Inman,29349,SC,Spartanburg,864-472-9055,864-472-2619,Elizabeth Harrison Byers,ElizabethHarrisonByers@fundltc.com,,NCF-0863,http://nfbl.sc.gov/FacilityInformation.php?FacID=237,US,Nursing Facility
USA-SC-58-SC-OfficeOnAging-output-134,Unihealth Post Acute Care-moncks Corner,505 S Live Oak Dr,Moncks Corner,29461,SC,Berkeley,843-761-8368,843-761-4485,Jennifer Ward,jeward@uhs-pruitt.com,URReady.com or Pruitthealth.com,NCF-0943,http://nfbl.sc.gov/FacilityInformation.php?FacID=238,US,Nursing Facility
USA-SC-58-SC-OfficeOnAging-output-135,Magnolia Manor-Rock Hill,127 Murrah Dr,Rock Hill,29732,SC,York,803-328-6518,803-327-4638,Laurie Wilson,laurie.wilson@fundltc.com,,NCF-0859,http://nfbl.sc.gov/FacilityInformation.php?FacID=239,US,Nursing Facility
USA-SC-58-SC-OfficeOnAging-output-136,Magnolia Manor-Spartanburg,375 Serpentine Dr,Spartanburg,29303,SC,Spartanburg,864-585-0218,864-594-5122,Phoebe Bowlin,phoebe.bowlin@fundltc.com,,NCF-0867,http://nfbl.sc.gov/FacilityInformation.php?FacID=240,US,Nursing Facility
USA-SC-58-SC-OfficeOnAging-output-137,Magnolia Place At Spartanburg,8020 White Ave,Spartanburg,29303,SC,Spartanburg,864-542-8515,864-594-5150,LaTonya Covington,latonya.covington@fundltc.com,,NCF-0861,http://nfbl.sc.gov/FacilityInformation.php?FacID=241,US,Nursing Facility
USA-SC-58-SC-OfficeOnAging-output-138,Magnolia Place At Greenville,35 Southpointe Dr,Greenville,29607,SC,Greenville,864-288-1415,864-288-7271,Kim Martin,k.martin@fundltc.com,,NCF-0869,http://nfbl.sc.gov/FacilityInformation.php?FacID=242,US,Nursing Facility
USA-SC-58-SC-OfficeOnAging-output-139,Windsor Manor,5583 Summerton Hwy,Manning,29102,SC,Clarendon,803-478-2323,803-478-2334,Robin Alexander,rdalexander@clarendonltc.org,,NCF-0737,http://nfbl.sc.gov/FacilityInformation.php?FacID=243,US,Nursing Facility
USA-SC-58-SC-OfficeOnAging-output-140,Oakbrook Health and Rehabilitation,920 Travelers Blvd,Summerville,29485,SC,Dorchester,843-875-9053,843-875-7334,Dan Owens,admiss@oakbrookltc.com,,NCF-0923,http://nfbl.sc.gov/FacilityInformation.php?FacID=244,US,Nursing Facility
USA-SC-58-SC-OfficeOnAging-output-141,Oakhaven Nursing Center,123 Oak St,Darlington,29532,SC,Darlington,843-398-7041,,,,,NCF-0890,http://nfbl.sc.gov/FacilityInformation.php?FacID=245,US,Nursing Facility
USA-SC-58-SC-OfficeOnAging-output-142,Heartland Healthcare Center Greenville East,601 Sulphur Springs Rd,Greenville,29617,SC,Greenville,864-246-2721,864-294-7041,Chris Patrie,4033admiss2@hcr-manorcare,,NCF-0952,http://nfbl.sc.gov/FacilityInformation.php?FacID=246,US,Nursing Facility
USA-SC-58-SC-OfficeOnAging-output-143,Wildewood Downs Nursing And Rehabilitation Center,731 Polo Rd,Columbia,29223,SC,Richland,803-788-5115,,,,,NCF-0914,http://nfbl.sc.gov/FacilityInformation.php?FacID=247,US,Nursing Facility
USA-SC-58-SC-OfficeOnAging-output-144,Presbyterian Home Of South Carolina-foothills,205 Bud Nalley Dr,Easley,29642,SC,Pickens,864-859-3367,864-850-2310,Donna Owens,dowens@preshomesc.org,,NCF-0809,http://nfbl.sc.gov/FacilityInformation.php?FacID=248,US,Nursing Facility
USA-SC-58-SC-OfficeOnAging-output-145,Kershawhealth Karesh Long Term Care,1315 Roberts St,Camden,29020,SC,Kershaw,803-713-6376,803-713-3110,Becky LaFrage,lafrage@kershawhealth.org,,NCF-0313,http://nfbl.sc.gov/FacilityInformation.php?FacID=249,US,Nursing Facility
USA-SC-58-SC-OfficeOnAging-output-146,Florence Rehab & Nursing Center,133 W Clarke Rd,Florence,29501,SC,Florence,843-669-4374,803-753-0034,Carolyn Jones,cjones@cooke-associates.com,,NCF-0983,http://nfbl.sc.gov/FacilityInformation.php?FacID=250,US,Nursing Facility
USA-SC-58-SC-OfficeOnAging-output-147,Nhc Healthcare Sumter,1018 N Guignard Dr,Sumter,29150,SC,Sumter,803-773-5567,803-774-5576,Electa Riggs,eriggs@nhcsumter.com,,NCF-0471,http://nfbl.sc.gov/FacilityInformation.php?FacID=251,US,Nursing Facility
USA-SC-58-SC-OfficeOnAging-output-148,NHC Healthcare Mauldin,850 E Butler Rd,Greenville,29607,SC,Greenville,864-675-6421,864-675-9122,Jennifer Zier Balon,jbalon@nhcmauldin.com,www.nhcmauldin.com,NCF-0796,http://nfbl.sc.gov/FacilityInformation.php?FacID=252,US,Nursing Facility
USA-SC-58-SC-OfficeOnAging-output-149,Emeritus At Countryside Health Care Center,706 Pelzer Hwy,Easley,29642,SC,Pickens,864-859-0167,864-859-2312,Amy Reeves,Amy.Reeves@Brookdale.com,,NCF-0701,http://nfbl.sc.gov/FacilityInformation.php?FacID=253,US,Nursing Facility
USA-SC-58-SC-OfficeOnAging-output-150,Presbyterian Home Of South Carolina - Clinton,801 Musgrove St,Clinton,29325,SC,Laurens,864-833-5190,,Stacey Gary,stacey.gary@preshomesc.org,,NCF-0366,http://nfbl.sc.gov/FacilityInformation.php?FacID=254,US,Nursing Facility
USA-SC-58-SC-OfficeOnAging-output-151,Spartanburg Hospital For Restorative Care Snf,389 Serpentine Dr,Spartanburg,29303,SC,Spartanburg,864-560-3232,864-560-3290,Karla Lamb,kmlamb@srhs.com,,NCF-0915,http://nfbl.sc.gov/FacilityInformation.php?FacID=255,US,Nursing Facility
USA-SC-58-SC-OfficeOnAging-output-152,Rosecrest Rehabilitation And Healthcare,200 Fortress Dr,Inman,29349,SC,Spartanburg,864-599-8600,,,,,NCF-0817,http://nfbl.sc.gov/FacilityInformation.php?FacID=256,US,Nursing Facility
USA-SC-58-SC-OfficeOnAging-output-153,Myrtle Beach Manor,9547 Hwy 17 N,Myrtle Beach,29572,SC,Horry,843-449-5283,,,,,NCF-0829,http://nfbl.sc.gov/FacilityInformation.php?FacID=257,US,Nursing Facility
USA-SC-58-SC-OfficeOnAging-output-154,Grace Hall Rehabilitation,1010 Lake Hunter Cir,Mount Pleasant,29464,SC,Charleston,843-388-2030,,,,,NCF-0926,http://nfbl.sc.gov/FacilityInformation.php?FacID=258,US,Nursing Facility
USA-SC-58-SC-OfficeOnAging-output-155,Mount Pleasant Manor,921 Bowman Road,Mount Pleasant,29464,SC,Charleston,843-884-8903,843-849-5298,(843)375-2903,admissions@mountpleasantmanor.com,www.mtpmanor.com,NCF-0896,http://nfbl.sc.gov/FacilityInformation.php?FacID=259,US,Nursing Facility
USA-SC-58-SC-OfficeOnAging-output-156,Johns Island Rehabilitation and Healthcare Center,3647 Maybank Hwy,Johns Island,29455,SC,Charleston,843-559-5888,843-559-5865,Candice Losego,closego@orianna.com,www.orianna.com,NCF-0911,http://nfbl.sc.gov/FacilityInformation.php?FacID=260,US,Nursing Facility
USA-SC-58-SC-OfficeOnAging-output-157,Brightwater Skilled Nursing Center,171 Brightwater Dr,Myrtle Beach,29579,SC,Horry,843-903-8300,,,,,NCF-0955,http://nfbl.sc.gov/FacilityInformation.php?FacID=261,US,Nursing Facility
USA-SC-58-SC-OfficeOnAging-output-158,"NHC HealthCare, Anderson",1501 E Greenville St,Anderson,29621,SC,Anderson,864-226-8356,864-622-2648,Cinnamon Mazzola,ss@nhcanderson.com,www.nhcanderson.com,NCF-0801,http://nfbl.sc.gov/FacilityInformation.php?FacID=262,US,Nursing Facility
USA-SC-58-SC-OfficeOnAging-output-159,Presbyterian Home Of South Carolina - Summerville,201 W 9th North St,Summerville,29483,SC,Dorchester,843-873-2550,843-851-2033,Yolanda White,yolanda.white@prshomesc.org,www.pcsc.org,NCF-0202,http://nfbl.sc.gov/FacilityInformation.php?FacID=263,US,Assisted Living Facility and a Nursing Facility
USA-SC-58-SC-OfficeOnAging-output-160,Covenant Place Nursing Center,2825 Carter Rd,Sumter,29150,SC,Sumter,803-469-7007,,,,,NCF-0632,http://nfbl.sc.gov/FacilityInformation.php?FacID=264,US,Nursing Facility
USA-SC-58-SC-OfficeOnAging-output-161,Compass Post Acute Rehabilitation,2320 Hwy 378,Conway,29527,SC,Horry,843-397-2273,843-397-0854,Wendy Lynch,wlynch@ensignservices.net,,NCF-0977,http://nfbl.sc.gov/FacilityInformation.php?FacID=266,US,Nursing Facility
USA-SC-58-SC-OfficeOnAging-output-162,Nhc Healthcare Charleston,2230 Ashley Crossing Dr,Charleston,29414,SC,Charleston,843-766-5228,843-766-5228,Ashley Whaley,,,NCF-0871,http://nfbl.sc.gov/FacilityInformation.php?FacID=267,US,Nursing Facility
USA-SC-58-SC-OfficeOnAging-output-163,Covenant Towers Health Care,5001 Little River Rd,Myrtle Beach,29577,SC,Horry,843-449-2484,,,,,NCF-0469,http://nfbl.sc.gov/FacilityInformation.php?FacID=268,US,Nursing Facility
USA-SC-58-SC-OfficeOnAging-output-164,PruittHealth columbia,2451 Forest Dr,Columbia,29204,SC,Richland,803-254-5960,803-252-0352,Will McNamara,wmcnamara@uhs-pruitt.com,,NCF-0880,http://nfbl.sc.gov/FacilityInformation.php?FacID=269,US,Nursing Facility
USA-SC-58-SC-OfficeOnAging-output-165,Sc Episcopal Home At Still Hopes,1 Still Hopes Dr,West Columbia,29169,SC,Lexington,803-739-5032,,,,,NCF-0392,http://nfbl.sc.gov/FacilityInformation.php?FacID=270,US,Nursing Facility
USA-SC-58-SC-OfficeOnAging-output-166,Nhc Healthcare Bluffton,3039 Okatie Hwy,Bluffton,29910,SC,Beaufort,843-705-8220,843-705-8222,Lyette Lank,llank@nhcbluffton.com,www.nhcbluffton.com,NCF-0958,http://nfbl.sc.gov/FacilityInformation.php?FacID=271,US,Nursing Facility
USA-SC-58-SC-OfficeOnAging-output-167,Fraser Health Care,300 Woodhaven Dr,Hilton Head Island,29928,SC,Beaufort,843-842-3747,,,,,NCF-0414,http://nfbl.sc.gov/FacilityInformation.php?FacID=272,US,Nursing Facility
USA-SC-58-SC-OfficeOnAging-output-168,Lake Moultrie Nursing Home,1038 Mcgill Ln,Saint Stephen,29479,SC,Berkeley,843-567-2307,843-567-2305,Casey Segars,crsegars@chsystem.org,,NCF-0738,http://nfbl.sc.gov/FacilityInformation.php?FacID=273,US,Nursing Facility
USA-SC-58-SC-OfficeOnAging-output-169,White Oak Manor Charleston,9285 Medical Plaza Dr,N Charleston,29406,SC,Charleston,843-797-8282,843-820-1065,Monica Rhoad,mrhoad@whiteoakmanor.com,www.whiteoakmanor.com,NCF-0892,http://nfbl.sc.gov/FacilityInformation.php?FacID=274,US,Nursing Facility
USA-SC-58-SC-OfficeOnAging-output-170,Bishop Gadsden Episcopal Health Care Center,3 Bishop Gadsden Way,Charleston,29412,SC,Charleston,843-762-3300,,,,,NCF-0577,http://nfbl.sc.gov/FacilityInformation.php?FacID=275,US,Nursing Facility
USA-SC-58-SC-OfficeOnAging-output-171,Richard M Campbell Veterans Nursing Home,4605 Belton Hwy,Anderson,29621,SC,Anderson,864-261-6734,,Lori Hedden,lhedden@hrmvsi.com,www.hmrveteranservices.com,NCF-0549,http://nfbl.sc.gov/FacilityInformation.php?FacID=276,US,Nursing Facility
USA-SC-58-SC-OfficeOnAging-output-172,PruittHealth of Orangeburg,755 Whitman St Se,Orangeburg,29115,SC,Orangeburg,803-534-7036,803-534-8148,Scott Williams,scwilliams@pruitthealth.com,uhs-pruitt.com,NCF-0617,http://nfbl.sc.gov/FacilityInformation.php?FacID=277,US,Nursing Facility
USA-SC-58-SC-OfficeOnAging-output-173,Calhoun Convalescent Center,601 Dantzler St,Saint Matthews,29135,SC,Calhoun,803-655-7101,803-655-7180,"Tana Shuler, LPN",tshuler@oburg.net,facebook.com/tana.shuler.5,NCF-0505,http://nfbl.sc.gov/FacilityInformation.php?FacID=278,US,Nursing Facility
USA-SC-58-SC-OfficeOnAging-output-174,Arboretum At The Woodlands,50 Arboretum Ln,Greenville,29617,SC,Greenville,864-371-3100,,,,,NCF-0957,http://nfbl.sc.gov/FacilityInformation.php?FacID=279,US,Nursing Facility
USA-SC-58-SC-OfficeOnAging-output-175,Greenwood Transitional Rehabilitation Unit,1530 Pkwy,Greenwood,29646,SC,Greenwood,864-330-1800,,,,,NCF-0944,http://nfbl.sc.gov/FacilityInformation.php?FacID=280,US,Nursing Facility
USA-SC-58-SC-OfficeOnAging-output-176,NHC Healthcare / Greenwood,437 Cambridge Ave E,Greenwood,29646,SC,Greenwood,864-223-1950,864-229-0279,Beth Welborn,bwelborn@nhcgreenwood.com,www.nhcgreenwood.com/NHCGreenwood/,NCF-0802,http://nfbl.sc.gov/FacilityInformation.php?FacID=281,US,Nursing Facility
USA-SC-58-SC-OfficeOnAging-output-177,"NHC Healthcare, Greenville",1305 Boiling Springs Rd,Greer,29650,SC,Greenville,864-458-7566,864-288-8043,Angie Youngblood,socialservices@nhcgreenville.com,nhcgreenville.com,NCF-0807,http://nfbl.sc.gov/FacilityInformation.php?FacID=282,US,Nursing Facility
USA-SC-58-SC-OfficeOnAging-output-178,Brushy Creek Rehabilitation and Healthcare Center,101 Cottage Creek Circle,Greer,29650,SC,Greenville,864-688-3817,864-801-1427,Nicole Pierce,npierce@orianna.com,www.orianna.com,NCF-0992,http://nfbl.sc.gov/FacilityInformation.php?FacID=283,US,Nursing Facility
USA-SC-58-SC-OfficeOnAging-output-179,Petra Health & Rehab Of Mccormick,204 Holiday Rd,Mc Cormick,29835,SC,McCormick,864-391-2390,864-391-2397,Brittany Sims,bsims@covenantdove.com,www.covenantdove.com,NCF-0933,http://nfbl.sc.gov/FacilityInformation.php?FacID=284,US,Nursing Facility
USA-SC-58-SC-OfficeOnAging-output-180,Unihealth Post-acute Care-tanglewood,213 Tanglewood Ct,Ridgeway,29130,SC,Fairfield,803-337-3211,803-337-8124,Clem Wood,admissions_rid@uhs-pruitt.com,,NCF-0710,http://nfbl.sc.gov/FacilityInformation.php?FacID=285,US,Nursing Facility
USA-SC-58-SC-OfficeOnAging-output-181,Valley Falls Terrace,400 Locust Grv,Spartanburg,29303,SC,Spartanburg,864-503-0377,864-503-9631,Dianne Boheler,Dianne.Boheler@fundltc.com,,NCF-0495,http://nfbl.sc.gov/FacilityInformation.php?FacID=286,US,Nursing Facility
USA-SC-58-SC-OfficeOnAging-output-182,Emeritus At Skylyn Health Care Center,1705 Skylyn Dr Ofc,Spartanburg,29307,SC,Spartanburg,864-582-6838,,,,,NCF-0700,http://nfbl.sc.gov/FacilityInformation.php?FacID=287,US,Nursing Facility
USA-SC-58-SC-OfficeOnAging-output-183,Anchor Health & Rehab Of Aiken,550 Eastgate Dr,Aiken,29803,SC,Aiken,803-643-3694,803-641-6229,Racheal Thomas,rthomas@orianna.com,www.orianna.com,NCF-0902,http://nfbl.sc.gov/FacilityInformation.php?FacID=288,US,Nursing Facility
USA-SC-58-SC-OfficeOnAging-output-184,"Azaleawoods Operating, LLC",123 Dupont Dr NE,Aiken,29801,SC,Aiken,803-648-0434,803-648-5241,MaryAnn Brewer,mbrewer@cmcseniorcare.com,www.cmc.net,NCF-0982,http://nfbl.sc.gov/FacilityInformation.php?FacID=289,US,Nursing Facility
USA-SC-58-SC-OfficeOnAging-output-185,Unihealth Post Acute Care-low Country,"252 Liberty Ave., S",Estill,29918,SC,Hampton,803-625-3852,803-625-2441,Sally Dobson,sdobson@uhs-pruitt.com,,NCF-0922,http://nfbl.sc.gov/FacilityInformation.php?FacID=290,US,Nursing Facility
USA-SC-58-SC-OfficeOnAging-output-186,Heritage Home Of Florence,515 S Warley St,Florence,29501,SC,Florence,843-662-4573,843-662-8209,"Michelle Turner, LPN",mturner@heritageflorence.com,www.heritageflorence.com,NCF-0450,http://nfbl.sc.gov/FacilityInformation.php?FacID=291,US,Nursing Facility
USA-SC-58-SC-OfficeOnAging-output-187,Prince George Health Care,901 Maple St,Georgetown,29440,SC,Georgetown,843-546-6101,843-546-4712,Angela Burns,Angela.Burns@palmltc.com,,NCF-0930,http://nfbl.sc.gov/FacilityInformation.php?FacID=292,US,Nursing Facility
USA-SC-58-SC-OfficeOnAging-output-188,Blue Ridge in Georgetown,2715 S Island Rd,Georgetown,29440,SC,Georgetown,843-546-4123,(843) 546-6715,Anna Vaca,admissions@georgetown.care,,NCF-0633,http://nfbl.sc.gov/FacilityInformation.php?FacID=293,US,Nursing Facility
USA-SC-58-SC-OfficeOnAging-output-189,Lakes At Litchfield Skilled Nursing Center,80 Timberview Ct,Pawleys Island,29585,SC,Georgetown,843-235-9393,,,,,NCF-0843,http://nfbl.sc.gov/FacilityInformation.php?FacID=294,US,Nursing Facility
USA-SC-58-SC-OfficeOnAging-output-190,NHC Healthcare Garden City,9405 Hwy 17 Byp,Murrells Inlet,29576,SC,Horry,843-650-2213,843-650-2236,Jennifer Musick,jmusick@nhcgardencity.com,www.nhcgardencity.com,NCF-0825,http://nfbl.sc.gov/FacilityInformation.php?FacID=295,US,Nursing Facility
USA-SC-58-SC-OfficeOnAging-output-191,Fellowship Health & Rehab Of Anderson,208 James St,Anderson,29625,SC,Anderson,864-226-3427,864-226-7215,Johanna Rice,jrice@covenantdove.com,Covenantdove.com,NCF-0909,http://nfbl.sc.gov/FacilityInformation.php?FacID=296,US,Nursing Facility
USA-SC-58-SC-OfficeOnAging-output-192,Presbyterian Home Of South Carolina-Florence (crcf),2350 W Lucas St,Florence,29501,SC,Florence,843-665-2222,,,,,CRC-0242,http://nfbl.sc.gov/FacilityInformation.php?FacID=298,US,Assisted Living Facility
USA-SC-58-SC-OfficeOnAging-output-193,Laurel Crest,100 Joseph Walker Dr,West Columbia,29169,SC,Lexington,803-796-0370,,,,,CRC-0829,http://nfbl.sc.gov/FacilityInformation.php?FacID=299,US,Assisted Living Facility
USA-SC-58-SC-OfficeOnAging-output-194,Presbyterian Home Of South Carolina-Clinton (crcf),801 Musgrove St,Clinton,29325,SC,Laurens,864-833-5190,,,,,CRC-0014,http://nfbl.sc.gov/FacilityInformation.php?FacID=300,US,Assisted Living Facility
USA-SC-58-SC-OfficeOnAging-output-195,Martha Franks Baptist Retirement Community (crcf),1 Martha Franks Dr,Laurens,29360,SC,Laurens,864-984-4541,,,,,CRC-0360,http://nfbl.sc.gov/FacilityInformation.php?FacID=301,US,Assisted Living Facility
USA-SC-58-SC-OfficeOnAging-output-196,Arboretum At The Woodlands At Furman,50 Arboretum Ln,Greenville,29617,SC,Greenville,864-371-3100,,,,,CRC-1492,http://nfbl.sc.gov/FacilityInformation.php?FacID=302,US,Assisted Living Facility
USA-SC-58-SC-OfficeOnAging-output-197,Emeritus At Anderson Place,311 Simpson Rd,Anderson,29621,SC,Anderson,864-261-3875,,,,,CRC-1303,http://nfbl.sc.gov/FacilityInformation.php?FacID=303,US,Assisted Living Facility
USA-SC-58-SC-OfficeOnAging-output-198,Summit Place Of North Myrtle Beach,491 Hwy 17,Little River,29566,SC,Horry,843-399-5662,,,,,CRC-1360,http://nfbl.sc.gov/FacilityInformation.php?FacID=304,US,Assisted Living Facility
USA-SC-58-SC-OfficeOnAging-output-199,Myrtle Beach Manor Retirement Community,9547 Hwy 17 N,Myrtle Beach,29572,SC,Horry,843-449-5283,,,,,CRC-1253,http://nfbl.sc.gov/FacilityInformation.php?FacID=305,US,Assisted Living Facility
USA-SC-58-SC-OfficeOnAging-output-200,Magnolias Of Myrtle Beach,6309 Hawthorne Ln,Myrtle Beach,29572,SC,Horry,843-692-2330,,,,,CRC-1415,http://nfbl.sc.gov/FacilityInformation.php?FacID=306,US,Assisted Living Facility
USA-SC-58-SC-OfficeOnAging-output-201,Brightwater Assisted Living,201 Brightwater Dr,Myrtle Beach,29579,SC,Horry,843-903-8940,,,,,CRC-1489,http://nfbl.sc.gov/FacilityInformation.php?FacID=307,US,Assisted Living Facility
USA-SC-58-SC-OfficeOnAging-output-202,Reflections At Carolina Forest,219 Middleburg Dr,Myrtle Beach,29579,SC,Horry,843-903-0700,,,,,CRC-1456,http://nfbl.sc.gov/FacilityInformation.php?FacID=308,US,Assisted Living Facility
USA-SC-58-SC-OfficeOnAging-output-203,Myrtle Beach Estates,3620 Happy Woods Ct,Myrtle Beach,29588,SC,Horry,843-293-8888,,,,,CRC-1403,http://nfbl.sc.gov/FacilityInformation.php?FacID=309,US,Assisted Living Facility
USA-SC-58-SC-OfficeOnAging-output-204,Anderson Oaks Assisted Living,997 Hwy 90,Conway,29526,SC,Horry,843-347-9280,,,,,CRC-1506,http://nfbl.sc.gov/FacilityInformation.php?FacID=310,US,Assisted Living Facility
USA-SC-58-SC-OfficeOnAging-output-205,Emeritus At Conway Place,872 Singleton Ridge Rd,Conway,29526,SC,Horry,843-347-3050,,,,,CRC-1204,http://nfbl.sc.gov/FacilityInformation.php?FacID=311,US,Assisted Living Facility
USA-SC-58-SC-OfficeOnAging-output-206,Carolina Gardens at Garden City,11951 Grandhaven Dr,Murrells Inlet,29576,SC,Horry,843-357-0200,,Bryan Grawford or Britta Cammarata,Jlittle@agapesenior.com,,CRC-1934,http://nfbl.sc.gov/FacilityInformation.php?FacID=312,US,Assisted Living Facility
USA-SC-58-SC-OfficeOnAging-output-207,Lois Eargle Home,406 Webb St,Conway,29527,SC,Horry,843-349-7272,,Allan Cornell- Administrator,tacornell@sccoast.net,,CRC-1450,http://nfbl.sc.gov/FacilityInformation.php?FacID=313,US,Assisted Living Facility
USA-SC-58-SC-OfficeOnAging-output-208,Ladies Community Residence,408 Webb St,Conway,29527,SC,Horry,843-349-7271,,Allan Cornell- Administrator,tacornell@sccoast.net,,CRC-1449,http://nfbl.sc.gov/FacilityInformation.php?FacID=314,US,Assisted Living Facility
USA-SC-58-SC-OfficeOnAging-output-209,Carolina Gardens at Conway,2320 Hwy 378,Conway,29527,SC,Horry,843-397-2273,,Matthew Whithead or Jason Taylor,jtaylor@Agapesenior.com,,CRC-1912,http://nfbl.sc.gov/FacilityInformation.php?FacID=315,US,Assisted Living Facility
USA-SC-58-SC-OfficeOnAging-output-210,Lakes At Litchfield Assisted Living,120 Lakes At Litchfield Dr,Pawleys Island,29585,SC,Georgetown,843-235-9393,,,,,CRC-1116,http://nfbl.sc.gov/FacilityInformation.php?FacID=316,US,Assisted Living Facility
USA-SC-58-SC-OfficeOnAging-output-211,Thorne Retirement Home,702 W 3Rd Ave,Lake View,29563,SC,Dillon,843-759-9099,,James N. Sanderson,insanderson@cooke-associates.com,,CRC-0626,http://nfbl.sc.gov/FacilityInformation.php?FacID=317,US,Assisted Living Facility
USA-SC-58-SC-OfficeOnAging-output-212,Morningside Of Georgetown,2628 N Fraser St,Georgetown,29440,SC,Georgetown,843-520-0319,,,,,CRC-1102,http://nfbl.sc.gov/FacilityInformation.php?FacID=318,US,Assisted Living Facility
USA-SC-58-SC-OfficeOnAging-output-213,Jessamine Community Residence,143 Jessamine Ave,Georgetown,29440,SC,Georgetown,843-527-1390,843-546-1617,Stacey Randolph,santley@gcbdsn.com,gcbdsn.com/,CRC-1445,http://nfbl.sc.gov/FacilityInformation.php?FacID=319,US,Assisted Living Facility
USA-SC-58-SC-OfficeOnAging-output-214,South Island Assisted Living,2902 South Island Rd,Georgetown,29440,SC,Georgetown,843-545-5427,843-461-4590,Maxine J McAlhany,southisland2003@gmail.com,http:,CRC-1272,http://nfbl.sc.gov/FacilityInformation.php?FacID=320,US,Assisted Living Facility
USA-SC-58-SC-OfficeOnAging-output-215,Maryville Community Residence,2602 Old Charleston Rd,Georgetown,29440,SC,Georgetown,843-546-7238,843-546-1617,Stacey Randolph,santley@gcbdsn.com,gcbdsn.com/,CRC-1446,http://nfbl.sc.gov/FacilityInformation.php?FacID=321,US,Assisted Living Facility
USA-SC-58-SC-OfficeOnAging-output-216,Oasis Residential Home,2317 Prince St,Georgetown,29440,SC,Georgetown,843-527-4848,843-527-4838,Mazie Graham,oasisinc2001@yahoo.com,,CRC-1219,http://nfbl.sc.gov/FacilityInformation.php?FacID=322,US,Assisted Living Facility
USA-SC-58-SC-OfficeOnAging-output-217,B & B Assisted Living,412 Pee Dee Church Rd,Dillon,29536,SC,Dillon,843-774-0623,,,,,CRC-0528,http://nfbl.sc.gov/FacilityInformation.php?FacID=323,US,Assisted Living Facility
USA-SC-58-SC-OfficeOnAging-output-218,Mary's Home Care,224 Ward Loop,Hemingway,29554,SC,Georgetown,843-558-9053,,,,,CRC-1505,http://nfbl.sc.gov/FacilityInformation.php?FacID=324,US,Assisted Living Facility
USA-SC-58-SC-OfficeOnAging-output-219,Dillon Community Residence,506 S 14Th Ave,Dillon,29536,SC,Dillon,843-841-0778,843-774-0927,Ella Timmons,etimmons@mddsn.org,www.mddsn.ogr,CRC-1377,http://nfbl.sc.gov/FacilityInformation.php?FacID=325,US,Assisted Living Facility
USA-SC-58-SC-OfficeOnAging-output-220,M & M Residential Care Home,408 Holiday St,Marion,29571,SC,Marion,843-423-0120,,,,,CRC-1379,http://nfbl.sc.gov/FacilityInformation.php?FacID=326,US,Assisted Living Facility
USA-SC-58-SC-OfficeOnAging-output-221,Johnsonville Adult Care Services,351 S Midway Hwy,Johnsonville,29555,SC,Florence,843-380-0777,,,,,CRC-1530,http://nfbl.sc.gov/FacilityInformation.php?FacID=327,US,Assisted Living Facility
USA-SC-58-SC-OfficeOnAging-output-222,Bowles Community Care Home 2,9274 N Hwy 17,McClellanville,29458,SC,Charleston,843-887-4180,843-887-4180,,bbowcare@aol.com,,CRC-1497,http://nfbl.sc.gov/FacilityInformation.php?FacID=328,US,Assisted Living Facility
USA-SC-58-SC-OfficeOnAging-output-223,Bowles Community Care Home,9270 N Hwy 17,Mc Clellanville,29458,SC,Charleston,843-887-4180,843-887-4180,,bbowcare@aol.com,,CRC-0090,http://nfbl.sc.gov/FacilityInformation.php?FacID=329,US,Assisted Living Facility
USA-SC-58-SC-OfficeOnAging-output-224,Hannah Residential Manor,3750 Sheminally Rd,Pamplico,29583,SC,Florence,843-493-0001,843-493-2840,Patricia Hart/ Regina Hart,hrm3750@gmail.com,,CRC-0712,http://nfbl.sc.gov/FacilityInformation.php?FacID=330,US,Assisted Living Facility
USA-SC-58-SC-OfficeOnAging-output-225,Sunny Pines Boarding Home,108 W Gapway Rd,Andrews,29510,SC,Georgetown,843-221-7436,,,,,CRC-0098,http://nfbl.sc.gov/FacilityInformation.php?FacID=331,US,Assisted Living Facility
USA-SC-58-SC-OfficeOnAging-output-226,BTU Rest Home,113 Ellison Street,Bennettsville,29512,SC,Marlboro,843-479-9053,843-479-3550,Jo Ann Newton,bturesthome@aol.com,,CRC-0235,http://nfbl.sc.gov/FacilityInformation.php?FacID=332,US,Assisted Living Facility
USA-SC-58-SC-OfficeOnAging-output-227,Gene's Residential Care Facility #2,2385 Pamplico Hwy,Florence,29505,SC,Florence,843-407-4580,,,,,CRC-1479,http://nfbl.sc.gov/FacilityInformation.php?FacID=333,US,Assisted Living Facility
USA-SC-58-SC-OfficeOnAging-output-228,Burgess Residential Care Facility,2591 S Brehenan Dr,Florence,29505,SC,Florence,843-665-6843,,,,,CRC-0925,http://nfbl.sc.gov/FacilityInformation.php?FacID=334,US,Assisted Living Facility
USA-SC-58-SC-OfficeOnAging-output-229,Carolina Place,240 Charles St,Lake City,29560,SC,Florence,843-394-5707,,Linda Uwagbai,luwagbai@fcdsn.org,,CRC-1258,http://nfbl.sc.gov/FacilityInformation.php?FacID=335,US,Assisted Living Facility
USA-SC-58-SC-OfficeOnAging-output-230,Good Samaritan Residential Care,1356 Bubzy Rd,Kingstree,29556,SC,Williamsburg,843-382-3530,,,,,CRC-1015,http://nfbl.sc.gov/FacilityInformation.php?FacID=336,US,Assisted Living Facility
USA-SC-58-SC-OfficeOnAging-output-231,Acline Place,200 S Acline St,Lake City,29560,SC,Florence,843-394-5707,,Linda Uwagbai,luwagbai@fcdsn.org,,CRC-1257,http://nfbl.sc.gov/FacilityInformation.php?FacID=337,US,Assisted Living Facility
USA-SC-58-SC-OfficeOnAging-output-232,Emeritus At Laurel Gardens,1938 Mountain Laurel Ct,Florence,29505,SC,Florence,843-665-7978,,,,,CRC-1387,http://nfbl.sc.gov/FacilityInformation.php?FacID=338,US,Assisted Living Facility
USA-SC-58-SC-OfficeOnAging-output-233,Carolinian,718 S Dargan St,Florence,29506,SC,Florence,843-665-9314,,,,,CRC-0468,http://nfbl.sc.gov/FacilityInformation.php?FacID=339,US,Assisted Living Facility
USA-SC-58-SC-OfficeOnAging-output-234,Evelyn's Residential Care Facility,162 S Mcqueen St,Florence,29501,SC,Florence,843-665-5751,,,,,CRC-1164,http://nfbl.sc.gov/FacilityInformation.php?FacID=340,US,Assisted Living Facility
USA-SC-58-SC-OfficeOnAging-output-235,Victorian Home,313 Warley St,Florence,29501,SC,Florence,843-664-3090,,,,,CRC-1487,http://nfbl.sc.gov/FacilityInformation.php?FacID=341,US,Assisted Living Facility
USA-SC-58-SC-OfficeOnAging-output-236,Gene's Residential Care #1,607 W Sumter St,Florence,29501,SC,Florence,843-662-2529,,,,,CRC-0431,http://nfbl.sc.gov/FacilityInformation.php?FacID=342,US,Assisted Living Facility
USA-SC-58-SC-OfficeOnAging-output-237,Burgess Residential Care #3,615 W Evans St,Florence,29501,SC,Florence,843-665-4940,,Sandy Burgess,,,CRC-1913,http://nfbl.sc.gov/FacilityInformation.php?FacID=343,US,Assisted Living Facility
USA-SC-58-SC-OfficeOnAging-output-238,Gene's Residential Care Facility #3,1312 W Evans St,Florence,29501,SC,Florence,843-667-6636,,,,,CRC-0482,http://nfbl.sc.gov/FacilityInformation.php?FacID=344,US,Assisted Living Facility
USA-SC-58-SC-OfficeOnAging-output-239,Somerby Of Mount Pleasant,3100 Tradition Cir,Mount Pleasant,29466,SC,Charleston,843-849-3096,,,,,CRC-1481,http://nfbl.sc.gov/FacilityInformation.php?FacID=345,US,Assisted Living Facility
USA-SC-58-SC-OfficeOnAging-output-240,Padd-Wren Home,2350 Regional Rd,Florence,29501,SC,Florence,843-673-1005,,,,,CRC-1451,http://nfbl.sc.gov/FacilityInformation.php?FacID=347,US,Assisted Living Facility
USA-SC-58-SC-OfficeOnAging-output-241,Franke Home,1885 Rifle Range Rd,Mount Pleasant,29464,SC,Charleston,843-856-4700,,,,,CRC-1082,http://nfbl.sc.gov/FacilityInformation.php?FacID=348,US,Assisted Living Facility
USA-SC-58-SC-OfficeOnAging-output-242,Williamsburg Residential Care Facility,14 WRCF Street,Kingstree,29556,SC,Williamsburg,843-355-6214,843-355-9724,Jacques G. Jackson,wrcf@ftc-i.net,,CRC-0038,http://nfbl.sc.gov/FacilityInformation.php?FacID=349,US,Assisted Living Facility
USA-SC-58-SC-OfficeOnAging-output-243,Carriage House Of Florence,739 S Parker Dr,Florence,29501,SC,Florence,843-661-6655,843-667-3289,Mary Jane Singletary,carriageflorence@gmail.com,,CRC-1590,http://nfbl.sc.gov/FacilityInformation.php?FacID=350,US,Assisted Living Facility
USA-SC-58-SC-OfficeOnAging-output-244,Elmcroft Of Florence,3006 Hoffmeyer Rd,Florence,29501,SC,Florence,843-292-0012,,,,,CRC-1422,http://nfbl.sc.gov/FacilityInformation.php?FacID=351,US,Assisted Living Facility
USA-SC-58-SC-OfficeOnAging-output-245,Bethea Baptist Assisted Living,157 Home Ave,Darlington,29532,SC,Darlington,843-393-2867,843-393-2458,Jenny Doll,jdoll@scbma.com,bethearetirement.com,CRC-1533,http://nfbl.sc.gov/FacilityInformation.php?FacID=352,US,Assisted Living Facility
USA-SC-58-SC-OfficeOnAging-output-246,Pee Dee Gardens,3117 W Palmetto St,Florence,29505,SC,Florence,843-667-6699,843665-9895,Sherri Scott,sscott@depaul.org,www.depaul.org,CRC-1391,http://nfbl.sc.gov/FacilityInformation.php?FacID=353,US,Assisted Living Facility
USA-SC-58-SC-OfficeOnAging-output-247,Wesleyan Suites,2100 Twin Church Rd,Florence,29501,SC,Florence,843-664-0700,,,,,CRC-0662,http://nfbl.sc.gov/FacilityInformation.php?FacID=354,US,Assisted Living Facility
USA-SC-58-SC-OfficeOnAging-output-248,Cooper Hall At The Palms Of Mt Pleasant,937 Bowman Rd Ofc,Mount Pleasant,29464,SC,Charleston,843-884-6949,,,,,CRC-1432,http://nfbl.sc.gov/FacilityInformation.php?FacID=355,US,Assisted Living Facility
USA-SC-58-SC-OfficeOnAging-output-249,Savannah Hall Assisted Living,1010 Lake Hunter Cir,Mount Pleasant,29464,SC,Charleston,843-388-2030,,,,,CRC-1431,http://nfbl.sc.gov/FacilityInformation.php?FacID=356,US,Assisted Living Facility
USA-SC-58-SC-OfficeOnAging-output-250,Sweetgrass Court Senior Living Community,1010 Anna Knapp Blvd,Mount Pleasant,29464,SC,Charleston,843-971-7756,,,,,CRC-1428,http://nfbl.sc.gov/FacilityInformation.php?FacID=357,US,Assisted Living Facility
USA-SC-58-SC-OfficeOnAging-output-251,Sandpiper Courtyard Assisted Living,1047 Anna Knapp Blvd,Mount Pleasant,29464,SC,Charleston,843-884-7977,,,,,CRC-1325,http://nfbl.sc.gov/FacilityInformation.php?FacID=358,US,Assisted Living Facility
USA-SC-58-SC-OfficeOnAging-output-252,Sweetgrass Village Assisted Living Community,601 Mathis Ferry Rd,Mount Pleasant,29464,SC,Charleston,843-881-9809,,,,,CRC-1427,http://nfbl.sc.gov/FacilityInformation.php?FacID=359,US,Assisted Living Facility
USA-SC-58-SC-OfficeOnAging-output-253,Summit Place Of Daniel Island,320 Seven Farms Dr,Daniel Island,29492,SC,Berkeley,843-884-4104,,,,,CRC-1282,http://nfbl.sc.gov/FacilityInformation.php?FacID=361,US,Assisted Living Facility
USA-SC-58-SC-OfficeOnAging-output-254,Palmetto Ridge Assisted Living & Memory Care,840 Manor Rd,Cheraw,29520,SC,Chesterfield,843-537-4197,843-537-9990,Regina Smith RN,Cherawmanorassis@bellsouth.net,,CRC-1393,http://nfbl.sc.gov/FacilityInformation.php?FacID=362,US,Assisted Living Facility
USA-SC-58-SC-OfficeOnAging-output-255,Charles M Ingram Sr Community Residence,1615 State Rd,Cheraw,29520,SC,Chesterfield,843-537-5122,,Margarete Peterkin,m.peterkin@chescoservices.org,,CRC-1440,http://nfbl.sc.gov/FacilityInformation.php?FacID=363,US,Assisted Living Facility
USA-SC-58-SC-OfficeOnAging-output-256,Beard's Residential Care Facility #3,201 N Brockington St,Timmonsville,29161,SC,Florence,843-346-5272,,,,,CRC-0331,http://nfbl.sc.gov/FacilityInformation.php?FacID=364,US,Assisted Living Facility
USA-SC-58-SC-OfficeOnAging-output-257,Beard Residential Care Facility #1,123 N Warren St,Timmonsville,29161,SC,Florence,843-346-5272,,,,,CRC-0140,http://nfbl.sc.gov/FacilityInformation.php?FacID=365,US,Assisted Living Facility
USA-SC-58-SC-OfficeOnAging-output-258,Beard Residential Care Facility #2,301 N Orange St,Timmonsville,29161,SC,Florence,843-346-5272,,,,,CRC-0082,http://nfbl.sc.gov/FacilityInformation.php?FacID=366,US,Assisted Living Facility
USA-SC-58-SC-OfficeOnAging-output-259,Ladson's Residential Home Care,1116 Camp Rd,Charleston,29412,SC,Charleston,843-762-6443,,,,,CRC-1256,http://nfbl.sc.gov/FacilityInformation.php?FacID=367,US,Assisted Living Facility
USA-SC-58-SC-OfficeOnAging-output-260,Camp Community Residence,1251 Camp Rd,James Island,29412,SC,Charleston,843-805-5820,,Sally J . Dixon,sdixon@DSNCC.COM,,CRC-1371,http://nfbl.sc.gov/FacilityInformation.php?FacID=370,US,Assisted Living Facility
USA-SC-58-SC-OfficeOnAging-output-261,My Father's House,22 Larnes St,Charleston,29403,SC,Charleston,843-723-7889,,,,,CRC-0459,http://nfbl.sc.gov/FacilityInformation.php?FacID=372,US,Assisted Living Facility
USA-SC-58-SC-OfficeOnAging-output-262,Farmington Community Residence,1269 Camp Rd,James Island,29412,SC,Charleston,843-805-5820,,Sally J . Dixon,sdixon@DSNCC.COM,,CRC-1370,http://nfbl.sc.gov/FacilityInformation.php?FacID=373,US,Assisted Living Facility
USA-SC-58-SC-OfficeOnAging-output-263,Secessionville Community Residence,1217 Secessionville Rd,Charleston,29412,SC,Charleston,843-762-2134,,Sally J . Dixon,sdixon@DSNCC.COM,,CRC-1287,http://nfbl.sc.gov/FacilityInformation.php?FacID=374,US,Assisted Living Facility
USA-SC-58-SC-OfficeOnAging-output-264,Savannah House,1501 Secessionville Rd,Charleston,29412,SC,Charleston,843-762-1396,,,,,CRC-1410,http://nfbl.sc.gov/FacilityInformation.php?FacID=375,US,Assisted Living Facility
USA-SC-58-SC-OfficeOnAging-output-265,Palmetto Residential Care Of North Charleston,2834 Spruill Ave,North Charleston,29405,SC,Charleston,843-744-8849,,,,,CRC-1322,http://nfbl.sc.gov/FacilityInformation.php?FacID=376,US,Assisted Living Facility
USA-SC-58-SC-OfficeOnAging-output-266,Ivory's Loving Care Residential Facility,2827 Spruill Ave,North Charleston,29405,SC,Charleston,843-745-2339,,,,,CRC-1383,http://nfbl.sc.gov/FacilityInformation.php?FacID=377,US,Assisted Living Facility
USA-SC-58-SC-OfficeOnAging-output-267,Guardian Angels Residential Care,2126 Success St,North Charleston,29405,SC,Charleston,843-744-0448,843-744-0448,"Christina Janke, Office Manager",guardianangelsRCF@yahoo.com,,CRC-1049,http://nfbl.sc.gov/FacilityInformation.php?FacID=378,US,Assisted Living Facility
USA-SC-58-SC-OfficeOnAging-output-268,Maria's Priority Care Residential Home III,3115 Meeting Street Rd,North Charleston,29405,SC,Charleston,843-554-0064,,,,,CRC-0938,http://nfbl.sc.gov/FacilityInformation.php?FacID=379,US,Assisted Living Facility
USA-SC-58-SC-OfficeOnAging-output-269,Maria's Priority Care Residential Home I,3117 Meeting Street Rd,North Charleston,29405,SC,Charleston,843-554-8890,,,,,CRC-0937,http://nfbl.sc.gov/FacilityInformation.php?FacID=380,US,Assisted Living Facility
USA-SC-58-SC-OfficeOnAging-output-270,Mcleod Manor,1707 Mcleod Ave,Charleston,29412,SC,Charleston,843-795-8780,,,,,CRC-0425,http://nfbl.sc.gov/FacilityInformation.php?FacID=381,US,Assisted Living Facility
USA-SC-58-SC-OfficeOnAging-output-271,First Choice Home Care Facility,2003 Cosgrove Ave,North Charleston,29405,SC,Charleston,843-225-0637,,Wilhelmina C. Rellora,,,CRC-0742,http://nfbl.sc.gov/FacilityInformation.php?FacID=382,US,Assisted Living Facility
USA-SC-58-SC-OfficeOnAging-output-272,Vanwyever Residential Care Facility,2009 Cosgrove Ave,North Charleston,29405,SC,Charleston,843-744-6065,,,,,CRC-0638,http://nfbl.sc.gov/FacilityInformation.php?FacID=383,US,Assisted Living Facility
USA-SC-58-SC-OfficeOnAging-output-273,Curameng Residential Home Care,2021 Cosgrove Ave,North Charleston,29405,SC,Charleston,843-566-1266,,Milagros L. Reyes,,,CRC-1187,http://nfbl.sc.gov/FacilityInformation.php?FacID=384,US,Assisted Living Facility
USA-SC-58-SC-OfficeOnAging-output-274,Bishop Gadsden Episcopal Community,1 Bishop Gadsden Way,Charleston,29412,SC,Charleston,843-762-3300,,,,,CRC-0451,http://nfbl.sc.gov/FacilityInformation.php?FacID=385,US,Assisted Living Facility
USA-SC-58-SC-OfficeOnAging-output-275,Care With Love,3408 Lenape St,North Charleston,29405,SC,Charleston,843-744-0313,,,,,CRC-1499,http://nfbl.sc.gov/FacilityInformation.php?FacID=386,US,Assisted Living Facility
USA-SC-58-SC-OfficeOnAging-output-276,Cabading Homes #1,3431 Rivers Ave,North Charleston,29405,SC,Charleston,843-747-3050,,,,,CRC-0394,http://nfbl.sc.gov/FacilityInformation.php?FacID=387,US,Assisted Living Facility
USA-SC-58-SC-OfficeOnAging-output-277,Cabading Homes #2,3435 Rivers Ave,North Charleston,29405,SC,Charleston,843-745-9182,,,,,CRC-0571,http://nfbl.sc.gov/FacilityInformation.php?FacID=388,US,Assisted Living Facility
USA-SC-58-SC-OfficeOnAging-output-278,Care With Love II,2109 Commander Rd,North Charleston,29405,SC,Charleston,843-744-0313,,,,,CRC-1523,http://nfbl.sc.gov/FacilityInformation.php?FacID=389,US,Assisted Living Facility
USA-SC-58-SC-OfficeOnAging-output-279,Cabading Homes #3,2149 Dorchester Rd,North Charleston,29405,SC,Charleston,843-745-9182,,,,,CRC-0825,http://nfbl.sc.gov/FacilityInformation.php?FacID=390,US,Assisted Living Facility
USA-SC-58-SC-OfficeOnAging-output-280,Dorcas Residential Care I,1131 Bexley St,North Charleston,29405,SC,Charleston,843-746-9800,,,,,CRC-1251,http://nfbl.sc.gov/FacilityInformation.php?FacID=391,US,Assisted Living Facility
USA-SC-58-SC-OfficeOnAging-output-281,Dorcas Residential Care II,1133 Bexley St,North Charleston,29405,SC,Charleston,843-747-4800,,,,,CRC-1252,http://nfbl.sc.gov/FacilityInformation.php?FacID=392,US,Assisted Living Facility
USA-SC-58-SC-OfficeOnAging-output-282,Serenity Manor,4018 S Rhett Ave,North Charleston,29405,SC,Charleston,843-554-0733,,,,,CRC-1472,http://nfbl.sc.gov/FacilityInformation.php?FacID=393,US,Assisted Living Facility
USA-SC-58-SC-OfficeOnAging-output-283,Maria's Priority Care Residential Home II-B,4583 Durant Ave,North Charleston,29405,SC,Charleston,843-566-9864,,,,,CRC-0772,http://nfbl.sc.gov/FacilityInformation.php?FacID=394,US,Assisted Living Facility
USA-SC-58-SC-OfficeOnAging-output-284,Maria's Priority Care Residential Home II-F,4583 Durant Ave,North Charleston,29405,SC,Charleston,843-747-9234,,,,,CRC-0774,http://nfbl.sc.gov/FacilityInformation.php?FacID=396,US,Assisted Living Facility
USA-SC-58-SC-OfficeOnAging-output-285,Cummings Community Residential Care Home,2606 Stark Ln,North Charleston,29405,SC,Charleston,843-747-7088,843-747-7087,Ms. Cummings,ocummings03@comcast.net,,CRC-0891,http://nfbl.sc.gov/FacilityInformation.php?FacID=397,US,Assisted Living Facility
USA-SC-58-SC-OfficeOnAging-output-286,Langit's Assisted Living Facility,1273 Remount Rd,North Charleston,29406,SC,Charleston,843-554-1671,,,,,CRC-0861,http://nfbl.sc.gov/FacilityInformation.php?FacID=398,US,Assisted Living Facility
USA-SC-58-SC-OfficeOnAging-output-287,Pettis Angels Residential Care,2614 Madden Dr,North Charleston,29405,SC,Charleston,843-308-9413,,,,,CRC-0850,http://nfbl.sc.gov/FacilityInformation.php?FacID=399,US,Assisted Living Facility
USA-SC-58-SC-OfficeOnAging-output-288,Carter-May Home,1660 Ingram Rd,Charleston,29407,SC,Charleston,843-556-8314,,Janine Bauder,janine@catholic-doc.org,,CRC-0064,http://nfbl.sc.gov/FacilityInformation.php?FacID=400,US,Assisted Living Facility
USA-SC-58-SC-OfficeOnAging-output-289,Lenevar Community Residence,1435 W Lenevar Dr,Charleston,29407,SC,Charleston,843-766-3061,,Sally J . Dixon,sdixon@DSNCC.COM,,CRC-0943,http://nfbl.sc.gov/FacilityInformation.php?FacID=401,US,Assisted Living Facility
USA-SC-58-SC-OfficeOnAging-output-290,Bell's Professional Residential Home Care,1910 Dalton St,Charleston,29406,SC,Charleston,843-744-1765,,,,,CRC-1209,http://nfbl.sc.gov/FacilityInformation.php?FacID=402,US,Assisted Living Facility
USA-SC-58-SC-OfficeOnAging-output-291,Evergreen Residential Care Inc I,1612 Evergreen St,Charleston,29407,SC,Charleston,843-744-1249,,,,,CRC-0026,http://nfbl.sc.gov/FacilityInformation.php?FacID=403,US,Assisted Living Facility
USA-SC-58-SC-OfficeOnAging-output-292,Palmettos Of Charleston,1900 Ashley Crossing Dr,Charleston,29414,SC,Charleston,843-852-0505,,,,,CRC-1263,http://nfbl.sc.gov/FacilityInformation.php?FacID=405,US,Assisted Living Facility
USA-SC-58-SC-OfficeOnAging-output-293,Ashley River Plantation,2333 Ashley River Rd,Charleston,29414,SC,Charleston,843-766-9898,,,,,CRC-1376,http://nfbl.sc.gov/FacilityInformation.php?FacID=406,US,Assisted Living Facility
USA-SC-58-SC-OfficeOnAging-output-294,Goose Creek Manor #1,104 Marilyn St,Goose Creek,29445,SC,Berkeley,843-572-7442,,,,,CRC-0639,http://nfbl.sc.gov/FacilityInformation.php?FacID=407,US,Assisted Living Facility
USA-SC-58-SC-OfficeOnAging-output-295,Horizon Bay Assisted Living & Memory Care At Charleston,2030 Charlie Hall Blvd,Charleston,29414,SC,Charleston,843-763-4055,,,,,CRC-1291,http://nfbl.sc.gov/FacilityInformation.php?FacID=408,US,Assisted Living Facility
USA-SC-58-SC-OfficeOnAging-output-296,Goose Creek Manor #2,104 Marilyn St,Goose Creek,29445,SC,Berkeley,843-572-7442,,Leticia Dedios,goosecreekmanor@aol.com,,CRC-0762,http://nfbl.sc.gov/FacilityInformation.php?FacID=409,US,Assisted Living Facility
USA-SC-58-SC-OfficeOnAging-output-297,Quality Care Residential Home,107 Etling Ave,Goose Creek,29445,SC,Berkeley,843-863-0209,,,,,CRC-0715,http://nfbl.sc.gov/FacilityInformation.php?FacID=411,US,Assisted Living Facility
USA-SC-58-SC-OfficeOnAging-output-298,New Beginnings Of Pineville,212 Mitchellbay Ln,Pineville,29468,SC,Berkeley,843-351-2240,843-351-2250,Helen Ravenell,new.beginnings@tds.net,nbrcf.com,CRC-1521,http://nfbl.sc.gov/FacilityInformation.php?FacID=412,US,Assisted Living Facility
USA-SC-58-SC-OfficeOnAging-output-299,Carriage House Of Hartsville,1311 E Home Ave,Hartsville,29550,SC,Darlington,843-383-6990,843-383-6930,Kyle Rufer,chof.kylerufer@gmail.com,,CRC-0994,http://nfbl.sc.gov/FacilityInformation.php?FacID=413,US,Assisted Living Facility
USA-SC-58-SC-OfficeOnAging-output-300,Midland Park Residential Home Care,2712 Midland Park Rd,North Charleston,29406,SC,Charleston,843-569-0025,843-569-0424,Raquel V. Balagtas/ Roger C. Singian,Midlandpark@bellsouth.net,www.midlandparkresidentialhomecare.com,CRC-0905,http://nfbl.sc.gov/FacilityInformation.php?FacID=414,US,Assisted Living Facility
USA-SC-58-SC-OfficeOnAging-output-301,North Haven Residential Care Home,4326 Leslie St,North Charleston,29418,SC,Charleston,843-767-2541,,,,,CRC-0877,http://nfbl.sc.gov/FacilityInformation.php?FacID=416,US,Assisted Living Facility
USA-SC-58-SC-OfficeOnAging-output-302,Easy Living,506 E Jackson St,Lamar,29069,SC,Darlington,843-326-5884,,Bert Owens,sarafoster@easleyretirement.net,,CRC-1512,http://nfbl.sc.gov/FacilityInformation.php?FacID=417,US,Assisted Living Facility
USA-SC-58-SC-OfficeOnAging-output-303,Ashley Landing Assisted Living,4550 Great Oak Drive,North Charleston,29418,SC,Charleston,843-760-0831,,Matthew Baker,mbaker@ashleylanding.com,www.ashleylanding.com,CRC-1288,http://nfbl.sc.gov/FacilityInformation.php?FacID=418,US,Assisted Living Facility
USA-SC-58-SC-OfficeOnAging-output-304,Bridge Assisted Living At Life Care Center Of Charleston,2590 Elms Plantation Blvd,North Charleston,29406,SC,Charleston,843-553-6342,,,,,CRC-1064,http://nfbl.sc.gov/FacilityInformation.php?FacID=419,US,Assisted Living Facility
USA-SC-58-SC-OfficeOnAging-output-305,Oakview Boarding Home,1818 S Live Oak Dr,Moncks Corner,29461,SC,Berkeley,843-761-3273,843-761-8001,lynn biascan,biascana@yahoo.com,,CRC-1153,http://nfbl.sc.gov/FacilityInformation.php?FacID=420,US,Assisted Living Facility
USA-SC-58-SC-OfficeOnAging-output-306,Pinewood House,101 Centennial Blvd,Goose Creek,29445,SC,Berkeley,843-569-2520,,,,,CRC-1406,http://nfbl.sc.gov/FacilityInformation.php?FacID=421,US,Assisted Living Facility
USA-SC-58-SC-OfficeOnAging-output-307,Lambs Road Community Residence,4788 Lambs Rd,North Charleston,29418,SC,Charleston,843-767-1066,,SallPageland Care Facility,Pagecare@shtc.net,,CRC-0999,http://nfbl.sc.gov/FacilityInformation.php?FacID=461,US,Assisted Living Facility
USA-SC-58-SC-OfficeOnAging-output-308,The Retreat at Sumter,2065 Mccrays Mill Rd,Sumter,29154,SC,Sumter,803-778-9690,,Amanda Blackwell,mceleveenmanor@dc.rr.com,,CRC-0988,http://nfbl.sc.gov/FacilityInformation.php?FacID=462,US,Assisted Living Facility
USA-SC-58-SC-OfficeOnAging-output-309,Morningside Of Sumter,2500 Lin Do Ct,Sumter,29150,SC,Sumter,803-469-4490,,,,,CRC-1079,http://nfbl.sc.gov/FacilityInformation.php?FacID=463,US,Assisted Living Facility
USA-SC-58-SC-OfficeOnAging-output-310,Sterling House Of Sumter,1180 Wilson Hall Rd,Sumter,29150,SC,Sumter,803-469-4508,,,,,CRC-1312,http://nfbl.sc.gov/FacilityInformation.php?FacID=464,US,Assisted Living Facility
USA-SC-58-SC-OfficeOnAging-output-311,Covenant Place,2825 Carter Rd Ofc,Sumter,29150,SC,Sumter,803-469-7007,,,,,CRC-0758,http://nfbl.sc.gov/FacilityInformation.php?FacID=465,US,Assisted Living Facility
USA-SC-58-SC-OfficeOnAging-output-312,Serenity Manor Of Holly Hill,656 Gardner Blvd,Holly Hill,29059,SC,Orangeburg,803-496-3022,,,,,CRC-1516,http://nfbl.sc.gov/FacilityInformation.php?FacID=466,US,Assisted Living Facility
USA-SC-58-SC-OfficeOnAging-output-313,Magnolias Of Santee,118 Britain St,Santee,29142,SC,Orangeburg,803-854-2020,,,,,CRC-1416,http://nfbl.sc.gov/FacilityInformation.php?FacID=467,US,Assisted Living Facility
USA-SC-58-SC-OfficeOnAging-output-314,Alexander's Golden Starr Community Care Home,218 Golden Starr Rd,Santee,29142,SC,Orangeburg,803-854-2496,8036104197,Donna Outlaw,shilanedot@gmail.com,,CRC-0171,http://nfbl.sc.gov/FacilityInformation.php?FacID=468,US,Assisted Living Facility
USA-SC-58-SC-OfficeOnAging-output-315,Pinedale Residential Center,798 Hermitage Pond Rd,Camden,29020,SC,Kershaw,803-432-9900,,,,,CRC-0460,http://nfbl.sc.gov/FacilityInformation.php?FacID=469,US,Assisted Living Facility
USA-SC-58-SC-OfficeOnAging-output-316,Morningside Of Camden,715 Kershaw Hwy,Camden,29020,SC,Kershaw,803-713-8668,,,,,CRC-1259,http://nfbl.sc.gov/FacilityInformation.php?FacID=471,US,Assisted Living Facility
USA-SC-58-SC-OfficeOnAging-output-317,Elliott's Residential Care Home,2432 Landsdowne Rd,Bowman,29018,SC,Orangeburg,803-829-3348,,,,,CRC-0272,http://nfbl.sc.gov/FacilityInformation.php?FacID=472,US,Assisted Living Facility
USA-SC-58-SC-OfficeOnAging-output-318,Camden I,975 Wateree Blvd,Camden,29020,SC,Kershaw,803-432-0973,803-865-6885,Crystal J. Wright,c.wright@chescoservices.org,,CRC-1525,http://nfbl.sc.gov/FacilityInformation.php?FacID=473,US,Assisted Living Facility
USA-SC-58-SC-OfficeOnAging-output-319,Camden II,975 Wateree Blvd,Camden,29020,SC,Kershaw,803-432-1345,803-865-6885,Crystal J. Wright,c.wright@chescoservices.org,,CRC-1522,http://nfbl.sc.gov/FacilityInformation.php?FacID=474,US,Assisted Living Facility
USA-SC-58-SC-OfficeOnAging-output-320,Bishopville Manor,2779 Hwy 15 N,Bishopville,29010,SC,Lee,803-428-2222,803-428-2333,Ida Golden, bishopville.manor@aol.com,,CRC-1108,http://nfbl.sc.gov/FacilityInformation.php?FacID=433,US,Assisted Living Facility
USA-SC-58-SC-OfficeOnAging-output-321,Dayspring Assisted Living,5146 Towles Rd,Hollywood,29449,SC,Charleston,843-889-9757,,,,,CRC-1385,http://nfbl.sc.gov/FacilityInformation.php?FacID=434,US,Assisted Living Facility
USA-SC-58-SC-OfficeOnAging-output-322,Vanguard Residential Services I,100 E Hospital St,Manning,29102,SC,Clarendon,803-435-2330,803-435-8523,Betty Lee,,,CRC-1313,http://nfbl.sc.gov/FacilityInformation.php?FacID=435,US,Assisted Living Facility
USA-SC-58-SC-OfficeOnAging-output-323,Vanguard Residential Services II,512 S Church St,Manning,29102,SC,Clarendon,803-435-2330,803-435-8523,Betty Lee,blee@ccdsnb.org,,CRC-1314,http://nfbl.sc.gov/FacilityInformation.php?FacID=436,US,Assisted Living Facility
USA-SC-58-SC-OfficeOnAging-output-324,Backhome Care Facility,140 Checkerberry Ln,Cross,29436,SC,Orangeburg,843-753-3899,,,,,CRC-0567,http://nfbl.sc.gov/FacilityInformation.php?FacID=437,US,Assisted Living Facility
USA-SC-58-SC-OfficeOnAging-output-325,Cottonwood Villas,800 W Church St,Bishopville,29010,SC,Lee,803-484-5303,,Felicia Gainey,feliciagainey@outlook.com,,CRC-1186,http://nfbl.sc.gov/FacilityInformation.php?FacID=439,US,Assisted Living Facility
USA-SC-58-SC-OfficeOnAging-output-326,L & M Residential Health Care Facility,2504 Hwy 311,Cross,29436,SC,Berkeley,843-753-7098,,,,,CRC-1426,http://nfbl.sc.gov/FacilityInformation.php?FacID=440,US,Assisted Living Facility
USA-SC-58-SC-OfficeOnAging-output-327,Phaire's Care At Katura Springs,12488 Old Number Six Hwy,Eutawville,29048,SC,Orangeburg,803-492-7122,,,,,CRC-1301,http://nfbl.sc.gov/FacilityInformation.php?FacID=441,US,Assisted Living Facility
USA-SC-58-SC-OfficeOnAging-output-328,Willie S II Rch,46 Wilson St,Sumter,29150,SC,Sumter,803-773-4724,,,,,CRC-1485,http://nfbl.sc.gov/FacilityInformation.php?FacID=443,US,Assisted Living Facility
USA-SC-58-SC-OfficeOnAging-output-329,Herriott's Residential Care Facility,114 Lime Ln,Sumter,29150,SC,Sumter,803-773-6882,,,,,CRC-1013,http://nfbl.sc.gov/FacilityInformation.php?FacID=444,US,Assisted Living Facility
USA-SC-58-SC-OfficeOnAging-output-330,Greene's Residential Care Facility,23 Kendrick St,Sumter,29150,SC,Sumter,803-778-2780,803-778-1483,Carl Greene,greenesresidentialcare@gmail.com,,CRC-0665,http://nfbl.sc.gov/FacilityInformation.php?FacID=445,US,Assisted Living Facility
USA-SC-58-SC-OfficeOnAging-output-331,Greene's Residential Care II,28 S Magnolia St,Sumter,29150,SC,Sumter,803-934-9319,803-778-1483,Carl Greene,greenesresidentialcare@gmail.com,,CRC-1126,http://nfbl.sc.gov/FacilityInformation.php?FacID=446,US,Assisted Living Facility
USA-SC-58-SC-OfficeOnAging-output-332,Flora's Residential Care Facility II,703 S Harvin St,Sumter,29150,SC,Sumter,803-775-6077,,,,,CRC-1519,http://nfbl.sc.gov/FacilityInformation.php?FacID=447,US,Assisted Living Facility
USA-SC-58-SC-OfficeOnAging-output-333,Northwoods Senior Living,1267 N Main St,Sumter,29153,SC,Sumter,803-774-5700,803-774-5704,Kaley Patterson or Shery Smith,kaleypatterson@ftc-i.net,www.northwoodsseniorliving.com,CRC-1442,http://nfbl.sc.gov/FacilityInformation.php?FacID=448,US,Assisted Living Facility
USA-SC-58-SC-OfficeOnAging-output-334,Carriage House Of Sumter,431 N Main St,Sumter,29150,SC,Sumter,803-773-0965,,Sarah Burgess / Angela Fullwood,chos.sarahb@gmail.com,,CRC-0997,http://nfbl.sc.gov/FacilityInformation.php?FacID=449,US,Assisted Living Facility
USA-SC-58-SC-OfficeOnAging-output-335,Emerald Rcf I,2244 Browntown Rd,Bishopville,29010,SC,Lee,803-428-5407,,,,,CRC-1205,http://nfbl.sc.gov/FacilityInformation.php?FacID=450,US,Assisted Living Facility
USA-SC-58-SC-OfficeOnAging-output-336,Anointed Residential Care #2,511 S Sumter St,Sumter,29150,SC,Sumter,803-883-4032,,,coreyjessica63@aol.com,,CRC-1502,http://nfbl.sc.gov/FacilityInformation.php?FacID=452,US,Assisted Living Facility
USA-SC-58-SC-OfficeOnAging-output-337,Anointed Residential Care,551 S Sumter St,Sumter,29150,SC,Sumter,803-883-4427,,Daisy Bradley,daisy78bradley@outlook.com,,CRC-1435,http://nfbl.sc.gov/FacilityInformation.php?FacID=453,US,Assisted Living Facility
USA-SC-58-SC-OfficeOnAging-output-338,Family Residential Care Home III,25 Edwards St,Sumter,29150,SC,Sumter,803-775-9555,,,,,CRC-1537,http://nfbl.sc.gov/FacilityInformation.php?FacID=454,US,Assisted Living Facility
USA-SC-58-SC-OfficeOnAging-output-339,Family Residential Care Home I,21 Edwards St,Sumter,29150,SC,Sumter,803-775-9555,,,,,CRC-1233,http://nfbl.sc.gov/FacilityInformation.php?FacID=455,US,Assisted Living Facility
USA-SC-58-SC-OfficeOnAging-output-340,Family Residential Care Home II,23 Edwards St,Sumter,29150,SC,Sumter,803-775-9555,,,,,CRC-1277,http://nfbl.sc.gov/FacilityInformation.php?FacID=456,US,Assisted Living Facility
USA-SC-58-SC-OfficeOnAging-output-341,Walters Brothers Residential Care Facility,110 Geddings Rd,Sumter,29150,SC,Sumter,803-506-2743,,Delores Walters Johnson,walters19987@bellsouth.net,,CRC-1080,http://nfbl.sc.gov/FacilityInformation.php?FacID=457,US,Assisted Living Facility
USA-SC-58-SC-OfficeOnAging-output-342,Angelic's Place,903 W Bartlette St,Sumter,29150,SC,Sumter,803-775-1404,,Shirley Greene,bbettymou@aol.com,,CRC-1400,http://nfbl.sc.gov/FacilityInformation.php?FacID=458,US,Assisted Living Facility
USA-SC-58-SC-OfficeOnAging-output-343,Community Residential Care Facility,703 Broad St,Sumter,29150,SC,Sumter,803-773-3443,,,,,CRC-0613,http://nfbl.sc.gov/FacilityInformation.php?FacID=459,US,Assisted Living Facility
USA-SC-58-SC-OfficeOnAging-output-344,Springhill Assisted Living Retirement Community,514 S Gum St,Pageland,29728,SC,Chesterfield,843-675-2500,,,,,CRC-1171,http://nfbl.sc.gov/FacilityInformation.php?FacID=460,US,Assisted Living Facility
USA-SC-58-SC-OfficeOnAging-output-345,Pageland Care Facility,206 S Gum St,Pageland,29728,SC,Chesterfield,843-672-5930,8436723701,Dennis Funderburk or Christine Hargett,Pagecare@shtc.net,,CRC-0999,http://nfbl.sc.gov/FacilityInformation.php?FacID=461,US,Assisted Living Facility
USA-SC-58-SC-OfficeOnAging-output-346,The Retreat at Sumter,2065 Mccrays Mill Rd,Sumter,29154,SC,Sumter,803-778-9690,,Amanda Blackwell,mceleveenmanor@dc.rr.com,,CRC-0988,http://nfbl.sc.gov/FacilityInformation.php?FacID=462,US,Assisted Living Facility
USA-SC-58-SC-OfficeOnAging-output-347,Morningside Of Sumter,2500 Lin Do Ct,Sumter,29150,SC,Sumter,803-469-4490,,,,,CRC-1079,http://nfbl.sc.gov/FacilityInformation.php?FacID=463,US,Assisted Living Facility
USA-SC-58-SC-OfficeOnAging-output-348,Sterling House Of Sumter,1180 Wilson Hall Rd,Sumter,29150,SC,Sumter,803-469-4508,,,,,CRC-1312,http://nfbl.sc.gov/FacilityInformation.php?FacID=464,US,Assisted Living Facility
USA-SC-58-SC-OfficeOnAging-output-349,Covenant Place,2825 Carter Rd Ofc,Sumter,29150,SC,Sumter,803-469-7007,,,,,CRC-0758,http://nfbl.sc.gov/FacilityInformation.php?FacID=465,US,Assisted Living Facility
USA-SC-58-SC-OfficeOnAging-output-350,Serenity Manor Of Holly Hill,656 Gardner Blvd,Holly Hill,29059,SC,Orangeburg,803-496-3022,,,,,CRC-1516,http://nfbl.sc.gov/FacilityInformation.php?FacID=466,US,Assisted Living Facility
USA-SC-58-SC-OfficeOnAging-output-351,Magnolias Of Santee,118 Britain St,Santee,29142,SC,Orangeburg,803-854-2020,,,,,CRC-1416,http://nfbl.sc.gov/FacilityInformation.php?FacID=467,US,Assisted Living Facility
USA-SC-58-SC-OfficeOnAging-output-352,Alexander's Golden Starr Community Care Home,218 Golden Starr Rd,Santee,29142,SC,Orangeburg,803-854-2496,8036104197,Donna Outlaw,shilanedot@gmail.com,,CRC-0171,http://nfbl.sc.gov/FacilityInformation.php?FacID=468,US,Assisted Living Facility
USA-SC-58-SC-OfficeOnAging-output-353,Pinedale Residential Center,798 Hermitage Pond Rd,Camden,29020,SC,Kershaw,803-432-9900,,,,,CRC-0460,http://nfbl.sc.gov/FacilityInformation.php?FacID=469,US,Assisted Living Facility
USA-SC-58-SC-OfficeOnAging-output-354,Morningside Of Camden,715 Kershaw Hwy,Camden,29020,SC,Kershaw,803-713-8668,,,,,CRC-1259,http://nfbl.sc.gov/FacilityInformation.php?FacID=471,US,Assisted Living Facility
USA-SC-58-SC-OfficeOnAging-output-355,Elliott's Residential Care Home,2432 Landsdowne Rd,Bowman,29018,SC,Orangeburg,803-829-3348,,,,,CRC-0272,http://nfbl.sc.gov/FacilityInformation.php?FacID=472,US,Assisted Living Facility
USA-SC-58-SC-OfficeOnAging-output-356,Camden I,975 Wateree Blvd,Camden,29020,SC,Kershaw,803-432-0973,803-865-6885,Crystal J. Wright,c.wright@chescoservices.org,,CRC-1525,http://nfbl.sc.gov/FacilityInformation.php?FacID=473,US,Assisted Living Facility
USA-SC-58-SC-OfficeOnAging-output-357,Camden II,975 Wateree Blvd,Camden,29020,SC,Kershaw,803-432-1345,803-865-6885,Crystal J. Wright,c.wright@chescoservices.org,,CRC-1522,http://nfbl.sc.gov/FacilityInformation.php?FacID=474,US,Assisted Living Facility
USA-SC-58-SC-OfficeOnAging-output-358,Colleton Courtyard,210 Academy Rd,Walterboro,29488,SC,Colleton,843-538-8181,,,,,CRC-1484,http://nfbl.sc.gov/FacilityInformation.php?FacID=475,US,Assisted Living Facility
USA-SC-58-SC-OfficeOnAging-output-359,Zion House A,121 Moore St,Walterboro,29488,SC,Colleton,843-782-3238,,,,,CRC-1529,http://nfbl.sc.gov/FacilityInformation.php?FacID=476,US,Assisted Living Facility
USA-SC-58-SC-OfficeOnAging-output-360,Heath Springs Residential Care Center,614 Hart St,Heath Springs,29058,SC,Lancaster,803-273-3227,803-273-3281,Paula or Dorethea,,,CRC-1903,http://nfbl.sc.gov/FacilityInformation.php?FacID=477,US,Assisted Living Facility
USA-SC-58-SC-OfficeOnAging-output-361,Josie Drive Community Residence,210 Josie Dr,Walterboro,29488,SC,Colleton,843-549-6979,,,,,CRC-1528,http://nfbl.sc.gov/FacilityInformation.php?FacID=478,US,Assisted Living Facility
USA-SC-58-SC-OfficeOnAging-output-362,Forest Circle Community Residence,505 Forest Cir,Walterboro,29488,SC,Colleton,843-549-8140,,,,,CRC-1527,http://nfbl.sc.gov/FacilityInformation.php?FacID=479,US,Assisted Living Facility
USA-SC-58-SC-OfficeOnAging-output-363,River Oaks,1251 Ladys Island Dr,Port Royal,29935,SC,Beaufort,843-521-2298,,,,,CRC-0733,http://nfbl.sc.gov/FacilityInformation.php?FacID=480,US,Assisted Living Facility
USA-SC-58-SC-OfficeOnAging-output-364,Bostick's Adult Residential Care Facility,1912 Duke St,Beaufort,29902,SC,Beaufort,843-524-3906,,,,,CRC-0143,http://nfbl.sc.gov/FacilityInformation.php?FacID=481,US,Assisted Living Facility
USA-SC-58-SC-OfficeOnAging-output-365,Port Royal Community Residence,1508 Old Shell Rd,Port Royal,29935,SC,Beaufort,843-255-6300,,,,,CRC-1173,http://nfbl.sc.gov/FacilityInformation.php?FacID=482,US,Assisted Living Facility
USA-SC-58-SC-OfficeOnAging-output-366,Helena House,1624 Paris Ave Ofc,Port Royal,29935,SC,Beaufort,843-982-0233,,,,,CRC-1409,http://nfbl.sc.gov/FacilityInformation.php?FacID=483,US,Assisted Living Facility
USA-SC-58-SC-OfficeOnAging-output-367,CLS Care Home,1024 Tucker Town Rd Ste 1024A,Gadsden,29052,SC,Richland,803-353-2151,,,,,CRC-1200,http://nfbl.sc.gov/FacilityInformation.php?FacID=484,US,Assisted Living Facility
USA-SC-58-SC-OfficeOnAging-output-368,Summit Place Of Beaufort,1119 Pick Pocket Plantation Dr,Beaufort,29902,SC,Beaufort,843-770-0105,,,,,CRC-1375,http://nfbl.sc.gov/FacilityInformation.php?FacID=485,US,Assisted Living Facility
USA-SC-58-SC-OfficeOnAging-output-369,Bloom At Hilton Head,35 Beach City Rd,Hilton Head Island,29926,SC,Beaufort,843-342-5599,,,,,CRC-1382,http://nfbl.sc.gov/FacilityInformation.php?FacID=486,US,Assisted Living Facility
USA-SC-58-SC-OfficeOnAging-output-370,Morningside Of Beaufort,109 Old Salem Rd,Beaufort,29902,SC,Beaufort,843-982-0220,,,,,CRC-1267,http://nfbl.sc.gov/FacilityInformation.php?FacID=487,US,Assisted Living Facility
USA-SC-58-SC-OfficeOnAging-output-371,Emeritus At Hawthorne Inn At Hilton Head,15 Main St,Hilton Head Island,29926,SC,Beaufort,843-342-6565,,,,,CRC-1397,http://nfbl.sc.gov/FacilityInformation.php?FacID=488,US,Assisted Living Facility
USA-SC-58-SC-OfficeOnAging-output-372,Emeritus At Palm Court,48 Main St,Hilton Head Island,29926,SC,Beaufort,843-342-7122,,,,,CRC-1275,http://nfbl.sc.gov/FacilityInformation.php?FacID=489,US,Assisted Living Facility
USA-SC-58-SC-OfficeOnAging-output-373,Emeritus At Palm Village,80 Main St Ofc 100,Hilton Head Island,29926,SC,Beaufort,843-689-9143,,,,,CRC-1276,http://nfbl.sc.gov/FacilityInformation.php?FacID=490,US,Assisted Living Facility
USA-SC-58-SC-OfficeOnAging-output-374,A'Lelia Residential Care,10 Jacob White Rd,Yemassee,29945,SC,Beaufort,843-466-0356,843-466-0672,Carrie Miles,miles-66@hotmail.com,,CRC-1115,http://nfbl.sc.gov/FacilityInformation.php?FacID=491,US,Assisted Living Facility
USA-SC-58-SC-OfficeOnAging-output-375,Turning Point crcf,820 Toms Creek Rd,Hopkins,29061,SC,Richland,803-647-1152,,,,,CRC-1356,http://nfbl.sc.gov/FacilityInformation.php?FacID=492,US,Assisted Living Facility
USA-SC-58-SC-OfficeOnAging-output-376,Flowers Residential Care Facility,855 Watts Hill Rd,Lugoff,29078,SC,Kershaw,803-438-2654,,,Mla3524@yahoo.com,,CRC-0297,http://nfbl.sc.gov/FacilityInformation.php?FacID=493,US,Assisted Living Facility
USA-SC-58-SC-OfficeOnAging-output-377,Marquise Residential Home,9 Frazier Village Dr,Beaufort,29906,SC,Beaufort,843-846-8417,,,,,CRC-0863,http://nfbl.sc.gov/FacilityInformation.php?FacID=494,US,Assisted Living Facility
USA-SC-58-SC-OfficeOnAging-output-378,Broad Creek Care Center Assisted Living,801 Lemon Grass Ct,Hilton Head Island,29928,SC,Beaufort,843-341-7300,,,,,CRC-1036,http://nfbl.sc.gov/FacilityInformation.php?FacID=495,US,Assisted Living Facility
USA-SC-58-SC-OfficeOnAging-output-379,Morningside Of Lancaster,1004 Hardin St,Lancaster,29720,SC,Lancaster,803-285-8152,,,,,CRC-1146,http://nfbl.sc.gov/FacilityInformation.php?FacID=496,US,Assisted Living Facility
USA-SC-58-SC-OfficeOnAging-output-380,Dixon's Community Care Home,1456 Dixon Rd,Elgin,29045,SC,Kershaw,803-729-4309,,,,,CRC-0934,http://nfbl.sc.gov/FacilityInformation.php?FacID=497,US,Assisted Living Facility
USA-SC-58-SC-OfficeOnAging-output-381,Veterans Haven,1529 Dixon Rd,Elgin,29045,SC,Kershaw,803-408-1346,,Kondwani Sibande,,,CRC-1941,http://nfbl.sc.gov/FacilityInformation.php?FacID=498,US,Assisted Living Facility
USA-SC-58-SC-OfficeOnAging-output-382,J C Laraes Southwinds Assisted Living Community,308 Humphries Rd,Ridgeway,29130,SC,Kershaw,803-438-4052,,,,,CRC-1181,http://nfbl.sc.gov/FacilityInformation.php?FacID=499,US,Assisted Living Facility
USA-SC-58-SC-OfficeOnAging-output-383,Joanne's Community Care Home #1,5048 Percival Rd,Elgin,29045,SC,Richland,803-736-3860,844-273-7138,Towana Hayes or Joanne M. Caldwell,joannescch@aol.com,,CRC-0932,http://nfbl.sc.gov/FacilityInformation.php?FacID=500,US,Assisted Living Facility
USA-SC-58-SC-OfficeOnAging-output-384,Brian's Residential Care II,4003 Calhoun St,Branchville,29432,SC,Orangeburg,803-274-8051,803-274-8051,Albert Stokes,dstokes30@sc.rr.com,,CRC-0947,http://nfbl.sc.gov/FacilityInformation.php?FacID=501,US,Assisted Living Facility
USA-SC-58-SC-OfficeOnAging-output-385,Lemonaide House,1018 Crystal Clear Ln,Hopkins,29061,SC,Richland,803-776-1742,803 724-2431,Lula Etheridge 803 467-8399,lemons2love@aol.com,,CRC-0924,http://nfbl.sc.gov/FacilityInformation.php?FacID=502,US,Assisted Living Facility
USA-SC-58-SC-OfficeOnAging-output-386,Countrywood Assisted Living,1645 Ridge Rd,Hopkins,29061,SC,Richland,803-776-3873,803-217-0365,Lashay Hayes,lhayes@sterling-health.com,,CRC-1465,http://nfbl.sc.gov/FacilityInformation.php?FacID=503,US,Assisted Living Facility
USA-SC-58-SC-OfficeOnAging-output-387,Brian's Residential Care,1115 Whitman St,Orangeburg,29115,SC,Orangeburg,803-533-1588,,Albert Stokes,dstokes30@sc.rr.com,,CRC-0418,http://nfbl.sc.gov/FacilityInformation.php?FacID=504,US,Assisted Living Facility
USA-SC-58-SC-OfficeOnAging-output-388,Stokes Residential Care,2525 Saint Matthews Rd,Orangeburg,29118,SC,Orangeburg,803-533-0070,,Albert or Delaura Stokes,dstokes30@sc.rr.com,,CRC-0570,http://nfbl.sc.gov/FacilityInformation.php?FacID=505,US,Assisted Living Facility
USA-SC-58-SC-OfficeOnAging-output-389,Aldersgate At The Oaks,921 Methodist Oaks Dr,Orangeburg,29115,SC,Orangeburg,803-531-2332,803-531-2331,LaVeda B. Jenkins,921aoaks@gmail.com,,CRC-1488,http://nfbl.sc.gov/FacilityInformation.php?FacID=506,US,Assisted Living Facility
USA-SC-58-SC-OfficeOnAging-output-390,Methodist Oaks Residential Care Facility,1000 Methodist Oaks Dr,Orangeburg,29115,SC,Orangeburg,803-534-1212,,,,,CRC-0910,http://nfbl.sc.gov/FacilityInformation.php?FacID=507,US,Assisted Living Facility
USA-SC-58-SC-OfficeOnAging-output-391,Golden Years,139 Seminole Dr,Orangeburg,29115,SC,Orangeburg,803-536-0060,,,,,CRC-0333,http://nfbl.sc.gov/FacilityInformation.php?FacID=509,US,Assisted Living Facility
USA-SC-58-SC-OfficeOnAging-output-392,Daltons Cmc Residential Care Facility,1231 Eutaw St,Orangeburg,29115,SC,Orangeburg,803-531-6534,,Gerrick Sands,gerricksands@gmail.com,,CRC-1447,http://nfbl.sc.gov/FacilityInformation.php?FacID=510,US,Assisted Living Facility
USA-SC-58-SC-OfficeOnAging-output-393,Bloom At Belfair,60 Oak Forest Rd,Bluffton,29910,SC,Beaufort,#VALUE!,,,,,CRC-1510,http://nfbl.sc.gov/FacilityInformation.php?FacID=511,US,Assisted Living Facility
USA-SC-58-SC-OfficeOnAging-output-394,Jolly Rest More,1488 Glover St,Orangeburg,29115,SC,Orangeburg,803-531-4386,,,,,CRC-0332,http://nfbl.sc.gov/FacilityInformation.php?FacID=512,US,Assisted Living Facility
USA-SC-58-SC-OfficeOnAging-output-395,Tyler Restmore Home #2,195 Sellers Ave,Orangeburg,29115,SC,Orangeburg,803-531-2074,,Michelle Antley,Michelleantley@att.net,,CRC-0889,http://nfbl.sc.gov/FacilityInformation.php?FacID=513,US,Assisted Living Facility
USA-SC-58-SC-OfficeOnAging-output-396,Catherine's Manor II,261 Summers Ave,Orangeburg,29115,SC,Orangeburg,803-539-0899,,,,,CRC-1033,http://nfbl.sc.gov/FacilityInformation.php?FacID=514,US,Assisted Living Facility
USA-SC-58-SC-OfficeOnAging-output-397,Bloom At Bluffton,800 Fording Island Rd,Bluffton,29910,SC,Beaufort,843-815-2555,,,,,CRC-1381,http://nfbl.sc.gov/FacilityInformation.php?FacID=515,US,Assisted Living Facility
USA-SC-58-SC-OfficeOnAging-output-398,Addisons Community Care Home,4013 Percival Rd,Columbia,29229,SC,Richland,803-736-0455,8037364890,Sarah Doctor- Greenwade,sardct@gmail.com,,CRC-0815,http://nfbl.sc.gov/FacilityInformation.php?FacID=516,US,Assisted Living Facility
USA-SC-58-SC-OfficeOnAging-output-399,Longwood Plantation,1687 Longwood Dr,Orangeburg,29118,SC,Orangeburg,803-535-0250,,,,,CRC-0797,http://nfbl.sc.gov/FacilityInformation.php?FacID=517,US,Assisted Living Facility
USA-SC-58-SC-OfficeOnAging-output-400,J J Residential Care,748 Green St,Orangeburg,29115,SC,Orangeburg,803-539-2604,,,,,CRC-0831,http://nfbl.sc.gov/FacilityInformation.php?FacID=518,US,Assisted Living Facility
USA-SC-58-SC-OfficeOnAging-output-401,Tyler Restmore Home,1681 Broughton St,Orangeburg,29115,SC,Orangeburg,803-536-0740,,Michelle Antley,Michelleantley@att.net,,CRC-0841,http://nfbl.sc.gov/FacilityInformation.php?FacID=519,US,Assisted Living Facility
USA-SC-58-SC-OfficeOnAging-output-402,Piedmont Pathways Community Residential Care Facility,5640 Lower Richland Blvd,Hopkins,29061,SC,Richland,803-783-2273,,,,,CRC-1421,http://nfbl.sc.gov/FacilityInformation.php?FacID=520,US,Assisted Living Facility
USA-SC-58-SC-OfficeOnAging-output-403,Haven In The Summit,3 Summit Ter,Columbia,29229,SC,Richland,803-788-4633,,,,,CRC-1240,http://nfbl.sc.gov/FacilityInformation.php?FacID=521,US,Assisted Living Facility
USA-SC-58-SC-OfficeOnAging-output-404,Wildewood Downs Assisted Living Community,731 Polo Rd,Columbia,29223,SC,Richland,803-788-5115,,,,,CRC-1271,http://nfbl.sc.gov/FacilityInformation.php?FacID=522,US,Assisted Living Facility
USA-SC-58-SC-OfficeOnAging-output-405,Amara Place at Columbia,651 Polo Rd,Columbia,29223,SC,Richland,803-788-9555,,Shannon Berg,,,CRC-1944,http://nfbl.sc.gov/FacilityInformation.php?FacID=523,US,Assisted Living Facility
USA-SC-58-SC-OfficeOnAging-output-406,Morningside Of Orangeburg,2306 Riverbank Dr,Orangeburg,29118,SC,Orangeburg,803-539-2911,,,,,CRC-1261,http://nfbl.sc.gov/FacilityInformation.php?FacID=524,US,Assisted Living Facility
USA-SC-58-SC-OfficeOnAging-output-407,Oliver's Care Home,1200 Lawhorn Rd,Blythewood,29016,SC,Richland,803-754-3585,,,,,CRC-1480,http://nfbl.sc.gov/FacilityInformation.php?FacID=525,US,Assisted Living Facility
USA-SC-58-SC-OfficeOnAging-output-408,Pondview Residential Care Home #1,5342 Hardscrabble Rd,Blythewood,29016,SC,Richland,803-735-0420,,,,,CRC-0378,http://nfbl.sc.gov/FacilityInformation.php?FacID=526,US,Assisted Living Facility
USA-SC-58-SC-OfficeOnAging-output-409,Pondview Residential Care Home #2,5338 Hardscrabble Rd,Blythewood,29016,SC,Richland,803-735-0420,,,,,CRC-1190,http://nfbl.sc.gov/FacilityInformation.php?FacID=527,US,Assisted Living Facility
USA-SC-58-SC-OfficeOnAging-output-410,Helms-Gordon Residential Care Home,714 Funderburke Rd,Fort Lawn,29714,SC,Chester,803-872-4253,,,,,CRC-0527,http://nfbl.sc.gov/FacilityInformation.php?FacID=528,US,Assisted Living Facility
USA-SC-58-SC-OfficeOnAging-output-411,Kiva Lodge,200 Claude Bundrick Rd,Blythewood,29016,SC,Richland,803-754-5478,,,,,CRC-1092,http://nfbl.sc.gov/FacilityInformation.php?FacID=530,US,Assisted Living Facility
USA-SC-58-SC-OfficeOnAging-output-412,Rileys Residential Care Home,2327 Brian Christopher Rd,Great Falls,29055,SC,Chester,803-482-3290,,,,,CRC-0900,http://nfbl.sc.gov/FacilityInformation.php?FacID=531,US,Assisted Living Facility
USA-SC-58-SC-OfficeOnAging-output-413,Joanne's Community Care Home II,756 Farrowood Drive,Columbia,29223,SC,Richland,803-736-3094,803-736-3094,Joanne M. Caldwell,joannescch@aol.com,,CRC-0030,http://nfbl.sc.gov/FacilityInformation.php?FacID=532,US,Assisted Living Facility
USA-SC-58-SC-OfficeOnAging-output-414,Casual Community Care Home,112 Goodrich St,Columbia,29223,SC,Richland,803-788-2721,,,,,CRC-0701,http://nfbl.sc.gov/FacilityInformation.php?FacID=533,US,Assisted Living Facility
USA-SC-58-SC-OfficeOnAging-output-415,Rockhaven Community Care Home,524 Rockhaven Dr,Columbia,29223,SC,Richland,803-699-5361,,,,,CRC-0800,http://nfbl.sc.gov/FacilityInformation.php?FacID=534,US,Assisted Living Facility
USA-SC-58-SC-OfficeOnAging-output-416,Joshuas Foundation,388 Elbow Cir,Ridgeway,29130,SC,Fairfield,803-337-8701,803-337-3750,Maria Bernardez Muir / Errol Muir,mbernardez@Joshuasfoundation.org,,CRC-0659,http://nfbl.sc.gov/FacilityInformation.php?FacID=535,US,Assisted Living Facility
USA-SC-58-SC-OfficeOnAging-output-417,Williams Community Care Home,7705 Richard St,Columbia,29209,SC,Richland,803-783-1223,,,,,CRC-0280,http://nfbl.sc.gov/FacilityInformation.php?FacID=536,US,Assisted Living Facility
USA-SC-58-SC-OfficeOnAging-output-418,Carson's Community Care,10219 Farrow Rd,Blythewood,29016,SC,Richland,803-786-7513,803-786-1177,Annie Carson,carsonscommunitycare@gmail.com,,CRC-0916,http://nfbl.sc.gov/FacilityInformation.php?FacID=537,US,Assisted Living Facility
USA-SC-58-SC-OfficeOnAging-output-419,Palmettos Of Parklane,7811 Parklane Rd,Columbia,29223,SC,Richland,803-741-7233,,,,,CRC-1513,http://nfbl.sc.gov/FacilityInformation.php?FacID=538,US,Assisted Living Facility
USA-SC-58-SC-OfficeOnAging-output-420,Country Comfort Community Home,204 Joe Apree Cir,Blythewood,29016,SC,Richland,803-735-9777,,,,,CRC-1467,http://nfbl.sc.gov/FacilityInformation.php?FacID=539,US,Assisted Living Facility
USA-SC-58-SC-OfficeOnAging-output-421,Rouse Community Care Home #1,102 Ballenton Rd,Columbia,29203,SC,Richland,803-788-1753,8037242820,Charlene Rouse,,,CRC-0327,http://nfbl.sc.gov/FacilityInformation.php?FacID=540,US,Assisted Living Facility
USA-SC-58-SC-OfficeOnAging-output-422,Sterling House Of Parklane,251 Springtree Dr,Columbia,29223,SC,Richland,803-741-2600,,,,,CRC-1310,http://nfbl.sc.gov/FacilityInformation.php?FacID=541,US,Assisted Living Facility
USA-SC-58-SC-OfficeOnAging-output-423,Rice Estate - Assisted Living,100 Finley Rd,Columbia,29203,SC,Richland,803-691-5740,,,,,CRC-1075,http://nfbl.sc.gov/FacilityInformation.php?FacID=542,US,Assisted Living Facility
USA-SC-58-SC-OfficeOnAging-output-424,Mary's Residential Care Facility,10425 Wilson Blvd,Blythewood,29016,SC,Richland,803-708-1739,,,,,CRC-1501,http://nfbl.sc.gov/FacilityInformation.php?FacID=543,US,Assisted Living Facility
USA-SC-58-SC-OfficeOnAging-output-425,Carolina Gardens at Kathwood,4520 Trenholm Rd,Columbia,29206,SC,Richland,803-787-1234,,Thomas Horton or Sherri R Scott,calexander@agapesenior.com,,CRC-1911,http://nfbl.sc.gov/FacilityInformation.php?FacID=544,US,Assisted Living Facility
USA-SC-58-SC-OfficeOnAging-output-426,Divine Manor Assisted Living Center,2210 Oak Pond Rd,Rock Hill,29730,SC,York,803-329-4494,,,,,CRC-1361,http://nfbl.sc.gov/FacilityInformation.php?FacID=545,US,Assisted Living Facility
USA-SC-58-SC-OfficeOnAging-output-427,Atria Forest Lake,4405 Forest Dr,Columbia,29206,SC,Richland,803-790-9800,,,,,CRC-1143,http://nfbl.sc.gov/FacilityInformation.php?FacID=546,US,Assisted Living Facility
USA-SC-58-SC-OfficeOnAging-output-428,North Pines Community Residence,313 N Pines Rd,Blythewood,29016,SC,Richland,803-754-6213,803-865-6885,Elesha Lockhart,e.lockhart@chescoservices.org,,CRC-1504,http://nfbl.sc.gov/FacilityInformation.php?FacID=547,US,Assisted Living Facility
USA-SC-58-SC-OfficeOnAging-output-429,Ida Lane II crcf,124 Ida Ln,Columbia,29203,SC,Richland,803-786-7543,,,,,CRC-1518,http://nfbl.sc.gov/FacilityInformation.php?FacID=548,US,Assisted Living Facility
USA-SC-58-SC-OfficeOnAging-output-430,Ida Lane I crcf,120 Ida Ln,Columbia,29203,SC,Richland,803-786-7522,,,,,CRC-1520,http://nfbl.sc.gov/FacilityInformation.php?FacID=549,US,Assisted Living Facility
USA-SC-58-SC-OfficeOnAging-output-431,Reese's Community Care Home #2,717 Cindy Dr,Columbia,29203,SC,Richland,803-754-9798,,,,,CRC-0054,http://nfbl.sc.gov/FacilityInformation.php?FacID=550,US,Assisted Living Facility
USA-SC-58-SC-OfficeOnAging-output-432,Joy Community Care Home,6800 Doby Dr,Columbia,29203,SC,Richland,803-754-3157,,,,,CRC-0961,http://nfbl.sc.gov/FacilityInformation.php?FacID=551,US,Assisted Living Facility
USA-SC-58-SC-OfficeOnAging-output-433,Rouse Community Care Home #2,8809 Wilson Blvd,Columbia,29203,SC,Richland,803-786-9357,8037539568,Sarah Doctor- Greenwade,,,CRC-0328,http://nfbl.sc.gov/FacilityInformation.php?FacID=552,US,Assisted Living Facility
USA-SC-58-SC-OfficeOnAging-output-434,Rouse Community Care Home #3,9316 Wilson Blvd,Columbia,29203,SC,Richland,803-754-5720,8036918274,Charlene Rouse,,,CRC-0238,http://nfbl.sc.gov/FacilityInformation.php?FacID=553,US,Assisted Living Facility
USA-SC-58-SC-OfficeOnAging-output-435,Mirci Group Home I,581 Beckman Dr,Columbia,29203,SC,Richland,803-754-4221,,,,,CRC-1443,http://nfbl.sc.gov/FacilityInformation.php?FacID=554,US,Assisted Living Facility
USA-SC-58-SC-OfficeOnAging-output-436,Westside Residential Home,4112 Hartford St,Columbia,29204,SC,Richland,803-786-7411,803-786-7021,Lovice D. Johnson,jentommatt@aol.com,,CRC-0907,http://nfbl.sc.gov/FacilityInformation.php?FacID=555,US,Assisted Living Facility
USA-SC-58-SC-OfficeOnAging-output-437,Mirci Group Home II,611 Beckman Rd,Columbia,29203,SC,Richland,803-754-8894,,,,,CRC-1444,http://nfbl.sc.gov/FacilityInformation.php?FacID=556,US,Assisted Living Facility
USA-SC-58-SC-OfficeOnAging-output-438,Flowers Community Residential Care,1930 Chaney St,Columbia,29204,SC,Richland,803-735-0920,,,,,CRC-0376,http://nfbl.sc.gov/FacilityInformation.php?FacID=557,US,Assisted Living Facility
USA-SC-58-SC-OfficeOnAging-output-439,Builders Care Home,731 Sims Ave,Columbia,29205,SC,Richland,803-376-8991,,,,,CRC-1491,http://nfbl.sc.gov/FacilityInformation.php?FacID=558,US,Assisted Living Facility
USA-SC-58-SC-OfficeOnAging-output-440,Bird Street II Community Residential Care Facility,1711 Bird St,Rock Hill,29730,SC,York,803-628-5999,,,,,CRC-1358,http://nfbl.sc.gov/FacilityInformation.php?FacID=559,US,Assisted Living Facility
USA-SC-58-SC-OfficeOnAging-output-441,Flanagan Community Care Home,665 Sharpe Rd,Columbia,29203,SC,Richland,803-754-2136,,,,,CRC-0314,http://nfbl.sc.gov/FacilityInformation.php?FacID=560,US,Assisted Living Facility
USA-SC-58-SC-OfficeOnAging-output-442,B & J Residential Care Facility,528 Atterbury Dr,Columbia,29203,SC,Richland,803-786-0011,,,,,CRC-1461,http://nfbl.sc.gov/FacilityInformation.php?FacID=561,US,Assisted Living Facility
USA-SC-58-SC-OfficeOnAging-output-443,Bird Street I Community Residential Care Facility,1705 Bird St,Rock Hill,29730,SC,York,803-628-5999,,,,,CRC-1357,http://nfbl.sc.gov/FacilityInformation.php?FacID=562,US,Assisted Living Facility
USA-SC-58-SC-OfficeOnAging-output-444,Mary'S Residential #2,633 Sharpe Rd,Columbia,29203,SC,Richland,803-556-9813,,,,,CRC-1534,http://nfbl.sc.gov/FacilityInformation.php?FacID=563,US,Assisted Living Facility
USA-SC-58-SC-OfficeOnAging-output-445,Dreamland Residential Care,6941 North Rd,North,29112,SC,Orangeburg,803-533-7492,803-533-7306,Delores Wright,deloreswright4@aol.com,,CRC-0795,http://nfbl.sc.gov/FacilityInformation.php?FacID=564,US,Assisted Living Facility
USA-SC-58-SC-OfficeOnAging-output-446,Miles Residential Care,490 Koon Store Rd,Columbia,29203,SC,Richland,803-754-4039,,,,,CRC-0695,http://nfbl.sc.gov/FacilityInformation.php?FacID=565,US,Assisted Living Facility
USA-SC-58-SC-OfficeOnAging-output-447,Marett Boulevard Community Residential Care Facility,1721 Marett Blvd Ext,Rock Hill,29732,SC,York,803-327-9466,,Christina Myers,cmyers@yorkdsnb.org,,CRC-0883,http://nfbl.sc.gov/FacilityInformation.php?FacID=566,US,Assisted Living Facility
USA-SC-58-SC-OfficeOnAging-output-448,Low Country Assisted Living,6060 Ehrhardt Rd,Ehrhardt,29081,SC,Bamberg,803-267-2222,803-267-2222,"Sherri Cassidy, BSN, RN, Administrator",lowcountryal@yahoo.com,,CRC-1474,http://nfbl.sc.gov/FacilityInformation.php?FacID=567,US,Assisted Living Facility
USA-SC-58-SC-OfficeOnAging-output-449,Westminster Towers Residential,1330 India Hook Rd,Rock Hill,29732,SC,York,803-328-5000,,,,,CRC-0580,http://nfbl.sc.gov/FacilityInformation.php?FacID=569,US,Assisted Living Facility
USA-SC-58-SC-OfficeOnAging-output-450,Emeritus At Spring Arbor,1800 India Hook Rd,Rock Hill,29732,SC,York,803-325-1144,,,,,CRC-1392,http://nfbl.sc.gov/FacilityInformation.php?FacID=570,US,Assisted Living Facility
USA-SC-58-SC-OfficeOnAging-output-451,Reese's Community Care Home #1,1203 E Muller Ave,Columbia,29203,SC,Richland,803-786-1843,,,,,CRC-0053,http://nfbl.sc.gov/FacilityInformation.php?FacID=571,US,Assisted Living Facility
USA-SC-58-SC-OfficeOnAging-output-452,Myers Residential Care Facility II,365 Caldon Rd,Swansea,29160,SC,Calhoun,803-568-3582,,,,,CRC-0851,http://nfbl.sc.gov/FacilityInformation.php?FacID=573,US,Assisted Living Facility
USA-SC-58-SC-OfficeOnAging-output-453,Myers Residential Care Facility I,365 Caldon Rd,Swansea,29160,SC,Lexington,803-568-3582,803-568-4914,Louise or Mary Myers,myersrcf@pbtcomm.net,,CRC-0644,http://nfbl.sc.gov/FacilityInformation.php?FacID=574,US,Assisted Living Facility
USA-SC-58-SC-OfficeOnAging-output-454,Zeigler Street Community Residence,71 Zeigler St,Bamberg,29003,SC,Bamberg,803-245-6169,,,,,CRC-1297,http://nfbl.sc.gov/FacilityInformation.php?FacID=575,US,Assisted Living Facility
USA-SC-58-SC-OfficeOnAging-output-455,Dowdy's Community Care Home #2,4609 Arlington St,Columbia,29203,SC,Richland,803-786-2105,,,,,CRC-0173,http://nfbl.sc.gov/FacilityInformation.php?FacID=576,US,Assisted Living Facility
USA-SC-58-SC-OfficeOnAging-output-456,Walters Residential Care,821 Duke Ave,Columbia,29203,SC,Richland,803-252-8918,,,,,CRC-0985,http://nfbl.sc.gov/FacilityInformation.php?FacID=577,US,Assisted Living Facility
USA-SC-58-SC-OfficeOnAging-output-457,Harborchase Of Rock Hill,1611 Constitution Blvd,Rock Hill,29732,SC,York,803-981-6855,,Hilary King,,,CRC-1290,http://nfbl.sc.gov/FacilityInformation.php?FacID=579,US,Assisted Living Facility
USA-SC-58-SC-OfficeOnAging-output-458,Sterling House Of Rock Hill,1920 Ebenezer Rd,Rock Hill,29732,SC,York,803-366-1189,,,,,CRC-1308,http://nfbl.sc.gov/FacilityInformation.php?FacID=580,US,Assisted Living Facility
USA-SC-58-SC-OfficeOnAging-output-459,Carolina Gardens at Rock Hill,1785 Lexington Common Dr,Rock Hill,29732,SC,York,803-207-8000,,Kayla A. Cline,,,CRC-1914,http://nfbl.sc.gov/FacilityInformation.php?FacID=581,US,Assisted Living Facility
USA-SC-58-SC-OfficeOnAging-output-460,J & T Residential Care Facility,604 Wagon Wheel Rd,Hampton,29924,SC,Hampton,803-943-7177,,Thelma Myers,Jtresidentialcare@gmail.com,,CRC-1094,http://nfbl.sc.gov/FacilityInformation.php?FacID=582,US,Assisted Living Facility
USA-SC-58-SC-OfficeOnAging-output-461,Davis Community Care Home,2306 Heyward Brockington Rd,Columbia,29203,SC,Richland,803-754-5677,803-714-1731,,,,CRC-0240,http://nfbl.sc.gov/FacilityInformation.php?FacID=583,US,Assisted Living Facility
USA-SC-58-SC-OfficeOnAging-output-462,Eugenia's Residential Care Facility,2232 Heyward Brockington Rd,Columbia,29203,SC,Richland,803-786-1047,803-714-1731,,,,CRC-0538,http://nfbl.sc.gov/FacilityInformation.php?FacID=584,US,Assisted Living Facility
USA-SC-58-SC-OfficeOnAging-output-463,Kensington I,100 Kensington Rd,Columbia,29203,SC,Richland,803-256-0504,803-865-6885,Susan Turner,s.turner@chescoservices.org,,CRC-1532,http://nfbl.sc.gov/FacilityInformation.php?FacID=585,US,Assisted Living Facility
USA-SC-58-SC-OfficeOnAging-output-464,Sc Episcopal Home At Still Hopes (crcf),1 Still Hopes Dr,West Columbia,29169,SC,Lexington,803-796-6490,,,,,CRC-0144,http://nfbl.sc.gov/FacilityInformation.php?FacID=586,US,Assisted Living Facility
USA-SC-58-SC-OfficeOnAging-output-465,Morningside Of Rock Hill,1830 W Main St,Rock Hill,29732,SC,York,803-980-4100,,,,,CRC-1114,http://nfbl.sc.gov/FacilityInformation.php?FacID=587,US,Assisted Living Facility
USA-SC-58-SC-OfficeOnAging-output-466,Lake Wylie Assisted Living Community,4877 Charlotte Hwy,Clover,29710,SC,York,803-831-9900,,,,,CRC-1241,http://nfbl.sc.gov/FacilityInformation.php?FacID=588,US,Assisted Living Facility
USA-SC-58-SC-OfficeOnAging-output-467,Twilite Manor Adult Residential Care,2306 Forrest St,Cayce,29033,SC,Lexington,803-794-7561,,,,,CRC-1210,http://nfbl.sc.gov/FacilityInformation.php?FacID=589,US,Assisted Living Facility
USA-SC-58-SC-OfficeOnAging-output-468,Varnville Community Residence,266 Hampton Rd,Varnville,29944,SC,Hampton,803-943-4818,,,,,CRC-1211,http://nfbl.sc.gov/FacilityInformation.php?FacID=590,US,Assisted Living Facility
USA-SC-58-SC-OfficeOnAging-output-469,Southern Heritage,1713 Charleston Hwy,West Columbia,29169,SC,Lexington,803-796-3113,,,,,CRC-0993,http://nfbl.sc.gov/FacilityInformation.php?FacID=591,US,Assisted Living Facility
USA-SC-58-SC-OfficeOnAging-output-470,Meadowlark Drive Community Residential Care Facility,1183 Meadowlark Dr,Rock Hill,29732,SC,York,803-327-9770,,Christina Myers,cmyers@yorkdsnb.org,,CRC-0881,http://nfbl.sc.gov/FacilityInformation.php?FacID=592,US,Assisted Living Facility
USA-SC-58-SC-OfficeOnAging-output-471,Passionate Care Community Center,2206 Hertford Dr,Columbia,29210,SC,Richland,803-834-4544,,,,,CRC-1500,http://nfbl.sc.gov/FacilityInformation.php?FacID=593,US,Assisted Living Facility
USA-SC-58-SC-OfficeOnAging-output-472,Oakbridge Terrace At Park Pointe Village,3025 Chesbrough Blvd,Rock Hill,29732,SC,York,803-327-4723,,,,,CRC-1374,http://nfbl.sc.gov/FacilityInformation.php?FacID=594,US,Assisted Living Facility
USA-SC-58-SC-OfficeOnAging-output-473,Seville's Residential Care Facility,109 Bennett Ln,Hampton,29924,SC,Hampton,803-9140105,803-9140105,Genora W Jenkins,kamille.jenkins@gmail.com,,CRC-1178,http://nfbl.sc.gov/FacilityInformation.php?FacID=595,US,Assisted Living Facility
USA-SC-58-SC-OfficeOnAging-output-474,Jenni-Lynn Assisted Living Community,915 Hook Ave,West Columbia,29169,SC,Lexington,803-926-8600,,,,,CRC-1248,http://nfbl.sc.gov/FacilityInformation.php?FacID=596,US,Assisted Living Facility
USA-SC-58-SC-OfficeOnAging-output-475,Emeritus At Lexington Garden,190 Mcswain Dr,West Columbia,29169,SC,Lexington,803-936-0062,,,,,CRC-1386,http://nfbl.sc.gov/FacilityInformation.php?FacID=597,US,Assisted Living Facility
USA-SC-58-SC-OfficeOnAging-output-476,Kensington II Group Home,120 Kensington Rd,Columbia,29203,SC,Richland,803-252-0848,,Susan Turner,s.turner@chescoservices.org,,CRC-1536,http://nfbl.sc.gov/FacilityInformation.php?FacID=598,US,Assisted Living Facility
USA-SC-58-SC-OfficeOnAging-output-477,Carolina Gardens at West Columbia,2705 Leaphart Rd,West Columbia,29169,SC,Lexington,803-939-3000,,Russell Unthank,cunderhill@agapesenior.com,,CRC-1910,http://nfbl.sc.gov/FacilityInformation.php?FacID=599,US,Assisted Living Facility
USA-SC-58-SC-OfficeOnAging-output-478,Presbyterian Home Of South Carolina-Columbia Home (crcf),700 Davega Dr,Lexington,29073,SC,Lexington,803-796-8700,,,,,CRC-0387,http://nfbl.sc.gov/FacilityInformation.php?FacID=600,US,Assisted Living Facility
USA-SC-58-SC-OfficeOnAging-output-479,Harbison Hall,534 Wil Stel Rd,Columbia,29210,SC,Richland,803-731-2000,803-731-2363,Carol Farr; Shainess Glymph,edeqnewman@gmail.com,,CRC-1107,http://nfbl.sc.gov/FacilityInformation.php?FacID=601,US,Assisted Living Facility
USA-SC-58-SC-OfficeOnAging-output-480,Hampton Street Community Residence,425 Hampton St,Denmark,29042,SC,Bamberg,803-793-5003,,,,,CRC-1296,http://nfbl.sc.gov/FacilityInformation.php?FacID=602,US,Assisted Living Facility
USA-SC-58-SC-OfficeOnAging-output-481,Rumph's Residential Care,574 Progressive Way,Denmark,29042,SC,Bamberg,803-793-0068,,,,,CRC-0791,http://nfbl.sc.gov/FacilityInformation.php?FacID=603,US,Assisted Living Facility
USA-SC-58-SC-OfficeOnAging-output-482,Sterling House Of Harbison,51 Woodcross Dr,Columbia,29212,SC,Richland,803-732-0300,,,,,CRC-1311,http://nfbl.sc.gov/FacilityInformation.php?FacID=605,US,Assisted Living Facility
USA-SC-58-SC-OfficeOnAging-output-483,Harborchase Of Columbia,120 Fairforest Rd,Columbia,29212,SC,Richland,803-781-2243,,,,,CRC-1315,http://nfbl.sc.gov/FacilityInformation.php?FacID=606,US,Assisted Living Facility
USA-SC-58-SC-OfficeOnAging-output-484,Stephanie's Residential Care Facility,4033 Delree St,West Columbia,29170,SC,Lexington,803-356-7542,803-356-7542,Tiffany Peoples/Yvonne Harrison,stephanies.residential@yahoo.com,,CRC-1193,http://nfbl.sc.gov/FacilityInformation.php?FacID=607,US,Assisted Living Facility
USA-SC-58-SC-OfficeOnAging-output-485,Rapha Residential Care,3959 Fish Hatchery Rd,Gaston,29053,SC,Lexington,803-755-6541,,,,,CRC-1283,http://nfbl.sc.gov/FacilityInformation.php?FacID=608,US,Assisted Living Facility
USA-SC-58-SC-OfficeOnAging-output-486,Brook Pine Community Residential Care Facility,3961 Fish Hatchery Rd,Gaston,29053,SC,Lexington,803-955-3821,,Laverne Murhpy,lmd60@scdmh.org,,CRC-1302,http://nfbl.sc.gov/FacilityInformation.php?FacID=609,US,Assisted Living Facility
USA-SC-58-SC-OfficeOnAging-output-487,Carolina Gardens at Harbison,990 Columbia Ave,Irmo,29063,SC,Lexington,803-749-7889,,Dorthea L. Dennis,,,CRC-1932,http://nfbl.sc.gov/FacilityInformation.php?FacID=610,US,Assisted Living Facility
USA-SC-58-SC-OfficeOnAging-output-488,Generations Of Irmo,7142 Woodrow St,Irmo,29063,SC,Lexington,803-227-8991,,,,,CRC-1477,http://nfbl.sc.gov/FacilityInformation.php?FacID=611,US,Assisted Living Facility
USA-SC-58-SC-OfficeOnAging-output-489,Youngblood'S Assisted Living Home,1500 Fork Ave,Irmo,29063,SC,Lexington,803-740-4861,,,,,CRC-1433,http://nfbl.sc.gov/FacilityInformation.php?FacID=612,US,Assisted Living Facility
USA-SC-58-SC-OfficeOnAging-output-490,Carolina Gardens at Lexington,5422 Augusta Rd,Lexington,29072,SC,Lexington,803-520-5850,,Matthew Piepenbring,,,CRC-1907,http://nfbl.sc.gov/FacilityInformation.php?FacID=613,US,Assisted Living Facility
USA-SC-58-SC-OfficeOnAging-output-491,Carolina Gardens at York,40 Ross Cannon St,York,29745,SC,York,803-684-0183,,Elizabeth Whittle,kennap@techbase-sol.com,,CRC-1909,http://nfbl.sc.gov/FacilityInformation.php?FacID=615,US,Assisted Living Facility
USA-SC-58-SC-OfficeOnAging-output-492,Palmetto Village Of Chester,570 Center St,Chester,29706,SC,Chester,803-581-7319,803-581-8588,Susie Watts,susie@pvchester.com,,CRC-1399,http://nfbl.sc.gov/FacilityInformation.php?FacID=616,US,Assisted Living Facility
USA-SC-58-SC-OfficeOnAging-output-493,Oakleaf Village Of Lexington,800 N Lake Dr,Lexington,29072,SC,Lexington,803-808-3477,,,,,CRC-1329,http://nfbl.sc.gov/FacilityInformation.php?FacID=617,US,Assisted Living Facility
USA-SC-58-SC-OfficeOnAging-output-494,Briana's Residential Care Facility,252 Charleston Ave N,Fairfax,29827,SC,Allendale,803-632-9813,803-632-9813,Vermelle Walker,,,CRC-1333,http://nfbl.sc.gov/FacilityInformation.php?FacID=618,US,Assisted Living Facility
USA-SC-58-SC-OfficeOnAging-output-495,Morningside Of Lexington,218 Old Chapin Rd,Lexington,29072,SC,Lexington,803-957-3600,,,,,CRC-1280,http://nfbl.sc.gov/FacilityInformation.php?FacID=621,US,Assisted Living Facility
USA-SC-58-SC-OfficeOnAging-output-496,S & S Assistance Housing,800 Hendrix St,Lexington,29072,SC,Lexington,803-359-4259,,,,,CRC-1526,http://nfbl.sc.gov/FacilityInformation.php?FacID=622,US,Assisted Living Facility
USA-SC-58-SC-OfficeOnAging-output-497,Heritage At Lowman Residential Care,2101 Dutch Fork Rd,Chapin,29036,SC,Richland,803-732-8800,803-732-8750,Yvette Pearson,ypearson@theheritageatlowman.org,www.theheritageatlowman.org,CRC-0840,http://nfbl.sc.gov/FacilityInformation.php?FacID=623,US,Assisted Living Facility
USA-SC-58-SC-OfficeOnAging-output-498,C & S Assisted Living,726 Barton Rd,Allendale,29810,SC,Allendale,803-584-5090,803-584-5277,Patricia Cave,CSAssistedLivingHome@gmail.com,,CRC-1220,http://nfbl.sc.gov/FacilityInformation.php?FacID=624,US,Assisted Living Facility
USA-SC-58-SC-OfficeOnAging-output-499,Perry Eldercare,182 Roberts St E,Salley,29137,SC,Aiken,803-564-5092,,,,,CRC-1183,http://nfbl.sc.gov/FacilityInformation.php?FacID=625,US,Assisted Living Facility
USA-SC-58-SC-OfficeOnAging-output-500,Generations Of Chapin,431 E Boundary St,Chapin,29036,SC,Lexington,803-345-1911,,,,,CRC-1128,http://nfbl.sc.gov/FacilityInformation.php?FacID=626,US,Assisted Living Facility
USA-SC-58-SC-OfficeOnAging-output-501,Black'S Drive Community Residence,160 Blacks Dr,Williston,29853,SC,Aiken,803-259-7472,,,,,CRC-1524,http://nfbl.sc.gov/FacilityInformation.php?FacID=627,US,Assisted Living Facility
USA-SC-58-SC-OfficeOnAging-output-502,Palmetto Gardens,425 S Wheeler Ave,Prosperity,29127,SC,Newberry,803-364-0022,803-364-8250,Tonja L. Boston or Kathy Mengus,tboston@srcqualityoflife.com,www.srcqualityoflife.com,CRC-1916,http://nfbl.sc.gov/FacilityInformation.php?FacID=628,US,Assisted Living Facility
USA-SC-58-SC-OfficeOnAging-output-503,Brookwood Community Residence,181 Brookwood Dr,Batesburg,29006,SC,Lexington,803-532-4440,,,,,CRC-0879,http://nfbl.sc.gov/FacilityInformation.php?FacID=629,US,Assisted Living Facility
USA-SC-58-SC-OfficeOnAging-output-504,Generations Of Batesburg,111 Generations Blvd,Batesburg,29006,SC,Lexington,803-532-8428,,,,,CRC-0647,http://nfbl.sc.gov/FacilityInformation.php?FacID=630,US,Assisted Living Facility
USA-SC-58-SC-OfficeOnAging-output-505,Generations Of Monetta,77 Cato Rd,Monetta,29105,SC,Aiken,803-685-6156,,,,,CRC-0876,http://nfbl.sc.gov/FacilityInformation.php?FacID=631,US,Assisted Living Facility
USA-SC-58-SC-OfficeOnAging-output-506,Springfield Place Residential Care,2006 Springfield Cir,Newberry,29108,SC,Newberry,803-405-1585,803-405-6113,Ty Ransdell,transdell@newberryccrc.com,newberryccrc.com,CRC-1250,http://nfbl.sc.gov/FacilityInformation.php?FacID=632,US,Assisted Living Facility
USA-SC-58-SC-OfficeOnAging-output-507,Whitney Place,107 Cornwell St,Union,29379,SC,Union,864-427-4275,,Tiffany Dawkins/Janice Gore,,,CRC-0572,http://nfbl.sc.gov/FacilityInformation.php?FacID=633,US,Assisted Living Facility
USA-SC-58-SC-OfficeOnAging-output-508,Cherokee County Community Residential Care Facility,1434 N Limestone St,Gaffney,29340,SC,Cherokee,864-487-2717,,Lisa Jenkins or Cynthia Matthews,lisa.j@peachtreectr.com,peachtreectr.com/,CRC-1904,http://nfbl.sc.gov/FacilityInformation.php?FacID=634,US,Assisted Living Facility
USA-SC-58-SC-OfficeOnAging-output-509,Heartland Health Care Center-Union (Residential Care),709 Rice Ave Ext,Union,29379,SC,Union,864-427-0306,,,,,CRC-0576,http://nfbl.sc.gov/FacilityInformation.php?FacID=635,US,Assisted Living Facility
USA-SC-58-SC-OfficeOnAging-output-510,Ivy Grove Residential Care Center,483 Lockhart Ln,Gaffney,29341,SC,Cherokee,864-487-0869,,,,,CRC-1458,http://nfbl.sc.gov/FacilityInformation.php?FacID=636,US,Assisted Living Facility
USA-SC-58-SC-OfficeOnAging-output-511,Parker's Residential Care Home,935 Pineview Dr,New Ellenton,29809,SC,Aiken,803-652-7290,,,,,CRC-0311,http://nfbl.sc.gov/FacilityInformation.php?FacID=637,US,Assisted Living Facility
USA-SC-58-SC-OfficeOnAging-output-512,Magnolias Of Gaffney Assisted Living Community,101 Park Ct,Gaffney,29341,SC,Cherokee,864-206-0006,,,,,CRC-1281,http://nfbl.sc.gov/FacilityInformation.php?FacID=638,US,Assisted Living Facility
USA-SC-58-SC-OfficeOnAging-output-513,We Care Residential,2370 Williston Rd,Aiken,29803,SC,Aiken,803-652-3652,,,,,CRC-1034,http://nfbl.sc.gov/FacilityInformation.php?FacID=639,US,Assisted Living Facility
USA-SC-58-SC-OfficeOnAging-output-514,L & B Care Home,924 Barr Woods Rd,Saluda,29138,SC,Saluda,864-445-2494,,,,,CRC-0530,http://nfbl.sc.gov/FacilityInformation.php?FacID=640,US,Assisted Living Facility
USA-SC-58-SC-OfficeOnAging-output-515,Rudnick CRCF,629 Chesterfield St,Aiken,29801,SC,Aiken,803-642-1041,803-642-1043,Kenneth James,kjames@aikentdc.com,,CRC-1429,http://nfbl.sc.gov/FacilityInformation.php?FacID=641,US,Assisted Living Facility
USA-SC-58-SC-OfficeOnAging-output-516,Sanders CRCF,625 Chesterfield St,Aiken,29801,SC,Aiken,803-642-1044,803-642-1043,Kenneth James,kjames@aikentdc.com,,CRC-1430,http://nfbl.sc.gov/FacilityInformation.php?FacID=642,US,Assisted Living Facility
USA-SC-58-SC-OfficeOnAging-output-517,Long's Residential Care Center,1280 Denny Hwy,Saluda,29138,SC,Saluda,864-445-7901,,,,,CRC-0592,http://nfbl.sc.gov/FacilityInformation.php?FacID=643,US,Assisted Living Facility
USA-SC-58-SC-OfficeOnAging-output-518,Trinity On Laurens,213 Laurens St Nw,Aiken,29801,SC,Aiken,803-643-4203,,,,,CRC-0935,http://nfbl.sc.gov/FacilityInformation.php?FacID=644,US,Assisted Living Facility
USA-SC-58-SC-OfficeOnAging-output-519,Hitchcock House,102 Crepe Myrtle Ct Ofc,Aiken,29803,SC,Aiken,803-649-6439,,,,,CRC-1412,http://nfbl.sc.gov/FacilityInformation.php?FacID=645,US,Assisted Living Facility
USA-SC-58-SC-OfficeOnAging-output-520,Harborchase Of Aiken,1385 Silver Bluff Rd,Aiken,29803,SC,Aiken,803-642-8444,,,,,CRC-1316,http://nfbl.sc.gov/FacilityInformation.php?FacID=646,US,Assisted Living Facility
USA-SC-58-SC-OfficeOnAging-output-521,Shadow Oaks Assisted Living Community,108 Gregg Ave,Aiken,29801,SC,Aiken,803-643-0300,,,,,CRC-1425,http://nfbl.sc.gov/FacilityInformation.php?FacID=647,US,Assisted Living Facility
USA-SC-58-SC-OfficeOnAging-output-522,Hills Of Cumberland Village,3215 Wise Creek Ln,Aiken,29801,SC,Aiken,803-641-8444,,,,,CRC-1121,http://nfbl.sc.gov/FacilityInformation.php?FacID=648,US,Assisted Living Facility
USA-SC-58-SC-OfficeOnAging-output-523,Clarke House,919 Shiloh Rd,Saluda,29138,SC,Saluda,864-445-8816,,John Canady or Savannah Smith,theclarkehouse1988@gmail.com,,CRC-0485,http://nfbl.sc.gov/FacilityInformation.php?FacID=649,US,Assisted Living Facility
USA-SC-58-SC-OfficeOnAging-output-524,Village Inn Community Care Home,112 Powell St,Graniteville,29829,SC,Aiken,803-663-9495,803-663-9495,Michele Herron,villageinncch@bellsouth.net,,CRC-0396,http://nfbl.sc.gov/FacilityInformation.php?FacID=650,US,Assisted Living Facility
USA-SC-58-SC-OfficeOnAging-output-525,Park Place,2720 Country Club Rd,Spartanburg,29302,SC,Spartanburg,864-591-1116,,,,,CRC-1351,http://nfbl.sc.gov/FacilityInformation.php?FacID=651,US,Assisted Living Facility
USA-SC-58-SC-OfficeOnAging-output-526,Maranatha Manor Of Spartanburg,2902 E Main St,Spartanburg,29307,SC,Spartanburg,864-579-0086,864-579-0466,KIM Mahaffey,k.mahaffey@upstatemail.nett,,CRC-1235,http://nfbl.sc.gov/FacilityInformation.php?FacID=652,US,Assisted Living Facility
USA-SC-58-SC-OfficeOnAging-output-527,Rosewood Assisted Living,5221 Hwy 215,Pauline,29374,SC,Spartanburg,864-573-4060,8645731050,kimberly clobes,wijg38@gmail.com,,CRC-1367,http://nfbl.sc.gov/FacilityInformation.php?FacID=653,US,Assisted Living Facility
USA-SC-58-SC-OfficeOnAging-output-528,Langston House,939 Springdale Dr,Clinton,29325,SC,Laurens,864-833-0338,,,,,CRC-1408,http://nfbl.sc.gov/FacilityInformation.php?FacID=654,US,Assisted Living Facility
USA-SC-58-SC-OfficeOnAging-output-529,Eden Terrace Of Spartanburg,2780 E Main St,Spartanburg,29307,SC,Spartanburg,864-579-7387,,,,,CRC-1213,http://nfbl.sc.gov/FacilityInformation.php?FacID=655,US,Assisted Living Facility
USA-SC-58-SC-OfficeOnAging-output-530,White Oak Estates Assisted Living,400 Webber Rd,Spartanburg,29307,SC,Spartanburg,864-579-7004,,,,,CRC-1334,http://nfbl.sc.gov/FacilityInformation.php?FacID=656,US,Assisted Living Facility
USA-SC-58-SC-OfficeOnAging-output-531,Davidson Street Community Residence,313 Davidson St,Clinton,29325,SC,Laurens,864-833-7284,,Julie Steele,jsteele@lcdsnb.otg,,CRC-1420,http://nfbl.sc.gov/FacilityInformation.php?FacID=657,US,Assisted Living Facility
USA-SC-58-SC-OfficeOnAging-output-532,Bailey Manor,300 Jacobs Hwy,Clinton,29325,SC,Laurens,864-833-3425,,,,,CRC-0732,http://nfbl.sc.gov/FacilityInformation.php?FacID=658,US,Assisted Living Facility
USA-SC-58-SC-OfficeOnAging-output-533,Summit Hills Assisted Living Community,100 Summit Hills Dr,Spartanburg,29307,SC,Spartanburg,864-591-2222,,,,,CRC-1113,http://nfbl.sc.gov/FacilityInformation.php?FacID=659,US,Assisted Living Facility
USA-SC-58-SC-OfficeOnAging-output-534,Emeritus At Skylyn Place,1705 Skylyn Dr Ofc,Spartanburg,29307,SC,Spartanburg,864-582-6838,,ANDREA HUNTER,skylynplace_ed@emeritus.com,,CRC-0856,http://nfbl.sc.gov/FacilityInformation.php?FacID=660,US,Assisted Living Facility
USA-SC-58-SC-OfficeOnAging-output-535,Dillon Pointe Assisted Living & Memory Care,104 Dillon Dr,Spartanburg,29307,SC,Spartanburg,864-948-9300,,,,,CRC-0893,http://nfbl.sc.gov/FacilityInformation.php?FacID=661,US,Assisted Living Facility
USA-SC-58-SC-OfficeOnAging-output-536,Miller's Place,140 Cox St,Spartanburg,29306,SC,Spartanburg,864-573-7008,864-583-7142,Mildred Miller,jackiemiller231@yahoo.com,,CRC-0897,http://nfbl.sc.gov/FacilityInformation.php?FacID=662,US,Assisted Living Facility
USA-SC-58-SC-OfficeOnAging-output-537,God's Haven Of Rest,516 Belvedere Clearwater Rd,North Augusta,29841,SC,Aiken,803-279-1129,,,,,CRC-1237,http://nfbl.sc.gov/FacilityInformation.php?FacID=663,US,Assisted Living Facility
USA-SC-58-SC-OfficeOnAging-output-538,Benchmark Homes - Spartanburg,450 W Henry St,Spartanburg,29306,SC,Spartanburg,864-585-0322,,,,,CRC-1509,http://nfbl.sc.gov/FacilityInformation.php?FacID=664,US,Assisted Living Facility
USA-SC-58-SC-OfficeOnAging-output-539,Hammond House,128 Walnut Ln,North Augusta,29860,SC,Aiken,803-441-8441,,,,,CRC-1405,http://nfbl.sc.gov/FacilityInformation.php?FacID=665,US,Assisted Living Facility
USA-SC-58-SC-OfficeOnAging-output-540,Laurens Memorial Home For Aged,3744 Torrington Rd,Laurens,29360,SC,Laurens,864-682-2322,,,,,CRC-0316,http://nfbl.sc.gov/FacilityInformation.php?FacID=666,US,Assisted Living Facility
USA-SC-58-SC-OfficeOnAging-output-541,Windsor House West,850 John B White Sr Blvd,Spartanburg,29306,SC,Spartanburg,864-576-8910,,,,,CRC-1369,http://nfbl.sc.gov/FacilityInformation.php?FacID=667,US,Assisted Living Facility
USA-SC-58-SC-OfficeOnAging-output-542,Sterling House Of North Augusta,105 N Hills Dr Ofc,North Augusta,29841,SC,Aiken,803-819-0034,,,,,CRC-1298,http://nfbl.sc.gov/FacilityInformation.php?FacID=668,US,Assisted Living Facility
USA-SC-58-SC-OfficeOnAging-output-543,Wesley Court Assisted Living Community,916 Wesley Ct,Boiling Springs,29316,SC,Spartanburg,864-599-9929,,Heather Turnage,wesleycourt@tutera.com,,CRC-1289,http://nfbl.sc.gov/FacilityInformation.php?FacID=669,US,Assisted Living Facility
USA-SC-58-SC-OfficeOnAging-output-544,Cantrell's Residential Care Facility,124 Gladys Ct,Spartanburg,29301,SC,Spartanburg,864-587-1993,,,,,CRC-1105,http://nfbl.sc.gov/FacilityInformation.php?FacID=670,US,Assisted Living Facility
USA-SC-58-SC-OfficeOnAging-output-545,Mill Street Community Residence,415 Mill St,Laurens,29360,SC,Laurens,864-984-3506,,Julie Steele,jsteele@lcdsnb.otg,,CRC-1419,http://nfbl.sc.gov/FacilityInformation.php?FacID=671,US,Assisted Living Facility
USA-SC-58-SC-OfficeOnAging-output-546,Laforrest Community Care Center,2841 Bypass 127,Laurens,29360,SC,Laurens,864-984-8001,,,,,CRC-0681,http://nfbl.sc.gov/FacilityInformation.php?FacID=672,US,Assisted Living Facility
USA-SC-58-SC-OfficeOnAging-output-547,Montrose Manor,80 Medical Center Dr,Woodruff,29388,SC,Spartanburg,864-476-9100,,Kelly Koester,montrosemanoralf@gmail.com,,CRC-1417,http://nfbl.sc.gov/FacilityInformation.php?FacID=673,US,Assisted Living Facility
USA-SC-58-SC-OfficeOnAging-output-548,Carolina Gardens at Laurens,420 W Farley Ave,Laurens,29360,SC,Laurens,864-984-9844,,Lynn Mims,bburns@agapesenior.com,,CRC-1908,http://nfbl.sc.gov/FacilityInformation.php?FacID=674,US,Assisted Living Facility
USA-SC-58-SC-OfficeOnAging-output-549,Rosecrest Community Residential Care,200 Fortress Dr,Inman,29349,SC,Spartanburg,864-599-8600,,,,,CRC-1208,http://nfbl.sc.gov/FacilityInformation.php?FacID=675,US,Assisted Living Facility
USA-SC-58-SC-OfficeOnAging-output-550,Midway Residential Care Facility #3,4026 Moore Duncan Hwy,Moore,29369,SC,Spartanburg,864-433-8777,,,,,CRC-0346,http://nfbl.sc.gov/FacilityInformation.php?FacID=676,US,Assisted Living Facility
USA-SC-58-SC-OfficeOnAging-output-551,Midway Residential Care Facility #5,4026 Moore Duncan Hwy,Moore,29369,SC,Spartanburg,864-433-8777,,,,,CRC-0616,http://nfbl.sc.gov/FacilityInformation.php?FacID=677,US,Assisted Living Facility
USA-SC-58-SC-OfficeOnAging-output-552,Midway Residential Care Facility #4,4026 Moore Duncan Hwy,Moore,29369,SC,Spartanburg,864-433-8777,,,,,CRC-0322,http://nfbl.sc.gov/FacilityInformation.php?FacID=678,US,Assisted Living Facility
USA-SC-58-SC-OfficeOnAging-output-553,Midway Residential Care Facility #1,4026 Moore Duncan Hwy,Moore,29369,SC,Spartanburg,864-433-8777,,,,,CRC-0318,http://nfbl.sc.gov/FacilityInformation.php?FacID=679,US,Assisted Living Facility
USA-SC-58-SC-OfficeOnAging-output-554,Midway Residential Care Facility #1A,4026 Moore Duncan Hwy,Moore,29369,SC,Spartanburg,864-433-8777,,,,,CRC-0320,http://nfbl.sc.gov/FacilityInformation.php?FacID=680,US,Assisted Living Facility
USA-SC-58-SC-OfficeOnAging-output-555,Midway Residential Care Facility #2,4026 Moore Duncan Hwy,Moore,29369,SC,Spartanburg,864-433-8777,,,,,CRC-0321,http://nfbl.sc.gov/FacilityInformation.php?FacID=681,US,Assisted Living Facility
USA-SC-58-SC-OfficeOnAging-output-556,Oakridge Community Care Home #2,35 S Howard St,Inman,29349,SC,Spartanburg,864.708.3299,864.472.1736,Darryl Mast,oakridgeone@gmail.com,,CRC-0429,http://nfbl.sc.gov/FacilityInformation.php?FacID=682,US,Assisted Living Facility
USA-SC-58-SC-OfficeOnAging-output-557,Oakridge Community Care Home #1,2470 Old Mill Rd,Inman,29349,SC,Spartanburg,864-472-6979,864.472.1736,Vickie Mast,oakridgeone@gmail.com,,CRC-0241,http://nfbl.sc.gov/FacilityInformation.php?FacID=683,US,Assisted Living Facility
USA-SC-58-SC-OfficeOnAging-output-558,Reid House,117 Dodd St,Wellford,29385,SC,Spartanburg,864-949-5120,,,,,CRC-1463,http://nfbl.sc.gov/FacilityInformation.php?FacID=684,US,Assisted Living Facility
USA-SC-58-SC-OfficeOnAging-output-559,Reid's Residential Care Facility,726 Old Spartanburg Hwy,Wellford,29385,SC,Spartanburg,864-439-9238,,,,,CRC-0771,http://nfbl.sc.gov/FacilityInformation.php?FacID=685,US,Assisted Living Facility
USA-SC-58-SC-OfficeOnAging-output-560,Wright's Residential Care #1,950 Old Spartanburg Hwy,Wellford,29385,SC,Spartanburg,864-249-0412,,Dianne Wright,wrightsreid@yahoo.com,,CRC-0617,http://nfbl.sc.gov/FacilityInformation.php?FacID=686,US,Assisted Living Facility
USA-SC-58-SC-OfficeOnAging-output-561,Forest View Manor Retirement Center,141 Callison Hwy,Mccormick,29835,SC,Edgefield,864-443-5857,,,,,CRC-0500,http://nfbl.sc.gov/FacilityInformation.php?FacID=687,US,Assisted Living Facility
USA-SC-58-SC-OfficeOnAging-output-562,Wesley Commons Assisted Living Facility & Special Care House,1110 Marshall Rd,Greenwood,29646,SC,Greenwood,864-227-7480,,,,,CRC-1218,http://nfbl.sc.gov/FacilityInformation.php?FacID=688,US,Assisted Living Facility
USA-SC-58-SC-OfficeOnAging-output-563,Wright's Residential Care #2 A & B,12 River St,Lyman,29365,SC,Spartanburg,864-249-0412,,Dianne Wright,wrightsreid@yahoo.com,,CRC-1319,http://nfbl.sc.gov/FacilityInformation.php?FacID=689,US,Assisted Living Facility
USA-SC-58-SC-OfficeOnAging-output-564,Ashlan Village,415 Brenda Way,Lyman,29365,SC,Spartanburg,864-949-7825,,Robert Aho,baho@ashlanvillage.com,,CRC-1483,http://nfbl.sc.gov/FacilityInformation.php?FacID=690,US,Assisted Living Facility
USA-SC-58-SC-OfficeOnAging-output-565,Emerald Gardens Of Greenwood,201 Overland Dr,Greenwood,29646,SC,Greenwood,864-953-2174,,,,,CRC-1378,http://nfbl.sc.gov/FacilityInformation.php?FacID=692,US,Assisted Living Facility
USA-SC-58-SC-OfficeOnAging-output-566,Sterling House Of Greenwood,1408 Pkwy Rd,Greenwood,29646,SC,Greenwood,864-223-2281,,,,,CRC-1309,http://nfbl.sc.gov/FacilityInformation.php?FacID=693,US,Assisted Living Facility
USA-SC-58-SC-OfficeOnAging-output-567,Ashley House,526 Haltiwanger Rd,Greenwood,29649,SC,Greenwood,864-943-1933,,,,,CRC-1404,http://nfbl.sc.gov/FacilityInformation.php?FacID=694,US,Assisted Living Facility
USA-SC-58-SC-OfficeOnAging-output-568,Morningside Of Greenwood,116 Enterprise Ct,Greenwood,29649,SC,Greenwood,864-388-9433,,,,,CRC-1088,http://nfbl.sc.gov/FacilityInformation.php?FacID=695,US,Assisted Living Facility
USA-SC-58-SC-OfficeOnAging-output-569,Landrum Community Residence II,722 Bomar Ave,Landrum,29356,SC,Spartanburg,864-585-0322,,,,,CRC-1508,http://nfbl.sc.gov/FacilityInformation.php?FacID=696,US,Assisted Living Facility
USA-SC-58-SC-OfficeOnAging-output-570,Landrum Community Residence I,722 Bomar Ave,Landrum,29356,SC,Spartanburg,864-585-0322,,,,,CRC-1507,http://nfbl.sc.gov/FacilityInformation.php?FacID=697,US,Assisted Living Facility
USA-SC-58-SC-OfficeOnAging-output-571,Bayberry Of Greenwood,116 Abbey Dr,Greenwood,29649,SC,Greenwood,864-223-6510,,,,,CRC-0589,http://nfbl.sc.gov/FacilityInformation.php?FacID=698,US,Assisted Living Facility
USA-SC-58-SC-OfficeOnAging-output-572,Bayberry Of Greer,309 Northview Dr,Greer,29651,SC,Greenville,864-848-1935,,,,,CRC-0595,http://nfbl.sc.gov/FacilityInformation.php?FacID=699,US,Assisted Living Facility
USA-SC-58-SC-OfficeOnAging-output-573,Ridgeview Community Care Homes Unit C,217 Chandler Rd,Greer,29651,SC,Greenville,864-877-8599,,,,,CRC-0561,http://nfbl.sc.gov/FacilityInformation.php?FacID=700,US,Assisted Living Facility
USA-SC-58-SC-OfficeOnAging-output-574,Ridgeview Community Care Homes Unit D,217 Chandler Rd,Greer,29651,SC,Greenville,864-877-8599,,,,,CRC-0562,http://nfbl.sc.gov/FacilityInformation.php?FacID=701,US,Assisted Living Facility
USA-SC-58-SC-OfficeOnAging-output-575,Ridgeview Community Care Homes Unit B,217 Chandler Rd,Greer,29651,SC,Greenville,864-877-8599,,,,,CRC-0560,http://nfbl.sc.gov/FacilityInformation.php?FacID=702,US,Assisted Living Facility
USA-SC-58-SC-OfficeOnAging-output-576,Ridgeview Community Care Homes Unit A,217 Chandler Rd,Greer,29651,SC,Greenville,864-877-8559,,,,,CRC-0559,http://nfbl.sc.gov/FacilityInformation.php?FacID=703,US,Assisted Living Facility
USA-SC-58-SC-OfficeOnAging-output-577,Manning House,10 Companion Ct,Greer,29651,SC,Greenville,864-989-0707,,,,,CRC-1407,http://nfbl.sc.gov/FacilityInformation.php?FacID=704,US,Assisted Living Facility
USA-SC-58-SC-OfficeOnAging-output-578,Greer Community Residence,112 S Beverly Ln,Greer,29651,SC,Greenville,864-879-8570,,Peggy White,pwhite@gcdsnb.org,,CRC-0237,http://nfbl.sc.gov/FacilityInformation.php?FacID=705,US,Assisted Living Facility
USA-SC-58-SC-OfficeOnAging-output-579,Ware Shoals Manor,10 N Greenwood Ave,Ware Shoals,29692,SC,Greenwood,864-456-7127,,,,,CRC-1457,http://nfbl.sc.gov/FacilityInformation.php?FacID=706,US,Assisted Living Facility
USA-SC-58-SC-OfficeOnAging-output-580,Springs At Simpsonville,214 E Curtis St,Simpsonville,29681,SC,Greenville,864-962-8570,,,,,CRC-1198,http://nfbl.sc.gov/FacilityInformation.php?FacID=707,US,Assisted Living Facility
USA-SC-58-SC-OfficeOnAging-output-581,Oakleaf Village At Thornblade,1560 Thornblade Blvd,Greer,29650,SC,Greenville,864-968-1277,,,,,CRC-1330,http://nfbl.sc.gov/FacilityInformation.php?FacID=708,US,Assisted Living Facility
USA-SC-58-SC-OfficeOnAging-output-582,Emeritus At Bellaire Place,23 Southpointe Dr,Greenville,29607,SC,Greenville,864-675-0220,,Scott Morrison,Bellaireplace@emeritus.com,,CRC-1335,http://nfbl.sc.gov/FacilityInformation.php?FacID=709,US,Assisted Living Facility
USA-SC-58-SC-OfficeOnAging-output-583,Rolling Green Village Assisted Living Facility,1 Hoke Smith Blvd Ofc,Greenville,29615,SC,Greenville,864-987-9800,,,,,CRC-0573,http://nfbl.sc.gov/FacilityInformation.php?FacID=710,US,Assisted Living Facility
USA-SC-58-SC-OfficeOnAging-output-584,Greenville Glen,1101 Garlington Rd,Greenville,29615,SC,Greenville,864-627-8700,,,,,CRC-0887,http://nfbl.sc.gov/FacilityInformation.php?FacID=711,US,Assisted Living Facility
USA-SC-58-SC-OfficeOnAging-output-585,Palmettos Of Mauldin,810 E Butler Rd,Greenville,29607,SC,Greenville,864-627-0803,,,,,CRC-1503,http://nfbl.sc.gov/FacilityInformation.php?FacID=712,US,Assisted Living Facility
USA-SC-58-SC-OfficeOnAging-output-586,Greenville Place,2006 Pelham Rd,Greenville,29615,SC,Greenville,864-288-3331,,,,,CRC-1402,http://nfbl.sc.gov/FacilityInformation.php?FacID=713,US,Assisted Living Facility
USA-SC-58-SC-OfficeOnAging-output-587,Windsor House Greenville,1931 Pelham Rd,Greenville,29615,SC,Greenville,864-288-9450,,,,,CRC-1388,http://nfbl.sc.gov/FacilityInformation.php?FacID=714,US,Assisted Living Facility
USA-SC-58-SC-OfficeOnAging-output-588,Sterling House Of Greenville,2010 Brushy Creek Rd,Greer,29650,SC,Greenville,864-244-9994,,,,,CRC-1306,http://nfbl.sc.gov/FacilityInformation.php?FacID=715,US,Assisted Living Facility
USA-SC-58-SC-OfficeOnAging-output-589,McKinney House,307 Miller Rd,Mauldin,29662,SC,Greenville,864-297-5044,,,,,CRC-0778,http://nfbl.sc.gov/FacilityInformation.php?FacID=716,US,Assisted Living Facility
USA-SC-58-SC-OfficeOnAging-output-590,Emeritus At Greenville Assisted Living,1306 Pelham Rd Ofc,Greenville,29615,SC,Greenville,864-286-6600,,,,,CRC-1140,http://nfbl.sc.gov/FacilityInformation.php?FacID=717,US,Assisted Living Facility
USA-SC-58-SC-OfficeOnAging-output-591,Carriage House Of Taylors,402 W Main St,Taylors,29687,SC,Greenville,864-292-2416,864-292-3193,Carolyn Finley,chtaylors@yahoo.com,,CRC-0978,http://nfbl.sc.gov/FacilityInformation.php?FacID=718,US,Assisted Living Facility
USA-SC-58-SC-OfficeOnAging-output-592,Cascades Verdae Assisted Living,30 Springcrest Ct,Greenville,29607,SC,Greenville,864-528-5501,,,,,CRC-1490,http://nfbl.sc.gov/FacilityInformation.php?FacID=719,US,Assisted Living Facility
USA-SC-58-SC-OfficeOnAging-output-593,Southern Oaks Personal Care Home,120 Roper Mountain Rd Ext,Greenville,29615,SC,Greenville,864-288-3271,,,,,CRC-1931,http://nfbl.sc.gov/FacilityInformation.php?FacID=720,US,Assisted Living Facility
USA-SC-58-SC-OfficeOnAging-output-594,Gardens At Eastside,275 Commonwealth Dr,Greenville,29615,SC,Greenville,864-329-1200,,,,,CRC-1222,http://nfbl.sc.gov/FacilityInformation.php?FacID=721,US,Assisted Living Facility
USA-SC-58-SC-OfficeOnAging-output-595,Quiet Acres Retirement Home,2968 Old Douglas Mill Rd,Hodges,29653,SC,Abbeville,864-446-2264,,Minnie Johnson,quietacresresthome@yahoo.com,,CRC-0588,http://nfbl.sc.gov/FacilityInformation.php?FacID=722,US,Assisted Living Facility
USA-SC-58-SC-OfficeOnAging-output-596,Emeritus At Hawthorne Inn At Greenville,20 Hawthorne Park Ct,Greenville,29615,SC,Greenville,864-288-6775,,,,,CRC-1396,http://nfbl.sc.gov/FacilityInformation.php?FacID=723,US,Assisted Living Facility
USA-SC-58-SC-OfficeOnAging-output-597,Gregory's Community Care #8 - Metz House,18 Ferguson Rd,Piedmont,29673,SC,Greenville,864-299-0716,864-299-5347,Tomeca Ware,tomeca.ware@scdmh.org,,CRC-0557,http://nfbl.sc.gov/FacilityInformation.php?FacID=724,US,Assisted Living Facility
USA-SC-58-SC-OfficeOnAging-output-598,Gregory's Community Care #5 - Malone House,2413 Fork Shoals Rd,Piedmont,29673,SC,Greenville,864-299-0716,864-299-5347,Tomeca Ware,tomeca.ware@scdmh.org,,CRC-0558,http://nfbl.sc.gov/FacilityInformation.php?FacID=725,US,Assisted Living Facility
USA-SC-58-SC-OfficeOnAging-output-599,Gregory's Community Care #6 - Howell House,2409 Fork Shoals Rd,Piedmont,29673,SC,Greenville,864-299-0716,864-299-5347,Tomeca Ware,tomeca.ware@scdmh.org,,CRC-0556,http://nfbl.sc.gov/FacilityInformation.php?FacID=726,US,Assisted Living Facility
USA-SC-58-SC-OfficeOnAging-output-600,Gregory's Community Care #7 - Craven House,10 Ferguson Rd,Piedmont,29673,SC,Greenville,864-299-0716,864-299-5347,Tomeca Ware,tomeca.ware@scdmh.org,,CRC-0555,http://nfbl.sc.gov/FacilityInformation.php?FacID=727,US,Assisted Living Facility
USA-SC-58-SC-OfficeOnAging-output-601,Greenville Community Residence,158 Cavalier Dr,Greenville,29607,SC,Greenville,864-277-9656,,Peggy White,pwhite@gcdsnb.org,,CRC-0073,http://nfbl.sc.gov/FacilityInformation.php?FacID=728,US,Assisted Living Facility
USA-SC-58-SC-OfficeOnAging-output-602,Shepherd'S Care Center,2100 N Pleasantburg Dr,Greenville,29609,SC,Greenville,864-322-6212,,,,,CRC-1326,http://nfbl.sc.gov/FacilityInformation.php?FacID=729,US,Assisted Living Facility
USA-SC-58-SC-OfficeOnAging-output-603,Pendleton Manor,414 Summit Dr,Greenville,29609,SC,Greenville,864-271-7562,,,,,CRC-1455,http://nfbl.sc.gov/FacilityInformation.php?FacID=730,US,Assisted Living Facility
USA-SC-58-SC-OfficeOnAging-output-604,Homewood Residence At Cleveland Park,12 Boyce Ave,Greenville,29601,SC,Greenville,864-250-1188,,,,,CRC-1398,http://nfbl.sc.gov/FacilityInformation.php?FacID=731,US,Assisted Living Facility
USA-SC-58-SC-OfficeOnAging-output-605,Renaissance,16 Dr Frank Pressly Dr,Due West,29639,SC,Abbeville,864-379-2554,,,,,CRC-1207,http://nfbl.sc.gov/FacilityInformation.php?FacID=732,US,Assisted Living Facility
USA-SC-58-SC-OfficeOnAging-output-606,Joy'S Residential Care Facility,294 Hwy 28 Byp,Abbeville,29620,SC,Abbeville,864-302-9202,,,,,CRC-1098,http://nfbl.sc.gov/FacilityInformation.php?FacID=733,US,Assisted Living Facility
USA-SC-58-SC-OfficeOnAging-output-607,Sherman Residential Care,20 Mayfield St,Greenville,29601,SC,Greenville,864-242-0401,,,,,CRC-1070,http://nfbl.sc.gov/FacilityInformation.php?FacID=734,US,Assisted Living Facility
USA-SC-58-SC-OfficeOnAging-output-608,Maples Of Honea Path,224 Wildwood Dr,Honea Path,29654,SC,Anderson,864-369-2000,,,,,CRC-0819,http://nfbl.sc.gov/FacilityInformation.php?FacID=735,US,Assisted Living Facility
USA-SC-58-SC-OfficeOnAging-output-609,Haven In The Village At Chanticleer,355 Berkmans Ln,Greenville,29605,SC,Greenville,864-467-0031,,,,,CRC-1244,http://nfbl.sc.gov/FacilityInformation.php?FacID=736,US,Assisted Living Facility
USA-SC-58-SC-OfficeOnAging-output-610,Rocky River Baptist Association Residential Care Home,250 Union High Dr,Belton,29627,SC,Anderson,864-338-1410,864-338-1447,"Jordana Touchton, Administrator",RockyRiverRCF@yahoo.com,www.rockyriverassociation.org,CRC-1270,http://nfbl.sc.gov/FacilityInformation.php?FacID=737,US,Assisted Living Facility
USA-SC-58-SC-OfficeOnAging-output-611,Presbyterian Home Of South Carolina-Foothills (crcf),205 Bud Nalley Dr,Easley,29642,SC,Pickens,864-859-3367,,,,,CRC-1030,http://nfbl.sc.gov/FacilityInformation.php?FacID=738,US,Assisted Living Facility
USA-SC-58-SC-OfficeOnAging-output-612,Magnolias Of Easley,123 Couch Ln,Easley,29642,SC,Pickens,864-859-3303,,,,,CRC-1274,http://nfbl.sc.gov/FacilityInformation.php?FacID=739,US,Assisted Living Facility
USA-SC-58-SC-OfficeOnAging-output-613,Easley Retirement Center,102 Dowling St,Easley,29640,SC,Pickens,864-859-3722,,,,,CRC-0359,http://nfbl.sc.gov/FacilityInformation.php?FacID=740,US,Assisted Living Facility
USA-SC-58-SC-OfficeOnAging-output-614,Harmony House Residential Care,704 Anderson St,Calhoun Falls,29628,SC,Abbeville,864-418-9277,864-418-8104,Michele Herron,harmonyhousercf@att.net,,CRC-1511,http://nfbl.sc.gov/FacilityInformation.php?FacID=741,US,Assisted Living Facility
USA-SC-58-SC-OfficeOnAging-output-615,Emeritus At Countryside Village,706 Pelzer Hwy,Easley,29642,SC,Pickens,864-859-0167,864-859-2312,Kayla Harris,treva.chappell@brookdale.com,,CRC-0857,http://nfbl.sc.gov/FacilityInformation.php?FacID=742,US,Assisted Living Facility
USA-SC-58-SC-OfficeOnAging-output-616,Emeritus at Countryside Park,125 Zion School Rd,Easley,29642,SC,Pickens,864-859-0168,864-859-2312,Kayla Harris,treva.chappell@brookdale.com,,CRC-0858,http://nfbl.sc.gov/FacilityInformation.php?FacID=743,US,Assisted Living Facility
USA-SC-58-SC-OfficeOnAging-output-617,Willows Of Easley,105 Willow Pl,Easley,29640,SC,Pickens,864-855-9800,,,,,CRC-0944,http://nfbl.sc.gov/FacilityInformation.php?FacID=744,US,Assisted Living Facility
USA-SC-58-SC-OfficeOnAging-output-618,West End Retirement Center,200 South 5th St,Easley,29640,SC,Pickens,864-859-4370,864-859-9200,Amber Owens,amber.westend@outlook.com,,CRC-0204,http://nfbl.sc.gov/FacilityInformation.php?FacID=746,US,Assisted Living Facility
USA-SC-58-SC-OfficeOnAging-output-619,North Pointe Assisted Living,701 Simpson Rd,Anderson,29621,SC,Anderson,864-226-5505,,,,,CRC-1454,http://nfbl.sc.gov/FacilityInformation.php?FacID=747,US,Assisted Living Facility
USA-SC-58-SC-OfficeOnAging-output-620,Marchbanks Assisted Living And Memory Care,2203 Marchbanks Ave,Anderson,29621,SC,Anderson,864-231-7786,,,,,CRC-1413,http://nfbl.sc.gov/FacilityInformation.php?FacID=748,US,Assisted Living Facility
USA-SC-58-SC-OfficeOnAging-output-621,Morningside Of Anderson,1304 Mclees Rd,Anderson,29621,SC,Anderson,864-964-9088,,,,,CRC-1093,http://nfbl.sc.gov/FacilityInformation.php?FacID=749,US,Assisted Living Facility
USA-SC-58-SC-OfficeOnAging-output-622,Summit Place Of Anderson,107 Perpetual Sq,Anderson,29621,SC,Anderson,864-222-9880,,,,,CRC-1151,http://nfbl.sc.gov/FacilityInformation.php?FacID=750,US,Assisted Living Facility
USA-SC-58-SC-OfficeOnAging-output-623,Garden House,201 Edgebrook Dr,Anderson,29621,SC,Anderson,864-964-5668,,,,,CRC-1437,http://nfbl.sc.gov/FacilityInformation.php?FacID=751,US,Assisted Living Facility
USA-SC-58-SC-OfficeOnAging-output-624,Faith Hope And Charity Retirement,101 Coe St,Anderson,29624,SC,Anderson,864-226-0990,,,,,CRC-0760,http://nfbl.sc.gov/FacilityInformation.php?FacID=752,US,Assisted Living Facility
USA-SC-58-SC-OfficeOnAging-output-625,Resting Place #1,207 E Shockley Ferry Rd,Anderson,29624,SC,Anderson,864-226-0990,864-226-0990,,Therestingplace35@gmail.com,,CRC-0499,http://nfbl.sc.gov/FacilityInformation.php?FacID=753,US,Assisted Living Facility
USA-SC-58-SC-OfficeOnAging-output-626,Alexander's Residential Care Home,1302 S McDuffie St,Anderson,29624,SC,Anderson,863-225-6901,,"Horace Alexander, Jr.",horacealexander@mylasounds.com,,CRC-0233,http://nfbl.sc.gov/FacilityInformation.php?FacID=754,US,Assisted Living Facility
USA-SC-58-SC-OfficeOnAging-output-627,Village Community Care Home-Unit A,1250 Salem Church Rd,Anderson,29625,SC,Anderson,864-225-4336,,,,,CRC-0563,http://nfbl.sc.gov/FacilityInformation.php?FacID=755,US,Assisted Living Facility
USA-SC-58-SC-OfficeOnAging-output-628,Village Community Care Home-Unit B,1250 Salem Church Rd,Anderson,29625,SC,Anderson,864-225-4336,,,,,CRC-0564,http://nfbl.sc.gov/FacilityInformation.php?FacID=756,US,Assisted Living Facility
USA-SC-58-SC-OfficeOnAging-output-629,Village Community Care Home-Unit C,1250 Salem Church Rd,Anderson,29625,SC,Anderson,864-225-4336,,,,,CRC-0565,http://nfbl.sc.gov/FacilityInformation.php?FacID=757,US,Assisted Living Facility
USA-SC-58-SC-OfficeOnAging-output-630,Village Community Care Home-Unit D,1250 Salem Church Rd,Anderson,29625,SC,Anderson,864-225-4336,,,,,CRC-0566,http://nfbl.sc.gov/FacilityInformation.php?FacID=758,US,Assisted Living Facility
USA-SC-58-SC-OfficeOnAging-output-631,Master Care,5870 Moorefield Memorial Hwy,Liberty,29657,SC,Pickens,864-878-9926,,,,,CRC-0358,http://nfbl.sc.gov/FacilityInformation.php?FacID=759,US,Assisted Living Facility
USA-SC-58-SC-OfficeOnAging-output-632,Sterling House Of Central,131 Vickery Dr,Central,29630,SC,Pickens,864-653-4674,,,,,CRC-1307,http://nfbl.sc.gov/FacilityInformation.php?FacID=760,US,Assisted Living Facility
USA-SC-58-SC-OfficeOnAging-output-633,Clemson Downs Assisted Living,500 Downs Loop,Clemson,29631,SC,Pickens,864-654-1155,,,,,CRC-1154,http://nfbl.sc.gov/FacilityInformation.php?FacID=761,US,Assisted Living Facility
USA-SC-58-SC-OfficeOnAging-output-634,Six Mile Retirement Center,120 S Main St,Six Mile,29682,SC,Pickens,864-868-9050,,,,,CRC-0542,http://nfbl.sc.gov/FacilityInformation.php?FacID=762,US,Assisted Living Facility
USA-SC-58-SC-OfficeOnAging-output-635,Inn At Seneca,475 Rochester Hwy,Seneca,29672,SC,Oconee,864-886-0070,,,,,CRC-1460,http://nfbl.sc.gov/FacilityInformation.php?FacID=763,US,Assisted Living Facility
USA-SC-58-SC-OfficeOnAging-output-636,For A Season Assisted Living,927 E North 1St St,Seneca,29678,SC,Oconee,864-886-0083,,,,,CRC-1230,http://nfbl.sc.gov/FacilityInformation.php?FacID=764,US,Assisted Living Facility
USA-SC-58-SC-OfficeOnAging-output-637,Seneca Residential Care Center,126 Tokeena Rd,Seneca,29678,SC,Oconee,864-882-7390,,,,,CRC-0337,http://nfbl.sc.gov/FacilityInformation.php?FacID=765,US,Assisted Living Facility
USA-SC-58-SC-OfficeOnAging-output-638,Residences At Park Place,115 Gillespie Rd,Seneca,29678,SC,Oconee,864-882-0783,,,,,CRC-1493,http://nfbl.sc.gov/FacilityInformation.php?FacID=766,US,Assisted Living Facility
USA-SC-58-SC-OfficeOnAging-output-639,Morningside Of Seneca,15855 Wells Hwy,Seneca,29678,SC,Oconee,864-888-8886,,,,,CRC-1157,http://nfbl.sc.gov/FacilityInformation.php?FacID=767,US,Assisted Living Facility
USA-SC-58-SC-OfficeOnAging-output-640,Belvedere Commons Of Seneca,515 Benton St,Seneca,29672,SC,Oconee,864-888-4114,,,,,CRC-1466,http://nfbl.sc.gov/FacilityInformation.php?FacID=768,US,Assisted Living Facility
USA-SC-58-SC-OfficeOnAging-output-641,Country Care Of Fair Play,207 Farm House Ln,Fair Play,29643,SC,Oconee,864-972-1072,,,,,CRC-1041,http://nfbl.sc.gov/FacilityInformation.php?FacID=769,US,Assisted Living Facility
USA-SC-58-SC-OfficeOnAging-output-642,Foothills Assisted Living,999 W Union Rd,West Union,29696,SC,Oconee,864-638-4370,864-638-4379,Ginger Stewart,gstewart@cite-mgmt.com,FoothillsAssistedLivingSC.Com,CRC-1364,http://nfbl.sc.gov/FacilityInformation.php?FacID=770,US,Assisted Living Facility
USA-SC-58-SC-OfficeOnAging-output-643,Lakeview Assisted Living,320 Camp Rd,Walhalla,29691,SC,Oconee,864-638-5212,864-638-0003,Dawn Merritt Business Manager,dmerritt@seniorsolutions-sc.org,,CRC-0086,http://nfbl.sc.gov/FacilityInformation.php?FacID=771,US,Assisted Living Facility
USA-SC-58-SC-OfficeOnAging-output-644,Laurens Estates,2841 Bypass 127,Laurens,29360,SC,Laurens,864-984-8001,,Susan F. Shipman,,,CRC-0681,http://nfbl.sc.gov/FacilityInformation.php?FacID=772,US,Assisted Living Facility
USA-SC-58-SC-OfficeOnAging-output-645,Quillen Manor,709 Quillen Ave,Fountain Inn,29644,SC,Greenville,864-862-3252,,Amber Quillen,amberj.quillen@hotmail.com,,CRC-1321,http://nfbl.sc.gov/FacilityInformation.php?FacID=773,US,Assisted Living Facility
USA-SC-58-SC-OfficeOnAging-output-646,Vibra Hospital of Charleston - TCU,1200 Hospital Dr,Mount Pleasant,29464,SC,Charleston,843-375-4200,,Karlene Case,,,NCF-0960,http://nfbl.sc.gov/FacilityInformation.php?FacID=774,US,Nursing Facility
USA-SC-58-SC-OfficeOnAging-output-647,Crossroads at Catawba,400 Rowells Rd,Catawba,29704,SC,York,803-329-3377,,Jim Edwards,jim_crossroads@comporium.net,,CRC-0743,http://nfbl.sc.gov/FacilityInformation.php?FacID=775,US,Assisted Living Facility
USA-SC-58-SC-OfficeOnAging-output-648,PruittHealth - Estill,252 Liberty Ave S,Estill,29918,SC,Hampton,803-625-3852,803-625-3715,ShyQayla Green,shygreen@pruitthealth.com,,NCF-0922,http://nfbl.sc.gov/FacilityInformation.php?FacID=776,US,Nursing Facility
USA-SC-58-SC-OfficeOnAging-output-649,Lodge At Wellmore,111 Wellmore Dr,Tega Cay,29708,SC,York,,,,,,NCF-0988,http://nfbl.sc.gov/FacilityInformation.php?FacID=777,US,Nursing Facility
USA-SC-58-SC-OfficeOnAging-output-650,Carlisle Place,21 Dr Frank Pressly Dr,Due West,29639,SC,Abbeville,864-379-2570,,Sheryl M. Fleming,,,CRC-1538,http://nfbl.sc.gov/FacilityInformation.php?FacID=778,US,Assisted Living Facility
USA-SC-58-SC-OfficeOnAging-output-651,Spring Park,925 N Main St,Travelers Rest,29690,SC,Greenville,864-610-2435,,Lisa Hawkins,,,CRC-1539,http://nfbl.sc.gov/FacilityInformation.php?FacID=779,US,Assisted Living Facility
USA-SC-58-SC-OfficeOnAging-output-652,Colonial Gardens Alzheimers Special Care Center,3565 Sunset Blvd,West Columbia,29169,SC,Lexington,803-796-2556,,C Christopher Pepper,,,CRC-1542,http://nfbl.sc.gov/FacilityInformation.php?FacID=780,US,Assisted Living Facility
USA-SC-58-SC-OfficeOnAging-output-653,Crossings at Columbia,2300 Clemson Rd,Columbia,29229,SC,Richland,803-223-9560,,Dinah L M Bailes,,,CRC-1544,http://nfbl.sc.gov/FacilityInformation.php?FacID=782,US,Assisted Living Facility
USA-SC-58-SC-OfficeOnAging-output-654,Hope Arbor of Loris,260 Watson Heritage Rd,Loris,29569,SC,Horry,843-716-4673,,Lorie Kesler,,,CRC-1547,http://nfbl.sc.gov/FacilityInformation.php?FacID=783,US,Assisted Living Facility
USA-SC-58-SC-OfficeOnAging-output-655,Inlet Coastal Resort,5087 Hwy 17 N BP,Murrells Inlet,29576,SC,Georgetown,843-405-2005,,Kevin McGraw,,,CRC-1549,http://nfbl.sc.gov/FacilityInformation.php?FacID=784,US,Assisted Living Facility
USA-SC-58-SC-OfficeOnAging-output-656,Hope Arbor of Murrells Inlet,12287 Hwy 707,Murrells Inlet,29576,SC,Horry,843-357-0317,,,,,CRC-1560,http://nfbl.sc.gov/FacilityInformation.php?FacID=785,US,Assisted Living Facility
USA-SC-58-SC-OfficeOnAging-output-657,Benton House of Bluffton,8 Hampton Lake Dr,Bluffton,29910,SC,Beaufort,843-757-3111,,Collin Baranick,,,CRC-1585,http://nfbl.sc.gov/FacilityInformation.php?FacID=786,US,Assisted Living Facility
USA-SC-58-SC-OfficeOnAging-output-658,Ashley Gardens Alzheimers Special Care Center,2290 Henry Tecklenburg Dr,Charleston,29414,SC,Charleston,843-556-4100,,Kelly Jean Carleton,,,CRC-1595,http://nfbl.sc.gov/FacilityInformation.php?FacID=787,US,Assisted Living Facility
USA-SC-58-SC-OfficeOnAging-output-659,Southern Sisters I,1775 Commissary St,North Charleston,29405,SC,Charleston,843-696-0819,,Virginia P. Beaty,,,CRC-1601,http://nfbl.sc.gov/FacilityInformation.php?FacID=788,US,Assisted Living Facility
USA-SC-58-SC-OfficeOnAging-output-660,Fairview Park Senior Living,544 Harrison Bridge Rd,Simpsonville,29680,SC,Greenville,,,,,,CRC-1887,http://nfbl.sc.gov/FacilityInformation.php?FacID=789,US,Assisted Living Facility
USA-SC-58-SC-OfficeOnAging-output-661,Thrive Assisted Living and Memory Care,715 S Buncombe Rd,Greer,29650,SC,Greenville,864-469-0409,,,,,CRC-1894,http://nfbl.sc.gov/FacilityInformation.php?FacID=790,US,Assisted Living Facility
USA-SC-58-SC-OfficeOnAging-output-662,Wellmore of Tega Cay,111 Wellmore Dr,Tega Cay,29708,SC,York,803-835-7000,,David M. Dunn,,,CRC-1935,http://nfbl.sc.gov/FacilityInformation.php?FacID=791,US,Assisted Living Facility
USA-SC-58-SC-OfficeOnAging-output-663,S & S Boarding Home LLC,3589 Bluff Rd,Allendale,29810,SC,Allendale,803-573-7006,803-584-2518,Elaine Sabb,ssboardinghome@yahoo.com,,CRC-1923,http://nfbl.sc.gov/FacilityInformation.php?FacID=793,US,Assisted Living Facility
USA-SC-58-SC-OfficeOnAging-output-664,Gracelynn Residential Care Facility,203 Jewel St N,New Ellenton,29809,SC,Aiken,803-7612045,,Rosabell T. Booker,adultandseniorservices@gmail.com,,CRCF-1609,http://nfbl.sc.gov/FacilityInformation.php?FacID=794,US,Assisted Living Facility
USA-SC-58-SC-OfficeOnAging-output-665,White Oak at North Grove,290 N Grove Medical Park Dr,Spartanburg,29303,SC,Spartanburg,864-345-1700,864-345-1716,Myra Miles,mkmiles@whiteoakmanor.com,www.whiteoakmanor.com,NCF-0971,http://nfbl.sc.gov/FacilityInformation.php?FacID=796,US,Nursing Facility
