row_id,LICENSE #,Facility Name,Facility Type,Address Line 1,City,Zip Code,County,OWNER,Adm First,Adm Last,Telephone,Certified Beds,Licensure Effective,Licensure Expiration,Region,Country
USA-KY-92-KY-NursingHome-long_term_care-1,100295,AUBURN HEALTH CARE,Long-Term Care,139 PEARL ST.,AUBURN,42206,LOGAN,"BOLSTER HEALTH CARE GROUP, LLC",DIANE,MILLER,(270) 542-4111,66,3/1/2017,2/28/2018,WEB,US
USA-KY-92-KY-NursingHome-long_term_care-2,100055,BAPTIST CONVALESCENT CENTER,Long-Term Care,120 MAIN STREET,NEWPORT,41071,CAMPBELL,"BAPTIST CONVALESCENT CENTER, INC.",DONNA,FRODGE,(859) 581-1938,167,2/1/2017,1/31/2018,EEB,US
USA-KY-92-KY-NursingHome-long_term_care-3,100763,BAPTIST HEALTH LA GRANGE,Long-Term Care,1025 NEW MOODY LANE,LA GRANGE,40031,OLDHAM,"BAPTIST HEALTHCARE SYSTEM, INC",STEFANIE,ZOELLER,(502) 222-5388,30,1/1/2017,12/31/2017,NEB,US
USA-KY-92-KY-NursingHome-long_term_care-4,100766,BAPTIST HEALTH PADUCAH,Long-Term Care,2501 KENTUCKY AVENUE,PADUCAH,42003,MCCRACKEN,"BAPTIST HEALTHCARE SYSTEMS, INC.",POLLY,BECHTOLD,(270) 575-2100,24,1/1/2017,12/31/2017,WEB,US
USA-KY-92-KY-NursingHome-long_term_care-5,100728,BAPTIST HEALTH TRANSITIONAL CARE,Long-Term Care,900 HOSPITAL DR.,MADISONVILLE,42431,HOPKINS,"BAPTIST HEALTH MADISONVILLE, INC",ROBERT,RAMEY,(270) 825-5201,20,8/1/2017,7/31/2018,WEB,US
USA-KY-92-KY-NursingHome-long_term_care-6,100275,BARBOURVILLE HEALTH & REHABILITATION CENTER,Long-Term Care,65 MINTON HICKORY FARM ROAD,BARBOURVILLE,40906,KNOX,"BARBOURVILLE NH, INC.",JANNA,Shelley,(606) 546-5136,135,7/1/2017,6/30/2018,SEB,US
USA-KY-92-KY-NursingHome-long_term_care-7,100309,BARKLEY CENTER,Long-Term Care,4747 ALBEN BARKLEY DRIVE,PADUCAH,42001,MCCRACKEN,HBR PADUCAH LLC,ASHLEY,ADKINS,(270) 444-9661,86,7/1/2017,6/30/2018,WEB,US
USA-KY-92-KY-NursingHome-long_term_care-8,100353,"BEAVER DAM NURSING & REHAB CENTER, INC",Long-Term Care,1595 US HWY 231 S.,BEAVER DAM,42320,OHIO,"BEAVER DAM NURSING & REHAB CENTER, INC",LAURA,COLE,(270) 274-9646,58,6/1/2017,5/31/2018,WEB,US
USA-KY-92-KY-NursingHome-long_term_care-9,100319,BEREA HEALTH CARE CENTER,Long-Term Care,601 RICHMOND ROAD,BEREA,40403,MADISON,"BEREA HEALTH CARE, INC.",VICKI,SHORT,(859) 986-4710,84,1/1/2017,12/31/2017,SEB,US
USA-KY-92-KY-NursingHome-long_term_care-10,100198,BINGHAM GARDENS,Long-Term Care,4401 LOUISE UNDERWOOD WAY,LOUISVILLE,40216,JEFFERSON,COMMONWEALTH OF KENTUCKY,KAREN,HENDERSON,(502) 449-8668,24,9/1/2016,Renewal Pending,NEB,US
USA-KY-92-KY-NursingHome-long_term_care-11,100492,BLUEGRASS CARE & REHABILITATION CENTER,Long-Term Care,3576 PIMLICO PARKWAY,LEXINGTON,40517,FAYETTE,"LP LEXINGTON PIMLICO, LLC",TRINA,MANUEL-JAGOE,(859) 272-0608,124,11/1/2016,10/31/2017,EEB,US
USA-KY-92-KY-NursingHome-long_term_care-12,100024,BOURBON HEIGHTS NURSING HOME,Long-Term Care,2000 SOUTH MAIN STREET,PARIS,40361,BOURBON,BOURBON HEIGHTS,CHARLOTTE,ROBERTS,(606) 987-5750,99,10/1/2016,9/30/2017,EEB,US
USA-KY-92-KY-NursingHome-long_term_care-13,100409,BOWLING GREEN NURSING AND REHABILITATION CENTER,Long-Term Care,1561 NEWTON AVE.,BOWLING GREEN ,42104,WARREN,"BOWLING GREEN HEALTH FACILITIES, L.P.",TRACIE,SHERFEY,(270) 842-1611,66,1/1/2017,12/31/2017,WEB,US
USA-KY-92-KY-NursingHome-long_term_care-14,100689,BOYD NURSING & REHABILITATION CENTER,Long-Term Care,12800 PRINCELAND DRIVE,ASHLAND,41102,BOYD,DIVERSICARE LEASING CORPORATION,CINDY,SALYERS,(606) 928-2963,60,10/1/2016,9/30/2017,EEB,US
USA-KY-92-KY-NursingHome-long_term_care-15,100039,BRACKEN COUNTY NURSING & REHABILITATION CENTER,Long-Term Care,5269 ASBURY ROAD,AUGUSTA,41002,BRACKEN,"LP AUGUSTA, LLC",HILARY,SLONE,(606) 756-2156,32,5/1/2017,4/30/2018,EEB,US
USA-KY-92-KY-NursingHome-long_term_care-16,100070,"BRADFORD HEIGHTS HEALTH & REHAB CENTER, INC",Long-Term Care,950 HIGHPOINT DRIVE,HOPKINSVILLE,42240,CHRISTIAN,"BRADFORD HEIGHTS HEALTH & REHAB CENTER, INC",KERI,GARRETT,(270) 885-1151,100,2/1/2017,1/31/2018,WEB,US
USA-KY-92-KY-NursingHome-long_term_care-17,100542,BRADFORD SQUARE GENESIS HEALTHCARE,Long-Term Care,1040 US 127 SOUTH,FRANKFORT,40601,FRANKLIN,GENESIS HEALTHCARE,JANIE,CUNNINGHAM,(502) 875-5600,100,10/1/2017,9/30/2018,EEB,US
USA-KY-92-KY-NursingHome-long_term_care-18,100334,BRANDENBURG NURSING AND REHABILITATION CENTER,Long-Term Care,814 OLD EKRON RD,BRANDENBURG,40108,MEADE,"BRANDENBURG HEALTH FACILITIES, LP",Angela,Decker,(270) 422-2148,57,8/1/2017,8/31/2018,NEB,US
USA-KY-92-KY-NursingHome-long_term_care-19,100738,BRECKINRIDGE MEMORIAL NURSING FACILITY,Long-Term Care,1011 OLD HIGHWAY 60,HARDINSBURG,40143,BRECKINRIDGE,"BRECKINRIDGE MEMORIAL HOSPITAL, INC.",ANGELA,PORTMAN,(270) 756-7000,18,7/1/2017,6/30/2018,NEB,US
USA-KY-92-KY-NursingHome-long_term_care-20,101101,BRECKINRIDGE PLACE,Long-Term Care,170 SYKES BOULEVARD,MORGANFIELD,42437,UNION,"BRECKINRIDGE SERVICES, INC.",KATHY,POGUE,(270) 389-1133,22,6/1/2017,5/31/2018,WEB,US
USA-KY-92-KY-NursingHome-long_term_care-21,100022,BRIDGE POINT CENTER,Long-Term Care,7300 WOODSPOINT DRIVE,FLORENCE,41042,BOONE,"WOODSPOINT, LLC",SHANNON,SPENCER,(859) 371-5731,151,3/1/2017,2/28/2018,EEB,US
USA-KY-92-KY-NursingHome-long_term_care-22,100183,"BRIGHTON CORNERSTONE GROUP, LLC",Long-Term Care,55 EAST NORTH STREET,MADISONVILLE,42431,HOPKINS,"BRIGHTON CORNERSTONE GROUP, LLC",LAINIE,BRINKLEY,(270) 821-1492,66,8/1/2017,7/31/2018,WEB,US
USA-KY-92-KY-NursingHome-long_term_care-23,100572,BROOKDALE RICHMOND PLACE SNF,Long-Term Care,2770 PALUMBO DRIVE,LEXINGTON,40509,FAYETTE,"BLC LEXINGTON SNF, LLC",RANDALL,CONFORTI,(859) 269-6308,120,3/1/2017,2/27/2018,EEB,US
USA-KY-92-KY-NursingHome-long_term_care-24,100197,BROWNSBORO HILLS HEALTH  CARE AND REHABILITATION C,Long-Term Care,2141 SYCAMORE AVENUE,LOUISVILLE,40206,JEFFERSON,BROWNSBORO HILLS HEALTHCARE LLC,LISA,DAVIS,(502) 895-5417,96,11/1/2016,10/31/2017,NEB,US
USA-KY-92-KY-NursingHome-long_term_care-25,100006,CAL TURNER REHAB AND SPECIALTY CARE,Long-Term Care,456 BURNLEY RD.,SCOTTSVILLE,42164,ALLEN,BOWLING GREEN WARREN CO. COMM. HOSP. CORP.,JACQUELINE,WOODWARD,(270) 622-2800,110,3/1/2017,2/28/2018,WEB,US
USA-KY-92-KY-NursingHome-long_term_care-26,100329,CALVERT CITY CONVALESCENT CENTER,Long-Term Care,1201 FIFTH AVE,CALVERT CITY,42029,MARSHALL,"CALVERT CITY CONVALESCENT CENTER, INC.",LYNN,JONES,(270) 395-4124,95,11/1/2016,10/31/2017,WEB,US
USA-KY-92-KY-NursingHome-long_term_care-27,100461,CAMBRIDGE PLACE,Long-Term Care,2020 CAMBRIDGE DRIVE,LEXINGTON,40504,FAYETTE,"CAMBRIDGE PLACE GROUP, LLC",CARA,CLARK,(859) 252-6747,118,12/1/2016,11/30/2017,EEB,US
USA-KY-92-KY-NursingHome-long_term_care-28,100392,CAMPBELLSVILLE NURSING AND REHABILITATION CENTER,Long-Term Care,1980 OLD GREENSBURG ROAD,CAMPBELLSVILLE,42718,TAYLOR,"CAMPBELLSVILLE HEALTH FACILITIES, L.P.",NELDA,BEARD,(270) 465-3506,67,4/1/2017,3/31/2018,SEB,US
USA-KY-92-KY-NursingHome-long_term_care-29,101154,CARDINAL HILL SKILLED REHABILITATION UNIT,Long-Term Care,2050 VERSAILLES ROAD,LEXINGTON,40504,FAYETTE,"HEALTHSOUTH CARDINAL HILL REHABILITATION HOSPITAL,",JASON,COOK,(859) 254-5701,74,12/1/2016,11/30/2017,EEB,US
USA-KY-92-KY-NursingHome-long_term_care-30,100082,CARMEL HOME,Long-Term Care,2501 OLD HARTFORD RD.,OWENSBORO,42303,DAVIESS,CARMELITE SRS. OF THE DIVINE HEART OF JESUS OF KY,FRANCIS,SCULLY,(270) 683-0227,18,9/1/2017,8/31/2018,WEB,US
USA-KY-92-KY-NursingHome-long_term_care-31,100056,CARMEL MANOR,Long-Term Care,100 CARMEL MANOR ROAD,FORT THOMAS,41075,CAMPBELL,CARMEL MANOR,DIANE,MACK,(859) 781-5111,95,1/1/2017,12/31/2017,EEB,US
USA-KY-92-KY-NursingHome-long_term_care-32,100571,CARTER NURSING & REHABILITATION CENTER,Long-Term Care,250 MCDAVID BLVD,GRAYSON,41143,CARTER,DIVERSICARE LEASING CORPORATION,JOE,BRAINARD,(606) 474-7835,120,3/1/2017,2/28/2018,EEB,US
USA-KY-92-KY-NursingHome-long_term_care-33,100450,CEDAR LAKE LODGE,Long-Term Care,3301 JERICHO ROAD,LA GRANGE,40031,OLDHAM,"CEDAR LAKE LODGE, INC.",NATHANIAL,MEADE,(502) 222-7157,63,12/1/2016,11/30/2017,NEB,US
USA-KY-92-KY-NursingHome-long_term_care-34,101119,CEDAR LAKE LODGE - PARK PLACE I,Long-Term Care,325 PARK ROAD,NEW CASTLE,40050,HENRY,"CEDAR LAKE LODGE, INC.",JEFF,MINIARD,(502) 845-8996,8,11/1/2016,10/31/2017,NEB,US
USA-KY-92-KY-NursingHome-long_term_care-35,101120,CEDAR LAKE LODGE - PARK PLACE II,Long-Term Care,327 PARK ROAD,NEW CASTLE,40050,HENRY,"CEDAR LAKE LODGE, INC.",JEFF,MINIARD,(502) 845-8996,8,11/1/2016,10/31/2017,NEB,US
USA-KY-92-KY-NursingHome-long_term_care-36,101246,CEDAR LAKE LODGE SYCAMORE RUN I,Long-Term Care,4804 SYCAMORE RIDGE LN,LA GRANGE,40031,OLDHAM,"CEDAR LAKE, INC.",JEFF,MINIARD,(502)225-0671,4,8/29/2017,7/31/2018,NEB,US
USA-KY-92-KY-NursingHome-long_term_care-37,101247,CEDAR LAKE LODGE SYCAMORE RUN II,Long-Term Care,4804 SYCAMORE RIDGE LN,LA GRANGE,40031,OLDHAM,"CEDAR LAKE, INC.",JEFF,MINIARD,(502)225-0671,4,8/29/2017,7/31/2018,NEB,US
USA-KY-92-KY-NursingHome-long_term_care-38,100751,CEDAR RIDGE HEALTH CAMPUS,Long-Term Care,1217 US HIGHWAY 62 E,CYNTHIANA,41031,HARRISON,"TRILOGY HEALTHCARE OF CYNTHIANA, LLC",SOMER,HURSTON,(859) 234-2702,53,11/1/2016,10/31/2017,EEB,US
USA-KY-92-KY-NursingHome-long_term_care-39,100325,CEDARS OF LEBANON NURSING CENTER,Long-Term Care,337 SOUTH HARRISON STREET,LEBANON,40033,MARION,"THE VILLAGE OF LEBANON, LLC",DEBORAH,GIBSON,(270) 692-3121,81,6/1/2017,5/31/2018,SEB,US
USA-KY-92-KY-NursingHome-long_term_care-40,100037,CHARLESTON HEALTH CARE CENTER,Long-Term Care,203 BRUCE COURT,DANVILLE,40423,BOYLE,"MARLIN K. SPARKS MANAGEMENT COMPANY, INC.",MARLIN,SPARKS,(859) 236-9292,90,5/1/2017,4/30/2018,SEB,US
USA-KY-92-KY-NursingHome-long_term_care-41,100300,"CHRISTIAN CARE CENTER OF KUTTAWA, LLC",Long-Term Care,1253 LAKE BARKLEY DRIVE,KUTTAWA,42055,LYON,"CHRISTIAN CARE CENTER OF KUTTAWA, LLC",HUGHES,ASH,(270) 388-2291,65,9/1/2016,Renewal Pending,WEB,US
USA-KY-92-KY-NursingHome-long_term_care-42,100719,Christian Care Center of Lancaster,Long-Term Care,308 WEST MAPLE AVENUE,LANCASTER,40444,GARRARD,"Landmark of Lancaster Rehabilitation and Nursing Center, LLC",TEVIS,TUGGLE,(859) 792-6844,96,7/1/2017,6/30/2018,SEB,US
USA-KY-92-KY-NursingHome-long_term_care-43,100200,CHRISTIAN HEALTH CENTER,Long-Term Care,920 SOUTH FOURTH STREET,LOUISVILLE,40203,JEFFERSON,"CHRISTIAN CARE COMMUNITIES, INC.",John,Keaton,(502) 583-6533,122,10/1/2016,9/30/2017,NEB,US
USA-KY-92-KY-NursingHome-long_term_care-44,100691,CHRISTIAN HEALTH CENTER,Long-Term Care,1800 WESTEN AVENUE,BOWLING GREEN,42104,WARREN,"CHRISTIAN CARE COMMUNITIES, INC.",HEATHER,OBANION,(270) 796-6643,39,12/1/2016,11/30/2017,WEB,US
USA-KY-92-KY-NursingHome-long_term_care-45,100540,CHRISTIAN HEALTH CENTER,Long-Term Care,116 SOUTH COMMONWEALTH AVENUE,CORBIN,40702,KNOX,"CHRISTIAN CARE COMMUNITIES, INC.",WILLIAM,COLLINS,(606) 258-2500,104,1/1/2017,12/31/2017,SEB,US
USA-KY-92-KY-NursingHome-long_term_care-46,100486,CHRISTIAN HEALTH CENTER,Long-Term Care,200 STERLING DRIVE,HOPKINSVILLE,42240,CHRISTIAN,"CHRISTIAN CARE COMMUNITIES, INC.",CAROL,BRITT,(270) 885-1166,114,3/1/2017,2/28/2018,WEB,US
USA-KY-92-KY-NursingHome-long_term_care-47,100536,"CHRISTIAN HEALTH CENTER - WEST, INC",Long-Term Care,1015 WEST MAGAZINE STREET,LOUISVILLE,40203,JEFFERSON,CHRISTIAN HEALTH CENTER - WEST,REGINA,LYONS,(502) 815-6460,92,10/1/2016,9/30/2017,NEB,US
USA-KY-92-KY-NursingHome-long_term_care-48,100069,CHRISTIAN HEIGHTS NURSING AND REHABILITATION CENTE,Long-Term Care,124 WEST NASHVILLE ST,PEMBROKE,42266,CHRISTIAN,"PEMBROKE HEALTH FACILITIES, L.P.",TAMMY,WORKMAN,(270) 475-4227,60,6/1/2017,5/31/2018,WEB,US
USA-KY-92-KY-NursingHome-long_term_care-49,100740,CLARK REGIONAL MEDICAL CENTER,Long-Term Care,175 HOSPITAL DRIVE,WINCHESTER,40391,CLARK,"KENTUCKY HOSPITAL, LLC",DEBORAH,BARNETT,(859) 737-8559,25,3/1/2017,2/28/2018,EEB,US
USA-KY-92-KY-NursingHome-long_term_care-50,100231,CLIFTON OAKS CARE CENTER ,Long-Term Care,446 MT. HOLLY AVE,LOUISVILLE,40206,JEFFERSON," MT.HOLLY LEASING, LLC",KATHY,HOLDERMAN,(502) 897-1646,110,7/1/2017,6/30/2018,NEB,US
USA-KY-92-KY-NursingHome-long_term_care-51,100555,CLINTON COUNTY CARE & REHABILITATION CENTER,Long-Term Care,404 NORTH WASHINGTON STREET,ALBANY,42602,CLINTON,"LP ALBANY, LLC",DONNA,LEE,(606) 387-6623,52,11/1/2016,10/31/2017,SEB,US
USA-KY-92-KY-NursingHome-long_term_care-52,100181,CLINTON PLACE,Long-Term Care,106 PADGETT DRIVE,CLINTON,42031,HICKMAN,"DIVERSICARE CLINTON, LLC",TRELLA,WILSON,(270) 653-5558,88,1/1/2017,12/31/2017,WEB,US
USA-KY-92-KY-NursingHome-long_term_care-53,100180,CLINTON-HICKMAN COUNTY NURSING FACILITY,Long-Term Care,366 S. WASHINGTON ST.,CLINTON,42031,HICKMAN,"CLINTON HICKMAN COUNTY HOSPITAL, INC.",ROLLIE,BUSHOR,(270) 653-2461,46,10/1/2017,9/30/2018,WEB,US
USA-KY-92-KY-NursingHome-long_term_care-54,101099,"COLDSPRING TRANSITIONAL CARE CENTER, LLC",Long-Term Care,300 PLAZA DRIVE,COLD SPRING,41076,CAMPBELL,"COLDSPRING TRANSITIONAL CARE CENTER, LLC",JOHN,MULLER,(859) 441-4600,143,12/1/2016,11/30/2017,EEB,US
USA-KY-92-KY-NursingHome-long_term_care-55,100405,COLONIAL CENTER,Long-Term Care,2365 NASHVILLE ROAD,BOWLING GREEN,42101,WARREN,"HBR BOWLING GREEN, LLC",JESSICA,LOPEZ,(270) 842-1641,48,11/1/2016,10/31/2017,WEB,US
USA-KY-92-KY-NursingHome-long_term_care-56,100481,CONCORDIA HEALTHCARE CENTER-HERITAGE MANOR,Long-Term Care,401 INDIANA AVE,MAYFIELD,42066,GRAVES,"EAGLE ACQUISITION III,LLC",CYNTHIA,PORTER,(270) 247-0200,100,5/1/2017,4/30/2018,WEB,US
USA-KY-92-KY-NursingHome-long_term_care-57,100343,CONCORDIA NURSING AND REHABILITATION-MAPLE,Long-Term Care,515 GREENE DRIVE,GREENVILLE,42345,MUHLENBERG,"EAGLE ACQUISITION II,LLC",Marcella,Hodges,(270) 338-5400,97,8/1/2017,7/31/2018,WEB,US
USA-KY-92-KY-NursingHome-long_term_care-58,100416,CORBIN HEALTH & REHABILITATION CENTER,Long-Term Care,270 BACON CREEK ROAD,CORBIN,40702,WHITLEY,"CORBIN NURSING HOME, INC.",REBECCA,HILL,(606) 528-8822,100,1/1/2017,12/31/2017,SEB,US
USA-KY-92-KY-NursingHome-long_term_care-59,100663,COUNTRYSIDE CENTER,Long-Term Care,47 MARGO AVENUE,BARDWELL,42023,CARLISLE,"HBR BARDWELL, LLC",Marilyn   ,Ingram,(270) 628-5424,53,8/1/2017,7/31/2018,WEB,US
USA-KY-92-KY-NursingHome-long_term_care-60,100067,COVINGTON'S CONVALESCENT CENTER,Long-Term Care,115 CAYCE ST,HOPKINSVILLE,42240,CHRISTIAN,"COVINGTON CONVALESCENT CENTER, INC.",WILLIAM,COVINGTON,(270) 886-4403,72,5/1/2017,4/30/2018,WEB,US
USA-KY-92-KY-NursingHome-long_term_care-61,100299,"CREEKWOOD PLACE NURSING & REHAB CENTER, INC",Long-Term Care,107 BOYLES DRIVE,RUSSELLVILLE,42276,LOGAN,"CREEKWOOD PLACE NURSING & REHAB CENTER, INC.",ELIZABETH,GETTINGS,(270) 726-9049,104,1/1/2017,12/31/2017,WEB,US
USA-KY-92-KY-NursingHome-long_term_care-62,100383,CRESTVIEW CENTER,Long-Term Care,1871 MIDLAND TRAIL,SHELBYVILLE,40065,SHELBY,"CRESTVIEW NURSING, LLC",STEVE,MCKINLEY,(502) 633-2454,58,12/1/2016,11/30/2017,NEB,US
USA-KY-92-KY-NursingHome-long_term_care-63,100079,CRITTENDEN COUNTY HEALTH & REHABILITATION CENTER,Long-Term Care,201 WATSON STREET,MARION,42064,CRITTENDEN,"ORION MARION, LLC",Jill,MCCONNELL,(270) 965-2218,101,5/1/2017,4/30/2018,WEB,US
USA-KY-92-KY-NursingHome-long_term_care-64,100373,CUMBERLAND NURSING AND REHABILITATION CENTER,Long-Term Care,200 NORFLEET DRIVE,SOMERSET,42501,PULASKI,"SOMERSET HEALTH FACILITIES, L.P.",JILL,SPURGEON,(606) 678-5104,93,1/1/2017,12/31/2017,SEB,US
USA-KY-92-KY-NursingHome-long_term_care-65,100471,CUMBERLAND VALLEY MANOR,Long-Term Care,301 SOUTH MAIN STREET,BURKESVILLE,42717,CUMBERLAND,CUMBERLAND VALLEY MANOR,PAUL,SHEPARD,(270) 864-4315,84,6/1/2017,5/31/2018,SEB,US
USA-KY-92-KY-NursingHome-long_term_care-66,100036,DANVILLE CENTRE FOR HEALTH AND REHABILITATION,Long-Term Care,642 NORTH THIRD STREET,DANVILLE,40422,BOYLE,"LP DANVILLE, LLC",THOMAS,DAVIS,(859) 236-3972,106,2/1/2017,1/31/2018,SEB,US
USA-KY-92-KY-NursingHome-long_term_care-67,100188,DAWSON SPRINGS HEALTH AND REHABILITATION CENTER,Long-Term Care,213 WATER STREET,DAWSON SPRINGS,42408,HOPKINS,"DAWSON POINTE, LLC",MARGARET,CURTIS,(270) 797-2025,59,8/1/2017,7/31/2018,WEB,US
USA-KY-92-KY-NursingHome-long_term_care-68,100694,DEL MARIA ICF/IID,Long-Term Care,5512 DEL MARIA WAY,LOUISVILLE,40291,JEFFERSON,CABINET FOR HEALTH SERVICES,MEREDITH,CRAWFORD,(502) 499-7203,8,1/1/2017,12/31/2017,NEB,US
USA-KY-92-KY-NursingHome-long_term_care-69,100132,DIVERSICARE OF FULTON,Long-Term Care,1004 HOLIDAY LANE,FULTON,42041,FULTON,"FULTON INVESTORS, LLC",LINDSAY,FRAZIER,(270) 472-1971,60,4/1/2017,3/31/2018,WEB,US
USA-KY-92-KY-NursingHome-long_term_care-70,100509,DIVERSICARE OF GLASGOW,Long-Term Care,300 WESTWOOD STREET,GLASGOW,42141,BARREN,"DIVERSICARE OF GLASGOW, LLC",JASON,GUMM,(270) 651-9131,94,1/1/2017,12/31/2017,WEB,US
USA-KY-92-KY-NursingHome-long_term_care-71,100342,DIVERSICARE OF GREENVILLE,Long-Term Care,521 GREENE DR.,GREENVILLE,42345,MUHLENBERG,"DIVERSICARE OF GREENVILLE, LLC",VICKI,BUTLER,(270) 338-1523,62,12/1/2016,11/30/2017,WEB,US
USA-KY-92-KY-NursingHome-long_term_care-72,100442,DIVERSICARE OF NICHOLASVILLE,Long-Term Care,100 SPARKS AVENUE,NICHOLASVILLE,40356,JESSAMINE,"DIVERSICARE OF NICHOLASVILLE, LLC",THOMAS,DAVIS,(859) 885-4171,73,11/1/2016,10/31/2017,EEB,US
USA-KY-92-KY-NursingHome-long_term_care-73,100256,DIVERSICARE OF SENECA PLACE,Long-Term Care,3526 DUTCHMANS LANE,LOUISVILLE,40205,JEFFERSON,"DIVERSICARE OF SENECA PLACE, LLC",Herschel,Sedoris,(502) 452-6331,107,8/1/2017,7/31/2018,NEB,US
USA-KY-92-KY-NursingHome-long_term_care-74,100480,DOVER MANOR,Long-Term Care,112 DOVER DRIVE,GEORGETOWN,40324,SCOTT,"DOVER MANOR, INC.",MICHAEL,FIELDEN,(502) 863-9529,85,7/1/2017,6/30/2018,EEB,US
USA-KY-92-KY-NursingHome-long_term_care-75,100205,EASTERN STAR HOME IN KY,Long-Term Care,923 EASTERN STAR COURT,LOUISVILLE,40204,JEFFERSON,"EASTERN STAR HOME IN KENTUCKY, INC.",Robert,Rivera,(502) 451-3535,0,7/1/2017,6/30/2018,NEB,US
USA-KY-92-KY-NursingHome-long_term_care-76,101245,EASTERN STATE HOSPITAL LONG TERM / ACQUIRED BRAIN INJURY,Long-Term Care,1350 BULL LEA ROAD,LEXINGTON,40511,FAYETTE,COMMONWEALTH OF KENTUCKY,SUSAN,GRIFFITH,(859) 246-8000,44,11/1/2016,10/31/2017,EEB,US
USA-KY-92-KY-NursingHome-long_term_care-77,100166,EDGEMONT HEALTHCARE,Long-Term Care,323 WEBSTER AVENUE,CYNTHIANA,41031,HARRISON,EDGEMONT HEALTHCARE,DEBORAH,ZECH,(859) 234-4595,68,12/1/2016,11/30/2017,EEB,US
USA-KY-92-KY-NursingHome-long_term_care-78,100700,EDGEWOOD ESTATES,Long-Term Care,195 BERRYMAN ROAD,FRENCHBURG,40322,MENIFEE,MENIFEE COUNTY NURSING HOME CORP.,ANNE,WILLS,(606) 768-9001,60,5/1/2017,4/30/2018,SEB,US
USA-KY-92-KY-NursingHome-long_term_care-79,100680,EDMONSON CENTER,Long-Term Care,813 S. MAIN ST.,BROWNSVILLE,42210,EDMONSON,"HBR BROWNSVILLE, LLC",CHRIS,SWIHART,(270) 597-2335,74,10/1/2016,9/30/2017,WEB,US
USA-KY-92-KY-NursingHome-long_term_care-80,100161,ELIZABETHTOWN NURSING AND REHABILITATION CENTER,Long-Term Care,1101 WOODLAND DRIVE,ELIZABETHTOWN,42701,HARDIN,"ELIZABETHTOWN HEALTH FACILITIES, LP",STEPHEN,STOCKSDALE,(270) 765-6106,65,5/1/2017,4/30/2018,NEB,US
USA-KY-92-KY-NursingHome-long_term_care-81,100690,ELLIOTT NURSING AND REHABILITATION CENTER,Long-Term Care,"RT 32  EAST, HOWARD CREEK RD",SANDY HOOK,41171,ELLIOTT,DIVERSICARE LEASING CORPORATION,RACHELLE,STEVENS,(606) 738-9400,75,11/1/2016,10/31/2017,EEB,US
USA-KY-92-KY-NursingHome-long_term_care-82,101299,EMERALD TRACE,Long-Term Care,3802 TURKEYFOOT RD,ELSMERE,41018,KENTON,"KENTON HOUSING, INC",BRADLEY,STANFORD,859-432-2244,54,12/20/2016,12/31/2017,EEB,US
USA-KY-92-KY-NursingHome-long_term_care-83,100710,EPHRAIM MCDOWELL REGIONAL MEDICAL CENTER,Long-Term Care,217 SOUTH THIRD STREET,DANVILLE,40422,BOYLE,"EPHRAIM MCDOWELL REGIONAL MEDICAL CENTER, INC.",SUSAN,MATHERLY,(859) 239-2336,25,4/1/2017,3/31/2018,SEB,US
USA-KY-92-KY-NursingHome-long_term_care-84,100518,ESSEX NURSING AND REHABILITATION CENTER,Long-Term Care,9600 LAMBORNE BOULEVARD,LOUISVILLE,40272,JEFFERSON,"HANGING ROCK, LTC, LLC",ROBERT,FLATT,(502) 935-7284,128,3/1/2017,2/28/2018,NEB,US
USA-KY-92-KY-NursingHome-long_term_care-85,100466,"FAIR OAKS HEALTH SYSTEMS, LLC",Long-Term Care,1 SPARKS AVENUE,JAMESTOWN,42629,RUSSELL,"FAIR OAKS HEALTH SYSTEMS, LLC",CHRIS,MINNICH,(270) 343-2101,114,8/1/2017,7/31/2018,SEB,US
USA-KY-92-KY-NursingHome-long_term_care-86,100747,FLAGET MEMORIAL HOSPITAL NF,Long-Term Care,4305 NEW SHEPHERDSVILLE ROAD,BARDSTOWN,40004,NELSON,"FLAGET HEALTHCARE, INC.",DELISA,ARNOLD,(502) 350-5000,12,5/1/2017,4/30/2018,NEB,US
USA-KY-92-KY-NursingHome-long_term_care-87,100547,FLORENCE PARK CARE CENTER,Long-Term Care,6975 BURLINGTON PIKE,FLORENCE,41042,BOONE,"EVAN GRAY, LLC",ALFRED,MOLLOZZI,(859) 525-0007,150,1/1/2017,12/31/2017,EEB,US
USA-KY-92-KY-NursingHome-long_term_care-88,100351,FORDSVILLE NURSING AND REHABILITATION CENTER,Long-Term Care,313 MAIN STREET,FORDSVILLE,42343,OHIO,"FORDSVILLE HEALTH FACILITIES, L.P.",JEFFREY,THOMPSON,(270) 276-3603,67,8/1/2017,7/31/2018,WEB,US
USA-KY-92-KY-NursingHome-long_term_care-89,101222,FOREST SPRINGS HEALTH CAMPUS,Long-Term Care,4120 WOODED ACRE LANE,LOUISVILLE,40245,JEFFERSON,"TRILOGY HEALTHCARE OF LOUISVILLE NORTHEAST, LLC",SEAN,BARNEY-MCCOY,(502) 243-1643,58,5/1/2017,4/30/2018,NEB,US
USA-KY-92-KY-NursingHome-long_term_care-90,100074,FOUNTAIN CIRCLE CARE & REHABILITATION CENTER,Long-Term Care,200 GLENWAY ROAD,WINCHESTER,40391,CLARK,"LP WINCHESTER, LLC",LISA,COLLIER,(859) 744-1800,179,9/1/2016,Renewal Pending,EEB,US
USA-KY-92-KY-NursingHome-long_term_care-91,100196,FRANCISCAN HEALTH CARE CENTER,Long-Term Care,3625 FERN VALLEY ROAD,LOUISVILLE,40219,JEFFERSON,"TRILOGY HEALTHCARE OF JEFFERSON, LLC",MELISSA,LARMOUR,(502) 964-3381,85,2/1/2017,1/31/2018,NEB,US
USA-KY-92-KY-NursingHome-long_term_care-92,100512,FRANKFORT REHABILITATION AND CARE,Long-Term Care,117 OLD SOLDIERS LANE,FRANKFORT,40601,FRANKLIN,"FRANKFORT LEASING, LLC",VICKI,TRUMP,(502) 875-7272,100,6/1/2017,5/31/2018,EEB,US
USA-KY-92-KY-NursingHome-long_term_care-93,100391,FRANKLIN-SIMPSON NURSING AND REHABILITATION CENTER,Long-Term Care,414 ROBEY ST.,FRANKLIN,42135,SIMPSON,"FRANKLIN HEALTH FACILITIES, L.P.",TRINA,DAVES,(270) 586-7141,98,4/1/2017,3/31/2018,WEB,US
USA-KY-92-KY-NursingHome-long_term_care-94,100355,"FRIENDSHIP HEALTH AND REHABILITATION, LLC",Long-Term Care,7400 LAGRANGE RD,PEWEE VALLEY,40056,OLDHAM,"FRIENDSHIP HEALTH AND REHAB, LLC",FRAN,STAHL,(502) 241-8821,128,9/1/2017,8/30/2018,NEB,US
USA-KY-92-KY-NursingHome-long_term_care-95,100208,GEORGETOWN MANOR,Long-Term Care,900 GAGEL AVENUE,LOUISVILLE,40216,JEFFERSON,"AMERICAN HEALTH FOUNDATION KENTUCKY-IOWA, INC.",RAYMOND,BELL,(502) 368-5827,120,12/1/2016,11/30/2017,NEB,US
USA-KY-92-KY-NursingHome-long_term_care-96,100483,GLASGOW STATE NURSING FACILITY,Long-Term Care,207 STATE AVENUE,GLASGOW,42141,BARREN,COMMONWEALTH OF KENTUCKY,AMANDA,ALLEN,(270) 651-2151,100,11/1/2016,10/31/2017,WEB,US
USA-KY-92-KY-NursingHome-long_term_care-97,100729,GLEN RIDGE HEALTH CAMPUS,Long-Term Care,6415 CALM RIVER WAY,LOUISVILLE,40299,JEFFERSON,"TRILOGY HEALTHCARE OF GLEN RIDGE, LLC",Melissa,Larmour,(502) 297-8590,70,8/1/2016,7/31/2018,NEB,US
USA-KY-92-KY-NursingHome-long_term_care-98,100012,GLENVIEW HEALTH CARE FACILITY,Long-Term Care,1002 GLENVIEW DR.,GLASGOW,42141,BARREN,GLENVIEW HEALTH CARE FACILITY INC.,YVONNE,COOK,(270) 651-8332,60,4/1/2017,3/31/2018,WEB,US
USA-KY-92-KY-NursingHome-long_term_care-99,100516,GOOD SHEPHERD COMMUNITY NURSING CENTER,Long-Term Care,60 PHILLIPS BRANCH ROAD,PHELPS,41553,PIKE,"PRESBYTERIAN HOMES AND SERVICES OF KY, INC",JAMIE,SLONE,(606) 456-8725,118,11/1/2016,10/31/2017,SEB,US
USA-KY-92-KY-NursingHome-long_term_care-100,100522,GRAND HAVEN NURSING HOME,Long-Term Care,105 RODGERS PARK,CYNTHIANA,41031,HARRISON,"MARTIN'S REST HOME, INC.",TRULY,PENNINGTON,(859) 234-2050,54,4/1/2017,3/31/2018,EEB,US
USA-KY-92-KY-NursingHome-long_term_care-101,100594,GRANT CENTER,Long-Term Care,201 KIMBERLY LANE,WILLIAMSTOWN,41097,GRANT,"GRANT MANOR, LLC",AMBER,REILLY,(859) 824-7803,95,4/1/2017,3/31/2018,EEB,US
USA-KY-92-KY-NursingHome-long_term_care-102,100150,GRAYSON NURSING AND REHABILITATION,Long-Term Care,505 WILLIAM THOMASON BYWAY,LEITCHFIELD,42754,GRAYSON,"GRAYSON HOUSING, INC.",JOSEPH,VANCE,(270) 259-4028,72,8/1/2017,7/31/2018,WEB,US
USA-KY-92-KY-NursingHome-long_term_care-103,100144,GREEN ACRES HEALTH CARE,Long-Term Care,402 W. FARTHING STREET,MAYFIELD,42066,GRAVES,"GREEN ACRES HEALTH SERVICES, INC.",ANDREW P.,LONG,(270) 247-6477,73,2/1/2017,1/31/2018,WEB,US
USA-KY-92-KY-NursingHome-long_term_care-104,100152,Green Hill Rehabilitation and Care ,Long-Term Care,213 INDUSTRIAL ROAD,GREENSBURG,42743,GREEN,"GREEN HILL LEASING, LLC",DAVID,GARST,(270) 932-4241,118,6/1/2017,5/31/2018,SEB,US
USA-KY-92-KY-NursingHome-long_term_care-105,100637,GREEN MEADOWS HEALTH CARE CENTER 1,Long-Term Care,310 BOXWOOD RUN ROAD,MOUNT WASHINGTON,40047,BULLITT,"MT. WASHINGTON HEALTH CARE, LLC",BEN,BAYS,(502) 955-7600,122,5/1/2017,4/30/2018,NEB,US
USA-KY-92-KY-NursingHome-long_term_care-106,100498,GREENWOOD NURSING & REHABILITATION CENTER,Long-Term Care,5079 SCOTTSVILLE RD.,BOWLING GREEN,42104,WARREN,"THAMES HEALTHCARE GROUP, LLC",JONATHAN,MCGUIRE,(270) 782-1125,128,6/1/2017,5/31/2018,WEB,US
USA-KY-92-KY-NursingHome-long_term_care-107,100041,HARDINSBURG NURSING AND REHABILITATION CENTER,Long-Term Care,101 FAIRGROUNDS ROAD,HARDINSBURG,40143,BRECKINRIDGE,"HARDINSBURG HEALTH FACILITIES, LP",JACKIE,RAMSEY,(270) 756-2159,63,9/1/2017,8/31/2018,NEB,US
USA-KY-92-KY-NursingHome-long_term_care-108,100510,HARLAN HEALTH & REHABILITATION CENTER,Long-Term Care,200 MEDICAL CENTER DRIVE,HARLAN,40831,HARLAN,"HARLAN NURSING HOME, INC.",GAIL,HENSLEY,(606) 573-7250,143,11/1/2016,10/31/2017,SEB,US
USA-KY-92-KY-NursingHome-long_term_care-109,100457,HARRODSBURG HEALTH & REHABILITATION CENTER,Long-Term Care,853 LEXINGTON ROAD,HARRODSBURG,40330,MERCER,"LP HARRODSBURG, LLC",JODI,JOHNSON,(859) 734-7791,112,8/1/2017,7/31/2018,EEB,US
USA-KY-92-KY-NursingHome-long_term_care-110,100462,HAZARD HEALTH & REHABILITATION CENTER,Long-Term Care,390 PARK AVENUE,HAZARD,41702,PERRY,"HAZARD NURSING HOME, INC",CHARLOTTE,THORNSBERRY,(606) 439-2306,200,3/1/2017,2/28/2018,SEB,US
USA-KY-92-KY-NursingHome-long_term_care-111,100211,HAZELWOOD CENTER,Long-Term Care,1800 BLUEGRASS AVE.,LOUISVILLE,40215,JEFFERSON,COMMONWEALTH OF KENTUCKY,SUELLEN,WHITE-LASON,(502) 361-2301,201,5/1/2017,4/30/2018,NEB,US
USA-KY-92-KY-NursingHome-long_term_care-112,100395,HEARTHSTONE PLACE,Long-Term Care,506 ALLENSVILLE ROAD,ELKTON,42220,TODD,BOLSTER AND JEFFRIES HEALTHCARE GROUP LLC,BRANDI,WARDEN,(270) 265-5321,60,6/1/2017,5/31/2018,WEB,US
USA-KY-92-KY-NursingHome-long_term_care-113,100679,HEARTLAND VILLA CENTER,Long-Term Care,8005 US HWY 60 WEST,LEWISPORT,42351,HANCOCK,HBR LEWISPORT LLC,Tracey,Butler,(270) 295-6756,45,11/1/2016,10/31/2017,WEB,US
USA-KY-92-KY-NursingHome-long_term_care-114,100576,HELMWOOD HEALTHCARE CENTER,Long-Term Care,106 DIECKS DRIVE ,ELIZABETHTOWN,42701,HARDIN,PRESBYTERIAN HOMES AND SERVICES OF KENTUCKY,RACHEL,WHOBREY,(270) 737-2738,60,2/1/2017,1/31/2018,NEB,US
USA-KY-92-KY-NursingHome-long_term_care-115,100175,HENDERSON NURSING AND REHABILITATION CENTER,Long-Term Care,2500 NORTH ELM ST.,HENDERSON,42420,HENDERSON,"HENDERSON HEALTH FACILITIES, LP",Lindsay,Turner,(270) 826-9794,90,12/1/2016,11/30/2017,WEB,US
USA-KY-92-KY-NursingHome-long_term_care-116,100086,HERMITAGE CARE AND REHABILITATION CENTER,Long-Term Care,"1614 PARRISH AVE, WEST",OWENSBORO,42301,DAVIESS,"LP OWENSBORO, LLC",DANIELLE,JOHNSON,(270) 684-4559,92,7/1/2017,6/30/2018,WEB,US
USA-KY-92-KY-NursingHome-long_term_care-117,100485,HICKS GOLDEN YEARS NURSING HOME,Long-Term Care,1901 WEST HIGHWAY 90 BYPASS,MONTICELLO,42633,WAYNE,"HICKS' ENTERPRISES OF MONTICELLO, LLC",DARRELL,HICKS,(606) 348-6034,59,12/1/2016,11/30/2017,SEB,US
USA-KY-92-KY-NursingHome-long_term_care-118,100218,HIGHLANDS HEALTH AND REHABILITATION CENTER,Long-Term Care,1705 STEVENS AVENUE,LOUISVILLE,40205,JEFFERSON,"DIVERSICARE HIGHLANDS, LLC",MARK,WITT,(502) 451-7330,154,4/1/2017,3/31/2018,NEB,US
USA-KY-92-KY-NursingHome-long_term_care-119,100726,HIGHLANDS REGIONAL MEDICAL CENTER,Long-Term Care,5000 KY ROUTE 321,PRESTONSBURG,41653,FLOYD,HIGHLANDS HOSPITAL CORPORATION,HAROLD,WARMAN JR.,(606) 886-7600,0,2/1/2017,1/31/2018,SEB,US
USA-KY-92-KY-NursingHome-long_term_care-120,100664,HIGHLANDSPRING OF FT THOMAS,Long-Term Care,960 HIGHLAND AVENUE,FORT THOMAS,41075,CAMPBELL,"HIGH-DAY, LLC",JULIE,LEHMANN,(859) 572-0660,140,11/1/2016,10/31/2017,EEB,US
USA-KY-92-KY-NursingHome-long_term_care-121,100212,HILLCREEK REHABILITATION AND CARE ,Long-Term Care,3116 BRECKINRIDGE LANE,LOUISVILLE,40220,JEFFERSON,"HILLCREEK LEASING, LLC",Abdoulie,Cham,(502) 459-9120,172,1/1/2017,12/31/2017,NEB,US
USA-KY-92-KY-NursingHome-long_term_care-122,100425,HILLCREST HEALTH & REHABILITATION CENTER,Long-Term Care,1245 AMERICAN GREETING ROAD,CORBIN,40702,WHITLEY,"HILLCREST NURSING HOME OF CORBIN, INC.",GAIL,GIBBS,(606) 528-8917,120,7/1/2017,6/30/2018,SEB,US
USA-KY-92-KY-NursingHome-long_term_care-123,100189,HILLSIDE CENTER,Long-Term Care,1500 PRIDE AVENUE,MADISONVILLE,42431,HOPKINS,HBR MADISONVILLE LLC,Melinda,Burgard,(270) 821-1813,71,2/1/2017,1/31/2018,WEB,US
USA-KY-92-KY-NursingHome-long_term_care-124,100493,HOME OF THE INNOCENTS,Long-Term Care,1100 EAST MARKET STREET,LOUISVILLE,40206,JEFFERSON,"HOME OF THE INNOCENTS, INC.",JEFF,LEWIS,(502) 596-1000,76,6/1/2017,5/31/2018,NEB,US
USA-KY-92-KY-NursingHome-long_term_care-125,100408,HOPKINS CENTER,Long-Term Care,460 SOUTH COLLEGE STREET,WOODBURN,42170,WARREN,"HBR WOODBURN, LLC",JENNIFER,SOLDEVILLA,(270) 529-2853,50,11/1/2016,10/31/2017,WEB,US
USA-KY-92-KY-NursingHome-long_term_care-126,100645,HURSTBOURNE CARE CENTRE AT STONY BROOK,Long-Term Care,2200 STONY BROOK DR,LOUISVILLE,40220,JEFFERSON,"HURSTBOURNE HEALTHCARE, LLC",JOSHUA,SCHINDLER,(502) 495-6240,132,1/1/2017,12/31/2017,NEB,US
USA-KY-92-KY-NursingHome-long_term_care-127,100624,HYDEN HEALTH & REHABILITATION CENTER,Long-Term Care,21040 US HWY 421 SOUTH,HYDEN,41749,LESLIE,"HYDEN NURSING HOME, LLC",MELISSA,SPARKS,(606) 672-2940,94,11/1/2016,10/31/2017,SEB,US
USA-KY-92-KY-NursingHome-long_term_care-128,100437,IRVINE NURSING AND REHABILITATION CENTER,Long-Term Care,411 BERTHA WALLACE DRIVE,IRVINE,40336,ESTILL,"IRVINE HEALTH FACILITIES, L.P.",Lauren ,Sword,(606) 723-5153,86,04/010/2017,3/31/2018,SEB,US
USA-KY-92-KY-NursingHome-long_term_care-129,100349,JOHNSON MATHERS NURSING HOME,Long-Term Care,2323 CONCRETE ROAD,CARLISLE,40311,NICHOLAS,"THAMES HEALTHCARE GROUP, LLC",DORIS,ECTON,(859) 289-3492,104,6/1/2017,5/31/2018,EEB,US
USA-KY-92-KY-NursingHome-long_term_care-130,100978,JOSEPH EDDIE BALLARD WESTERN KENTUCKY VETERANS CEN,Long-Term Care,926 VETERANS DRIVE,HANSON,42413,HOPKINS,COMMONWEALTH OF KENTUCKY,LADONNA,SCOTT,(270) 322-9087,156,3/1/2017,2/28/2018,WEB,US
USA-KY-92-KY-NursingHome-long_term_care-131,100158,KENSINGTON CENTER,Long-Term Care,225 SAINT JOHN ROAD,ELIZABETHTOWN,42701,HARDIN,"HBR ELIZABETHTOWN, LLC",CASSIE,ALLEN,(270) 769-3314,82,1/1/2017,12/31/2017,NEB,US
USA-KY-92-KY-NursingHome-long_term_care-132,100321,KENWOOD HEALTH AND REHABILITATION CENTER,Long-Term Care,130 MEADOWLARK DRIVE,RICHMOND,40475,MADISON,"RICHMOND HEALTH FACILITIES-KENWOOD, L.P.",GLENN,COX,(859) 623-9472,93,7/1/2017,6/30/2018,SEB,US
USA-KY-92-KY-NursingHome-long_term_care-133,100765,KINDRED HOSPITAL - LOUISVILLE,Long-Term Care,1313 ST. ANTHONY PLACE,LOUISVILLE,40205,JEFFERSON,"KINDRED HOSPITALS, LIMITED PARTNERSHIP",MICHAEL,RABUKA,(502) 627-1589,47,5/1/2017,4/30/2018,NEB,US
USA-KY-92-KY-NursingHome-long_term_care-134,100232,KINDRED NURSING AND REHABILITATION-BASHFORD,Long-Term Care,3535 BARDSTOWN ROAD,LOUISVILLE,40218,JEFFERSON,KINDRED NURSING CENTERS LIMITED PARTNERSHIP,DANA,ROCK,(502) 459-1400,122,11/1/2016,10/31/2017,NEB,US
USA-KY-92-KY-NursingHome-long_term_care-135,100031,KINGS DAUGHTERS MEDICAL CENTER,Long-Term Care,2201 LEXINGTON AVE,ASHLAND,41101,BOYD,ASHLAND HOSPITAL CORPORATION,MICHAEL,THOMPSON,(606) 327-4557,20,3/1/2017,2/28/2018,EEB,US
USA-KY-92-KY-NursingHome-long_term_care-136,100029,KINGSBROOK LIFECARE CENTER,Long-Term Care,2500 STATE ROUTE 5,ASHLAND,41102,BOYD,ASHLAND NURSING HOME CORPORATION,CURTIS,METZLER,(606) 324-1414,137,4/1/2017,3/31/2018,EEB,US
USA-KY-92-KY-NursingHome-long_term_care-137,100424,KLONDIKE CENTER,Long-Term Care,3802 KLONDIKE LANE,LOUISVILLE,40218,JEFFERSON,"KLONDIKE MANOR, LLC",STEFANIE,JENKINS,(502) 452-1579,62,2/1/2017,1/31/2018,NEB,US
USA-KY-92-KY-NursingHome-long_term_care-138,100495,KNOTT COUNTY HEALTH & REHABILITATION CENTER,Long-Term Care,388 PERKINS MADDEN ROAD,HINDMAN,41822,KNOTT,"KNOTT COUNTY NURSING HOME, INC.",RUBY,PIGMAN,(606) 785-5011,92,6/1/2017,5/31/2018,SEB,US
USA-KY-92-KY-NursingHome-long_term_care-139,100708,LAKE CUMBERLAND REGIONAL HOSPITAL SCU,Long-Term Care,305 LANGDON STREET,SOMERSET,42502,PULASKI,"LAKE CUMBERLAND REGIONAL HOSPITAL, LLC",JEFF,HERNDON,(606) 678-3323,12,7/1/2017,6/30/2018,SEB,US
USA-KY-92-KY-NursingHome-long_term_care-140,100514,LAKE WAY NURSING AND REHABILITATION CENTER,Long-Term Care,2607 MAIN STREET HWY 641 SOUTH,BENTON,42025,MARSHALL,"THAMES HEALTHCARE GROUP, LLC",TAMMY,YORK,(270) 527-3296,96,4/1/2017,3/31/2018,WEB,US
USA-KY-92-KY-NursingHome-long_term_care-141,100239,"LANDMARK OF LOUISVILLE REHABILITATION AND NURSING CENTER, LLC. ",Long-Term Care,1155 EASTERN PARKWAY,LOUISVILLE,40217,JEFFERSON,"LANDMARK OF LOUISVILLE REHABILITATION AND NURSING CENTER, LLC. ",MARSH,TODD,(502) 636-5241,252,2/1/2017,1/31/2018,NEB,US
USA-KY-92-KY-NursingHome-long_term_care-142,100502,LAUREL CREEK HEALTH CARE CENTER,Long-Term Care,1033 NORTH HIGHWAY 11,MANCHESTER,40962,CLAY,"LAUREL CREEK HEALTH CARE CENTER, LLC",Susan,Bush,(606) 598-6163,106,8/1/2017,7/31/2018,SEB,US
USA-KY-92-KY-NursingHome-long_term_care-143,100280,LAUREL HEIGHTS HOME FOR THE ELDERLY,Long-Term Care,208 WEST TWELFTH STREET,LONDON,40743,LAUREL,"LAUREL HOUSING, INC.",KATHEY,YOUNG,(606) 864-4155,160,5/1/2017,4/30/2018,SEB,US
USA-KY-92-KY-NursingHome-long_term_care-144,100284,LEE COUNTY CARE & REHABILITATION CENTER,Long-Term Care,246 EAST MAIN STREET,BEATTYVILLE,41311,LEE,"LP BEATTYVILLE, LLC",MARILYN KAYE,WILSON,(606) 464-3611,109,4/1/2017,3/31/2018,SEB,US
USA-KY-92-KY-NursingHome-long_term_care-145,100604,LETCHER MANOR,Long-Term Care,73 PIEDMONT DRIVE,WHITESBURG,41858,LETCHER,"DJ LETCHER MANOR, LLC",CARLA,BISHNOI,(606) 633-1434,142,10/1/2015,9/30/2017,SEB,US
USA-KY-92-KY-NursingHome-long_term_care-146,100527,LEXINGTON COUNTRY PLACE,Long-Term Care,700 MASON HEADLEY ROAD,LEXINGTON,40504,FAYETTE,FS LEXINGTON TENANT TRUST,TINA,WHITT,(859) 276-1083,59,10/1/2016,9/30/2017,EEB,US
USA-KY-92-KY-NursingHome-long_term_care-147,100685,LIBERTY CARE AND REHABILITATION CENTER,Long-Term Care,616 S WALLACE WILKINSON BLVD,LIBERTY,42539,CASEY,"LP LIBERTY, LLC",WILLIAM TODD,BRYANT,(606) 787-6889,97,6/1/2017,5/31/2018,SEB,US
USA-KY-92-KY-NursingHome-long_term_care-148,100489,LIFE CARE CENTER OF BARDSTOWN,Long-Term Care,120 LIFE CARE WAY,BARDSTOWN,40004,NELSON,"BARDSTOWN MEDICAL INVESTORS, LTD",CRYSTAL,HAMILTON,(502) 348-4220,100,5/1/2017,4/30/2018,NEB,US
USA-KY-92-KY-NursingHome-long_term_care-149,100011,LIFE CARE CENTER OF LACENTER,Long-Term Care,252 W. 5TH ST.,LA CENTER,42056,BALLARD,"LA CENTER OPERATIONS, LLC",GINGER,ATKINS,(270) 665-5681,70,2/1/2017,1/31/2018,WEB,US
USA-KY-92-KY-NursingHome-long_term_care-150,100376,LIFE CARE CENTER OF MOREHEAD,Long-Term Care,933 NORTH TOLLIVER ROAD,MOREHEAD,40351,ROWAN,"CAMPBELL/PRESTON MEDICAL INVESTORS, LLC",WILLIAM,HURST,(606) 784-7518,97,2/1/2017,1/31/2018,EEB,US
USA-KY-92-KY-NursingHome-long_term_care-151,100641,LITTLE SISTERS OF THE POOR,Long-Term Care,15 AUDUBON PLAZA DRIVE,LOUISVILLE,40217,JEFFERSON,"HOME FOR THE AGED LITTLE SISTERS OF THE POOR, INC",MAUREEN,COURTNEY,(502) 636-2300,35,4/1/2017,3/31/2018,NEB,US
USA-KY-92-KY-NursingHome-long_term_care-152,100439,LORETTO MOTHERHOUSE INFIRMARY,Long-Term Care,515 NERINX ROAD,NERINX,40049,MARION,LORETTO LITERARY & BENEVOLENT INSTITUTION,MICHELLE,ESSEX,(270) 865-5811,59,4/1/2017,6/30/2018,SEB,US
USA-KY-92-KY-NursingHome-long_term_care-153,100224,LOUISVILLE PROTESTANT ALTENHEIM,Long-Term Care,936 BARRETT AVENUE,LOUISVILLE,40204,JEFFERSON,"LOUISVILLE PROTESTANT ALTENHEIM, INC.",MARY JO,COKER,(502) 584-7417,0,2/1/2017,1/31/2018,NEB,US
USA-KY-92-KY-NursingHome-long_term_care-154,100454,MADISON HEALTH AND REHABILITATION CENTER,Long-Term Care,131 MEADOWLARK DRIVE,RICHMOND,40475,MADISON,"RICHMOND HEALTH FACILITITES-MADISON, L.P.",Sherrie,JASPER,(859) 623-3564,92,4/1/2017,3/31/2018,SEB,US
USA-KY-92-KY-NursingHome-long_term_care-155,100268,MADONNA MANOR,Long-Term Care,2344 AMSTERDAM ROAD,VILLA HILLS,41017,KENTON,"MADONNA MANOR, INC.",NANCY,PHILLIPS,(859) 341-3981,60,11/1/2016,10/31/2017,EEB,US
USA-KY-92-KY-NursingHome-long_term_care-156,100647,MAGNOLIA VILLAGE,Long-Term Care,1381 CAMPBELL LANE,BOWLING GREEN,42104,WARREN,HBR CAMPBELL LANE LLC,JENNIFER,SOLDEVILLA,(270) 843-0587,60,7/1/2017,6/30/2018,WEB,US
USA-KY-92-KY-NursingHome-long_term_care-157,100661,MARTIN COUNTY HEALTH CARE FACILITY,Long-Term Care,62 MAUDE ROAD,INEZ,41224,MARTIN,MARTIN MANOR LLC,BETH,ARNETT,(606) 298-0091,65,6/1/2017,5/31/2018,SEB,US
USA-KY-92-KY-NursingHome-long_term_care-158,100225,MASONIC HOME OF LOUISVILLE,Long-Term Care,240 MASONIC HOME DRIVE,MASONIC HOME,40041,JEFFERSON,"MASONIC HOMES OF KENTUCKY, INC.",SUZANNE,RINNE,(502) 897-4907,167,12/1/2016,11/30/2017,NEB,US
USA-KY-92-KY-NursingHome-long_term_care-159,100386,MASONIC HOME OF SHELBYVILLE,Long-Term Care,711 FRANKFORT ROAD,SHELBYVILLE,40066,SHELBY,"MASONIC HOMES OF KENTUCKY, INC.",CONJUNA,COLLIER,(502) 633-3486,117,7/1/2017,6/30/2018,NEB,US
USA-KY-92-KY-NursingHome-long_term_care-160,100111,MAYFAIR MANOR,Long-Term Care,3300 TATES CREEK ROAD,LEXINGTON,40502,FAYETTE,"LP LEXINGTON, LLC",JASON,ARMSTRONG,(859) 266-2126,98,6/1/2017,5/31/2018,EEB,US
USA-KY-92-KY-NursingHome-long_term_care-161,100333,MAYSVILLE NURSING AND REHABILITATION FACILITY,Long-Term Care,620 PARKER ROAD,MAYSVILLE,41056,MASON,MAYSVILLE MANOR LLC,CORTNEY,BURKHART,(606) 564-8835,130,7/1/2017,6/30/2018,EEB,US
USA-KY-92-KY-NursingHome-long_term_care-162,100306,MCCRACKEN NURSING AND REHABILITATION CENTER,Long-Term Care,867 MCGUIRE AVE.,PADUCAH,42001,MCCRACKEN,"PADUCAH HEALTH FACILITIES, L.P.",DAVID,MILLER,(270) 442-6168,103,6/1/2017,5/31/2018,WEB,US
USA-KY-92-KY-NursingHome-long_term_care-163,100727,MCDOWELL SKILLED NURSING FACILITY,Long-Term Care,"206 MILBY STREET, PO BOX 220",GREENSBURG,42743,GREEN,"JANE TODD CRAWFORD MEMORIAL HOSPITAL, INC.",BETH,ODLE,(270) 932-4211,0,1/1/2017,12/31/2017,SEB,US
USA-KY-92-KY-NursingHome-long_term_care-164,100695,MEADOWS ICF/IID,Long-Term Care,210 MEADOWS DRIVE,MOUNT WASHINGTON,40047,BULLITT,CABINET FOR HEALTH SERVICES,SUELLEN,WHITE,(502) 538-8151,8,1/1/2017,12/31/2017,NEB,US
USA-KY-92-KY-NursingHome-long_term_care-165,100470,METCALFE HEALTH CARE CENTER,Long-Term Care,701 SKYLINE DRIVE,EDMONTON,42129,METCALFE,"METCALFE HEALTH SERVICES, INC.",AMY,NEIGHBORS,(270) 432-2921,71,11/1/2016,10/31/2017,SEB,US
USA-KY-92-KY-NursingHome-long_term_care-166,100639,MIDDLESBORO NURSING AND REHABILITATION FACILITY,Long-Term Care,235 NEW WILSON LANE,MIDDLESBORO,40965,BELL,MIDDLESBORO MANOR LLC,ALICE,MADDOX,(606) 248-0925,95,1/1/2017,12/31/2017,SEB,US
USA-KY-92-KY-NursingHome-long_term_care-167,100472,"MILLS HEALTH & REHAB CENTER, INC",Long-Term Care,500 BECK LANE,MAYFIELD,42066,GRAVES,"MILLS HEALTH & REHAB CENTER, INC.",DAVID,DIETZ,(270) 247-7890,98,10/1/2016,9/30/2017,WEB,US
USA-KY-92-KY-NursingHome-long_term_care-168,100400,MORGANFIELD NURSING & REHABILITATION CENTER,Long-Term Care,509 NORTH CARRIER ST.,MORGANFIELD,42437,UNION,"MORGANFIELD HEALTH FACILITIES, L.P.",MARY,WOOD,(270) 389-3513,60,4/1/2017,3/31/2018,WEB,US
USA-KY-92-KY-NursingHome-long_term_care-169,100045,MORGANTOWN CARE & REHABILITATION CENTER,Long-Term Care,201 SOUTH WARREN STREET,MORGANTOWN,42261,BUTLER,"LP MORGANTOWN, LLC",AMY,PHELPS,(270) 526-3368,122,5/1/2017,4/30/2018,WEB,US
USA-KY-92-KY-NursingHome-long_term_care-170,100688,MOUNTAIN MANOR OF PAINTSVILLE,Long-Term Care,1025 EUCLID AVENUE,PAINTSVILLE,41240,JOHNSON,"PAINTSVILLE INVESTORS, INC.",EMILY,JONES-GRAY,(606) 789-5808,126,10/1/2016,9/30/2017,SEB,US
USA-KY-92-KY-NursingHome-long_term_care-171,100521,MOUNTAIN VIEW HEALTH CARE CENTER,Long-Term Care,945 WEST RUSSELL STREET,ELKHORN CITY,41522,PIKE,MOUNTAIN VIEW HEALTHCARE AND REHABILITATION CENTER,CATHY,ALLEN,(606) 754-4134,106,12/1/2016,11/30/2017,SEB,US
USA-KY-92-KY-NursingHome-long_term_care-172,100496,MOUNTAIN VIEW NURSING & REHABILITATION CENTER,Long-Term Care,39 FERNDALE APARTMENTS ROAD,PINEVILLE,40977,BELL,"HANGING ROCK, LTC, LLC",VIVIAN,LAMBERT,(606) 337-7071,115,2/1/2017,1/31/2018,SEB,US
USA-KY-92-KY-NursingHome-long_term_care-173,100467,NAZARETH HOME,Long-Term Care,2000 NEWBURG ROAD,LOUISVILLE,40205,JEFFERSON,"NAZARETH HOME, INC",MARY,HAYNES,(502) 459-9681,118,4/1/2017,3/31/2018,NEB,US
USA-KY-92-KY-NursingHome-long_term_care-174,100248,NAZARETH HOME CLIFTON,Long-Term Care,2120 PAYNE STREET,LOUISVILLE,40206,JEFFERSON,"NAZERETH HOME, INC",LISA,BIDDLE-PUFFER,(502) 895-9425,121,5/1/2017,4/30/2018,NEB,US
USA-KY-92-KY-NursingHome-long_term_care-175,100015,"NHC HEALTHCARE, GLASGOW",Long-Term Care,109  HOMEWOOD BLVD.,GLASGOW,42141,BARREN,"NHC HEALTHCARE/GLASGOW, LLC",DENISE,BILLINGSLEY,(270) 651-6126,194,11/1/2016,10/31/2017,WEB,US
USA-KY-92-KY-NursingHome-long_term_care-176,100185,"NHC HEALTHCARE, MADISONVILLE",Long-Term Care,419 NORTH SEMINARY ST,MADISONVILLE,42431,HOPKINS,"NHC HEALTHCARE/MADISONVILLE, LLC",DANNY,BELCHER,(270) 821-5564,94,6/1/2017,5/31/2018,WEB,US
USA-KY-92-KY-NursingHome-long_term_care-177,100040,NIM HENSON GERIATRIC CENTER,Long-Term Care,420 JETT DRIVE,JACKSON,41339,BREATHITT,BREATHITT CO GERIATRIC CORP.,PHILLIP,LITTERAL,(606) 666-2456,120,9/1/2016,Renewal Pending,SEB,US
USA-KY-92-KY-NursingHome-long_term_care-178,100110,NORTHPOINT/LEXINGTON HEALTHCARE CENTER,Long-Term Care,1500 TRENT BOULEVARD,LEXINGTON,40515,FAYETTE,"NORTHPOINT SENIOR SERVICES KY I, LLC",ELIZABETH,THORNTON,(859) 272-2273,150,12/1/2016,11/30/2017,EEB,US
USA-KY-92-KY-NursingHome-long_term_care-179,100750,NURSING FACILITY OF HARDIN MEMORIAL HOSPITAL,Long-Term Care,913 N. DIXIE AVE.,ELIZABETHTOWN,42701,HARDIN,"HARDIN COUNTY, KENTUCKY",JOHN,GODFREY,(270) 706-1206,15,12/1/2016,11/30/2017,NEB,US
USA-KY-92-KY-NursingHome-long_term_care-180,101018,OAKLAWN HEALTH & REHABILITATION CENTER,Long-Term Care,300 SHELBY STATION DRIVE,LOUISVILLE,40245,JEFFERSON,"NEW OAKLAWN INVESTMENTS, LLC",MIKEAL,PICKRELL,(502) 254-0009,130,10/1/2016,9/30/2017,NEB,US
USA-KY-92-KY-NursingHome-long_term_care-181,100523,OAKMONT MANOR,Long-Term Care,1100 GRANDVIEW DRIVE,FLATWOODS,41139,GREENUP,"OAKMONT OPERATIONS, LLC",SHANNA,CARVER,(606) 836-3187,85,3/1/2017,2/28/2018,EEB,US
USA-KY-92-KY-NursingHome-long_term_care-182,100330,OAKVIEW NURSING & REHABILITATION CENTER,Long-Term Care,10456 US HIGHWAY 62,CALVERT CITY,42029,MARSHALL,"LP CALVERT CITY, LLC",Devin,Dame,(270) 898-6288,100,3/1/2017,2/28/2018,WEB,US
USA-KY-92-KY-NursingHome-long_term_care-183,100426,"OAKWOOD ICF/IID, UNIT 1",Long-Term Care,2441 SOUTH HIGHWAY 27,SOMERSET,42501,PULASKI,COMMONWEALTH OF KENTUCKY,GARRY,GREENE,(606) 677-4068,60,3/1/2017,2/28/2018,SEB,US
USA-KY-92-KY-NursingHome-long_term_care-184,101089,"OAKWOOD ICF/IID, UNIT 2",Long-Term Care,2441 SOUTH HIGHWAY 27,SOMERSET,42501,PULASKI,COMMONWEALTH OF KENTUCKY,LEAH,ANTLE,(606) 677-4068,48,3/1/2017,2/28/2018,SEB,US
USA-KY-92-KY-NursingHome-long_term_care-185,101090,"OAKWOOD ICF/IID, UNIT 3",Long-Term Care,2441 SOUTH HIGHWAY 27,SOMERSET,42501,PULASKI,COMMONWEALTH OF KENTUCKY,DAVID,PHELPS,(606) 677-4068,24,3/1/2017,2/28/2018,SEB,US
USA-KY-92-KY-NursingHome-long_term_care-186,101091,"OAKWOOD ICF/IID, UNIT 4",Long-Term Care,2441 SOUTH HIGHWAY 27,SOMERSET,42501,PULASKI,COMMONWEALTH OF KENTUCKY,DAVID,PHELPS,(606) 677-4068,21,3/1/2017,2/28/2018,SEB,US
USA-KY-92-KY-NursingHome-long_term_care-187,100458,OUTWOOD ICF/IID,Long-Term Care,23524 DAWSON SPRINGS ROAD,DAWSON SPRINGS,42408,HOPKINS,COMMONWEALTH OF KENTUCKY CABINET FOR HEALTH SERVIC,REBECCA,PORTER,(270) 797-3771,80,1/1/2017,12/31/2017,WEB,US
USA-KY-92-KY-NursingHome-long_term_care-188,100093,OWENSBORO CENTER,Long-Term Care,1205 LEITCHFIELD RD.,OWENSBORO,42303,DAVIESS,"LEISURE YEARS NURSING, LLC",JEFFREY,BAXLEY,(270) 684-0464,145,10/1/2016,9/30/2017,WEB,US
USA-KY-92-KY-NursingHome-long_term_care-189,100734,OWENSBORO HEALTH MUHLENBERG COMMUNITY HOSPITAL LTC,Long-Term Care,440 HOPKINSVILLE ST.,GREENVILLE,42345,MUHLENBERG,"OH MUHLENBERG, LLC",BECKY,JAGGERS,(270) 338-8431,45,9/1/2017,8/31/2018,WEB,US
USA-KY-92-KY-NursingHome-long_term_care-190,100508,OWENTON CENTER,Long-Term Care,905 HWY 127 NORTH,OWENTON,40359,OWEN,OWENTON MANOR NURSING LLC,ALAN,WADE,(502) 484-5721,100,1/1/2017,12/31/2017,NEB,US
USA-KY-92-KY-NursingHome-long_term_care-191,100526,"OWSLEY COUNTY HEALTH CARE CENTER, INC",Long-Term Care,HIGHWAY 11,BOONEVILLE,41314,OWSLEY,"OWSLEY CO HEALTH CARE CENTER, INC.",WHITTNEY,YOUNTS,(606) 593-6302,91,7/1/2017,6/30/2018,SEB,US
USA-KY-92-KY-NursingHome-long_term_care-192,100757,PARK TERRACE HEALTH CAMPUS,Long-Term Care,9700 STONESTREET ROAD,LOUISVILLE,40272,JEFFERSON,"TRILOGY REAL ESTATE KENTUCKY, LLC",DANA,BOBLITT,(502) 995-6600,88,9/1/2016,Renewal Pending,NEB,US
USA-KY-92-KY-NursingHome-long_term_care-193,100310,PARKVIEW NURSING & REHABILITATION CENTER,Long-Term Care,544 LONE OAK ROAD,PADUCAH,42003,MCCRACKEN,"CONSOLIDATED RESOURCES HEALTH CARE FUND I, L.P.",David ,Miller,(270) 443-6543,228,2/1/2017,1/31/2018,WEB,US
USA-KY-92-KY-NursingHome-long_term_care-194,100599,PARKVIEW NURSING AND REHABILITATION CENTER,Long-Term Care,200 NURSING HOME LANE,PIKEVILLE,41501,PIKE,"PARKVIEW HEALTHCARE, LLC",Vicki,Bradley-Steege,(606) 639-4840,120,4/1/2017,3/31/2018,SEB,US
USA-KY-92-KY-NursingHome-long_term_care-195,100990,PAUL E PATTON EASTERN KY VETERANS CENTER,Long-Term Care,200 VETERANS DRIVE,HAZARD,41701,PERRY,"COMMONWEALTH OF KY, DEPT OF VETERANS AFFAIRS",NEIL,NAPIER,(606) 435-6196,120,4/1/2017,3/31/2018,SEB,US
USA-KY-92-KY-NursingHome-long_term_care-196,100725,PINEVILLE COMMUNITY HOSPITAL,Long-Term Care,850 RIVERVIEW AVENUE,PINEVILLE,40977,BELL,"PINEVILLE COMMUNITY HOSPITAL ASSOCIATION, INC.",DEBORAH,EVANS,(606) 337-3051,30,9/1/2016,Renewal Pending,SEB,US
USA-KY-92-KY-NursingHome-long_term_care-197,100484,"PIONEER TRACE GROUP, LLC",Long-Term Care,115 PIONEER TRACE,FLEMINGSBURG,41041,FLEMING,"PIONEER TRACE GROUP, LLC",ROY,BABER,(606) 845-2131,92,11/1/2016,9/30/2017,EEB,US
USA-KY-92-KY-NursingHome-long_term_care-198,100126,PRESTONSBURG HEALTH CARE CENTER,Long-Term Care,147 NORTH HIGHLAND AVENUE,PRESTONSBURG,41653,FLOYD,"LP PRESTONSBURG, LLC",LYNN,WATTS,(606) 886-2378,56,1/1/2017,12/31/2017,SEB,US
USA-KY-92-KY-NursingHome-long_term_care-199,100049,"PRINCETON HEALTH & REHAB CENTER, INC",Long-Term Care,1333 WEST MAIN ST.,PRINCETON,42445,CALDWELL,"PRINCETON HEALTH & REHAB CENTER, INC.",CYNTHIA,BRUTON,(270) 365-3541,104,2/1/2017,1/31/2018,WEB,US
USA-KY-92-KY-NursingHome-long_term_care-200,100632,PROVIDENCE GALLATIN,Long-Term Care,499 CENTER STREET,WARSAW,41095,GALLATIN,"PROVIDENCE HEALTHCARE OF GALLATIN, LLC",STACIE,DARNOLD,(859) 567-4548,120,12/1/2016,11/30/2017,NEB,US
USA-KY-92-KY-NursingHome-long_term_care-201,100108,PROVIDENCE HOMESTEAD,Long-Term Care,1608 VERSAILLES ROAD,LEXINGTON,40504,FAYETTE,"PROVIDENCE HEALTHCARE OF HOMESTEAD, LLC",TREVOR,DAVIS,(859) 252-0871,136,6/1/2017,5/31/2018,EEB,US
USA-KY-92-KY-NursingHome-long_term_care-202,100201,PROVIDENCE LOUISVILLE EAST POST ACUTE,Long-Term Care,4200 BROWNS LANE,LOUISVILLE,40220,JEFFERSON,"LOUISVILLE EAST POST ACUTE, LLC",STOCK,LONGHURST,(502) 459-8900,178,12/1/2016,11/30/2017,NEB,US
USA-KY-92-KY-NursingHome-long_term_care-203,100435,PROVIDENCE NEW CASTLE,Long-Term Care,50 ADAMS STREET,NEW CASTLE,40050,HENRY,"PROVIDENCE HEALTHCARE OF NEW CASTLE, LLC",TREVOR,DAVIS,(502) 845-2861,60,1/1/2017,12/31/2017,NEB,US
USA-KY-92-KY-NursingHome-long_term_care-204,100266,PROVIDENCE PAVILION,Long-Term Care,401 EAST 20TH STREET,COVINGTON,41014,KENTON,"PH PROVIDENCE, LLC",TRACY,JOHNSON-CROOM,(859) 283-6600,82,6/1/2017,5/31/2018,EEB,US
USA-KY-92-KY-NursingHome-long_term_care-205,100638,PROVIDENCE PINE MEADOWS,Long-Term Care,1608 HILL RISE DRIVE,LEXINGTON,40504,FAYETTE,"PROVIDENCE HEALTHCARE OF PINE MEADOWS, LLC",MARK,MILLET,(859) 254-2402,120,10/1/2016,9/30/2017,EEB,US
USA-KY-92-KY-NursingHome-long_term_care-206,100818,PROVIDENCE RICHWOOD,Long-Term Care,1012 RICHWOOD WAY,LA GRANGE,40031,OLDHAM,"PROVIDENCE HEALTHCARE OF RICHWOOD, LLC",MICHAEL,BOWLDEN,(502) 222-3186,120,12/1/2016,11/30/2017,NEB,US
USA-KY-92-KY-NursingHome-long_term_care-207,101281,RADCLIFF VETERANS CENTER,Long-Term Care,100 VETERANS DRIVE,RADCLIFF,40160,HARDIN,KY DEPARTMENT OF VETERANS AFFAIRS,ISRAEL,RAY,(270) 498-2503,120,2/13/2017,1/31/2018,NEB,US
USA-KY-92-KY-NursingHome-long_term_care-208,100423,REDBANKS,Long-Term Care,851 KIMSEY LANE,HENDERSON,42420,HENDERSON,HENDERSON COUNTY HEALTH CARE CORPORATION,KEN,GRAVES,(270) 826-6436,222,4/1/2017,3/31/2018,WEB,US
USA-KY-92-KY-NursingHome-long_term_care-209,100440,REDBANKS COLONIAL TERRACE,Long-Term Care,142 ROGER POWELL RD,SEBREE,42455,WEBSTER,"REDBANKS COLONIAL TERRACE, INC",SHARI,NEWTON,(270) 835-2533,87,11/1/2016,10/31/2017,WEB,US
USA-KY-92-KY-NursingHome-long_term_care-210,100559,REGENCY CENTER,Long-Term Care,1550 RAYDALE DR,LOUISVILLE,40219,JEFFERSON,"REGENCY NURSING, LLC",DIANE,GARRETT,(502) 968-6600,110,3/1/2017,2/28/2018,NEB,US
USA-KY-92-KY-NursingHome-long_term_care-211,100503,REGIS WOODS,Long-Term Care,4604 LOWE RD,LOUISVILLE,40220,JEFFERSON,"PINE TREE VILLA, LLC",TIMOTHY,TRAVIS,(502) 451-1401,186,11/1/2016,10/31/2017,NEB,US
USA-KY-92-KY-NursingHome-long_term_care-212,100427,RIDGEWAY NURSING & REHABILITATION FACILITY,Long-Term Care,406 WYOMING ROAD,OWINGSVILLE,40360,BATH,"Ridgeway NRF Operations, LLC",RUTH,NELSON,(606) 674-6613,99,3/1/2017,2/28/2018,EEB,US
USA-KY-92-KY-NursingHome-long_term_care-213,100627,RIDGEWOOD TERRACE NURSING HOME,Long-Term Care,425 ISLAND FORD ROAD,MADISONVILLE,42431,HOPKINS,"RIDGEWOOD TERRRACE, LLC",TYLER,RUMMAGE,(270) 825-0166,110,9/1/2017,8/31/2018,WEB,US
USA-KY-92-KY-NursingHome-long_term_care-214,100362,RIVER VALLEY NURSING HOME,Long-Term Care,305 TAYLOR STREET #402,BUTLER,41006,PENDLETON,"BUTLER REST HOME, INC",MARY,COLEMAN,(859) 472-2217,60,6/1/2017,5/31/2018,EEB,US
USA-KY-92-KY-NursingHome-long_term_care-215,100686,RIVER'S BEND RETIREMENT COMMUNITY,Long-Term Care,300 BEECH ST.,KUTTAWA,42055,LYON,"RBRC, INC.",STACEY,BULLOCK,(270) 388-2868,40,4/1/2017,3/31/2018,WEB,US
USA-KY-92-KY-NursingHome-long_term_care-216,100430,RIVERS EDGE NURSING AND REHABILITATION CENTER,Long-Term Care,6301 BASS ROAD,PROSPECT,40059,JEFFERSON,"THAMES HEALTHCARE GROUP, LLC",JACKIE,CARLIN,(502) 228-8359,100,5/1/2017,4/30/2018,NEB,US
USA-KY-92-KY-NursingHome-long_term_care-217,100317,RIVERSIDE CARE & REHABILITATION CENTER,Long-Term Care,190 EAST HWY. 136,CALHOUN,42327,MCLEAN,"LP CALHOUN, LLC",LOGAN,MIDKIFF,(270) 273-3783,79,9/1/2016,Renewal Pending,WEB,US
USA-KY-92-KY-NursingHome-long_term_care-218,100504,RIVERVIEW HEALTH CARE CENTER,Long-Term Care,79 SPARROW LANE,PRESTONSBURG,41653,FLOYD,"LP PRESTONSBURG RIVERVIEW, LLC",MELISSA,ALLEN,(606) 886-9178,121,12/1/2016,11/30/2017,SEB,US
USA-KY-92-KY-NursingHome-long_term_care-219,100656,ROBERTSON COUNTY HEALTH CARE FACILITY,Long-Term Care,"1030 KENTONTOWN ROAD, P O BOX 170",MOUNT OLIVET,41064,ROBERTSON,ROBERTSON MANOR LLC,LINDA,MCCONNELL,(606) 724-5020,60,11/1/2016,10/31/2017,EEB,US
USA-KY-92-KY-NursingHome-long_term_care-220,100375,ROCKCASTLE HEALTH & REHABILITATION CENTER,Long-Term Care,371 WEST MAIN STREET,BRODHEAD,40409,ROCKCASTLE,"LP BRODHEAD, LLC",ALICIA,BULLOCK,(606) 758-8711,104,3/1/2017,2/28/2018,SEB,US
USA-KY-92-KY-NursingHome-long_term_care-221,100374,ROCKCASTLE REGIONAL HOSPITAL AND RESPIRATORY CARE,Long-Term Care,145 NEWCOMB AVENUE,MOUNT VERNON,40456,ROCKCASTLE,"ROCKCASTLE HOSPITAL & RESPIRATORY CARE CTR, INC",STEVE,ESTES,(606) 256-2195,127,1/1/2017,12/31/2017,SEB,US
USA-KY-92-KY-NursingHome-long_term_care-222,100115,ROSE MANOR HEALTH CARE,Long-Term Care,3057 NORTH CLEVELAND ROAD,LEXINGTON,40516,FAYETTE,ALFRED MCGREGOR,DEBORAH,ADDESSI,(859) 299-4117,34,3/1/2017,2/28/2018,EEB,US
USA-KY-92-KY-NursingHome-long_term_care-223,100269,ROSEDALE GREEN,Long-Term Care,4250 GLENN AVENUE,COVINGTON,41015,KENTON,"KENTON HOUSING, INC",LONDA,KNOLLMAN,(859) 431-2244,210,3/1/2017,2/28/2018,EEB,US
USA-KY-92-KY-NursingHome-long_term_care-224,100294,SALEM SPRINGLAKE HEALTH & REHABILITATION CENTER,Long-Term Care,509 NORTH HAYDEN AVE.,SALEM,42078,LIVINGSTON,"ORION SALEM, LLC",TERRI,HUMES,(270) 988-4572,75,12/1/2016,11/30/2017,WEB,US
USA-KY-92-KY-NursingHome-long_term_care-225,100519,SALYERSVILLE NURSING AND REHABILITATION CENTER,Long-Term Care,571 PARKWAY DRIVE,SALYERSVILLE,41465,MAGOFFIN,"SALYERSVILLE HEALTH FACILITIES, L.P.",ELAINE,JONES,(606) 349-6181,142,12/1/2016,11/30/2017,SEB,US
USA-KY-92-KY-NursingHome-long_term_care-226,100505,SANSBURY CARE CENTER,Long-Term Care,2625 BARDSTOWN ROAD,SAINT CATHARINE,40061,WASHINGTON,"SANSBURY CARE CENTER, INC.",PAMELA,BROOKS,(859)336-3974,48,8/1/2017,7/31/2018,EEB,US
USA-KY-92-KY-NursingHome-long_term_care-227,100544,SAYRE CHRISTIAN VILLAGE NURSING HOME,Long-Term Care,3775 BELLEAU WOOD DRIVE,LEXINGTON,40517,FAYETTE,"SAYRE CHRISTIAN VILLAGE NURSING HOME, INC.",DANA,GRAVITT,(859) 271-9000,119,1/1/2017,2/28/2018,EEB,US
USA-KY-92-KY-NursingHome-long_term_care-228,100396,SHADY LAWN NURSING AND REHABILITATION CENTER,Long-Term Care,2582 CERULEAN ROAD,CADIZ,42211,TRIGG,"CADIZ HEALTH FACILITIES, L.P.",TERRY,WILLIS,(270) 522-3236,50,3/1/2017,2/28/2018,WEB,US
USA-KY-92-KY-NursingHome-long_term_care-229,100415,SHEMWELL NURSING HOME,Long-Term Care,805 PRINCETON STREET,PROVIDENCE,42450,WEBSTER,"SHEMWELL HEALTHCARE, LLC",SHELLEY,LANEVE,(270) 667-5472,0,10/1/2016,9/30/2017,WEB,US
USA-KY-92-KY-NursingHome-long_term_care-230,100347,SIGNATURE HEALTHCARE AT COLONIAL REHAB & WELLNESS,Long-Term Care,708 BARTLEY AVENUE,BARDSTOWN,40004,NELSON,"LP BARDSTOWN, LLC",WILLIE,NORRIS,(502) 348-9260,65,7/1/2017,6/30/2018,NEB,US
USA-KY-92-KY-NursingHome-long_term_care-231,100233,SIGNATURE HEALTHCARE AT GLENVIEW,Long-Term Care,6000 HUNTING RD.,LOUISVILLE,40222,JEFFERSON,"LP LOUISVILLE NORTHFIELD, LLC",KAY,Bush,(502) 426-1425,120,7/1/2017,6/30/2018,NEB,US
USA-KY-92-KY-NursingHome-long_term_care-232,100431,SIGNATURE HEALTHCARE AT HERITAGE HALL REHAB & WELL,Long-Term Care,331 SOUTH MAIN STREET,LAWRENCEBURG,40342,ANDERSON,"LP LAWRENCEBURG, LLC",CASEY,MALONE,(502) 839-7246,94,5/1/2017,4/30/2018,EEB,US
USA-KY-92-KY-NursingHome-long_term_care-233,100090,SIGNATURE HEALTHCARE AT HILLCREST,Long-Term Care,3740 OLD HARTFORD RD,OWENSBORO,42303,DAVIESS,"LP OWENSBORO II, LLC",BILL,CONLEY,(270) 684-7259,156,3/1/2017,2/28/2018,WEB,US
USA-KY-92-KY-NursingHome-long_term_care-234,100602,SIGNATURE HEALTHCARE AT JACKSON MANOR REHA & WELLN,Long-Term Care,96 HIGHWAY  3444,ANNVILLE,40402,JACKSON,"LP ANNVILLE, LLC",MELISSA,MCINTOSH,(606) 364-5197,51,3/1/2017,2/28/2018,SEB,US
USA-KY-92-KY-NursingHome-long_term_care-235,100533,SIGNATURE HEALTHCARE AT JEFFERSON MANOR REHAB & WE,Long-Term Care,1801 LYNN WAY,LOUISVILLE,40222,JEFFERSON,"LP LOUISVILLE LYNN WAY, LLC",CHRIS,THORNE,(502) 426-4513,100,12/1/2016,11/30/2017,NEB,US
USA-KY-92-KY-NursingHome-long_term_care-236,100644,SIGNATURE HEALTHCARE AT JEFFERSON PLACE REHAB & WE,Long-Term Care,1705 HERR LANE,LOUISVILLE,40222,JEFFERSON,"LP LOUISVILLE HERR LANE, LLC",ADAM,MATHER,(502) 426-5600,95,11/1/2016,10/31/2017,NEB,US
USA-KY-92-KY-NursingHome-long_term_care-237,100226,SIGNATURE HEALTHCARE AT MEADOWVIEW REHAB & WELLNES,Long-Term Care,9701 WHIPPS MILL RD.,LOUISVILLE,40223,JEFFERSON,"LP LOUISVILLE WHIPPS MILL ROAD, LLC",LISA,ROMANS,(502) 426-2778,95,8/1/2017,7/31/2018,NEB,US
USA-KY-92-KY-NursingHome-long_term_care-238,100570,SIGNATURE HEALTHCARE AT NORTH HARDIN REHAB & WELLN,Long-Term Care,599 ROGERSVILLE RD.,RADCLIFF,40160,HARDIN,"LP RADCLIFF, LLC",KARA,MEREDITH,(270) 351-2999,148,6/1/2017,5/31/2018,NEB,US
USA-KY-92-KY-NursingHome-long_term_care-239,100453,SIGNATURE HEALTHCARE AT ROCKFORD REHAB & WELLNESS,Long-Term Care,4700 QUINN DR.,LOUISVILLE,40216,JEFFERSON,"LP LOUISVILLE QUINN DRIVE, LLC",LISA,GANN,(502) 448-5850,110,12/1/2016,11/30/2017,NEB,US
USA-KY-92-KY-NursingHome-long_term_care-240,101233,SIGNATURE HEALTHCARE AT STS MARY & ELIZABETH HOSPI,Long-Term Care,"1850 BLUEGRASS AVENUE, UNIT 3C",LOUISVILLE,40215-1161,JEFFERSON,"LP LOUISVILLE HOSPITAL SOUTH, LLC",JACKIE,SMITH,(502) 361-6000,20,1/1/2017,12/31/2017,NEB,US
USA-KY-92-KY-NursingHome-long_term_care-241,100517,SIGNATURE HEALTHCARE AT SUMMERFIELD REHAB & WELLNE,Long-Term Care,1877 FARNSLEY RD.,LOUISVILLE,40216,JEFFERSON,"LP LOUISVILLE FARNSLEY ROAD, LLC",CHRIS,BOYD,(502) 448-8622,165,11/1/2016,10/31/2017,NEB,US
USA-KY-92-KY-NursingHome-long_term_care-242,100003,SIGNATURE HEALTHCARE AT SUMMIT MANOR REHAB & WELLN,Long-Term Care,400 BOMAR HEIGHTS,COLUMBIA,42728,ADAIR,"LP COLUMBIA KY, LLC",MARCELLA,HODGES,(270) 384-2153,104,8/1/2017,7/31/2018,SEB,US
USA-KY-92-KY-NursingHome-long_term_care-243,100630,SIGNATURE HEALTHCARE AT TANBARK REHAB & WELLNESS C,Long-Term Care,1121 TANBARK ROAD,LEXINGTON,40515,FAYETTE,"NEW TANBARK HEALTH CARE CENTER, LLC",NIKKI,SCHILLING,(859) 273-7377,34,4/1/2017,3/31/2018,EEB,US
USA-KY-92-KY-NursingHome-long_term_care-244,100410,SIGNATURE HEALTHCARE OF BOWLING GREEN,Long-Term Care,550 HIGH ST.,BOWLING GREEN,42101,WARREN,"LP BOWLING GREEN, LLC",STEPHANIE,Lindsey,(270) 843-3296,176,7/1/2017,6/30/2018,WEB,US
USA-KY-92-KY-NursingHome-long_term_care-245,100494,SIGNATURE HEALTHCARE OF CARROLLTON REHAB & WELLNES,Long-Term Care,1206 ELEVENTH STREET,CARROLLTON,41045,CARROLL,"LP CARROLLTON, LLC",MATT,MCgREEVY,(502) 732-6683,78,6/1/2017,5/31/2018,NEB,US
USA-KY-92-KY-NursingHome-long_term_care-246,100221,SIGNATURE HEALTHCARE OF CHEROKEE PARK,Long-Term Care,2100 MILLVALE ROAD,LOUISVILLE,40205,JEFFERSON,"LP LOUISVILLE CHEROKEE PARK, LCC",DENNIS,BROOKS,(502) 451-0990,84,2/1/2017,1/31/2018,NEB,US
USA-KY-92-KY-NursingHome-long_term_care-247,100428,SIGNATURE HEALTHCARE OF EAST LOUISVILLE,Long-Term Care,2529 SIX MILE LANE,LOUISVILLE,40220,JEFFERSON,"LP LOUISVILLE EAST, LLC",Burke,Stephens,(502) 491-5560,128,6/1/2017,5/31/2018,NEB,US
USA-KY-92-KY-NursingHome-long_term_care-248,100162,SIGNATURE HEALTHCARE OF ELIZABETHTOWN,Long-Term Care,1117 WOODLAND DRIVE,ELIZABETHTOWN,42701,HARDIN,"LP E-TOWN, LLC",JOE,GAMBLE,(270) 769-2363,112,12/1/2016,11/30/2017,NEB,US
USA-KY-92-KY-NursingHome-long_term_care-249,100381,SIGNATURE HEALTHCARE OF GEORGETOWN,Long-Term Care,102 POCAHONTAS TRAIL ,GEORGETOWN,40324,SCOTT,"LP GEORGETOWN, LLC",ERICH,HAYMAN,(502) 863-3696,65,12/1/2016,11/30/2017,EEB,US
USA-KY-92-KY-NursingHome-long_term_care-250,100014,SIGNATURE HEALTHCARE OF GLASGOW REHAB & WELLNESS C,Long-Term Care,220 WESTWOOD ST.,GLASGOW,42141,BARREN,"LP GLASGOW, LLC",Marla,Staples,(270) 651-3499,68,6/1/2017,5/31/2018,WEB,US
USA-KY-92-KY-NursingHome-long_term_care-251,100662,SIGNATURE HEALTHCARE OF HART COUNTY REHAB & WELLNE,Long-Term Care,1505 SOUTH DIXIE STREET,HORSE CAVE,42749,HART,"LP HORSECAVE, LLC",FRED,ROWE,(270) 786-2200,104,8/1/2017,7/31/2018,NEB,US
USA-KY-92-KY-NursingHome-long_term_care-252,100354,SIGNATURE HEALTHCARE OF HARTFORD REHAB & WELLNESS,Long-Term Care,114 MCMURTRY AVE.,HARTFORD,42347,OHIO,"LP HARTFORD, LLC",TIFFANY,WINCHEL,(270) 298-7437,110,10/1/2016,9/30/2017,WEB,US
USA-KY-92-KY-NursingHome-long_term_care-253,100635,SIGNATURE HEALTHCARE OF MCCREARY COUNTY REHAB & WE,Long-Term Care,58 CAL HILL ROAD,PINE KNOT,42635,MCCREARY,"LP PINEKNOT, LLC",ANDREW,JACKSON,(606) 354-3155,60,3/1/2017,2/28/2018,SEB,US
USA-KY-92-KY-NursingHome-long_term_care-254,100337,SIGNATURE HEALTHCARE OF MONROE COUNTY REHAB & WELL,Long-Term Care,706 NORTH MAGNOLIA STREET,TOMPKINSVILLE,42167,MONROE,"LP TOMPKINSVILLE, LLC",RITA,CRABTREE,(270) 487-6135,104,3/1/2017,2/28/2018,SEB,US
USA-KY-92-KY-NursingHome-long_term_care-255,100367,SIGNATURE HEALTHCARE OF PIKEVILLE,Long-Term Care,260 SOUTH MAYO TRAIL,PIKEVILLE,41501,PIKE,"LP PIKEVILLE, LLC",JUDITH,BRANHAM,(606) 437-7327,106,10/1/2016,9/30/2017,SEB,US
USA-KY-92-KY-NursingHome-long_term_care-256,100452,SIGNATURE HEALTHCARE OF SOUTH LOUISVILLE,Long-Term Care,1120 CRISTLAND ROAD,LOUISVILLE,40214,JEFFERSON,"LP LOUISVILLE SOUTH, LLC",NICOLLE,MEADE,(502) 367-0104,100,6/1/2017,5/31/2018,NEB,US
USA-KY-92-KY-NursingHome-long_term_care-257,100603,SIGNATURE HEALTHCARE OF SPENCER COUNTY,Long-Term Care,625 TAYLORSVILLE RD,TAYLORSVILLE,40071,SPENCER,"LP TAYLORSVILLE, LLC",KAYCEE,LOUCKA,(502) 477-8838,120,3/1/2017,2/28/2018,NEB,US
USA-KY-92-KY-NursingHome-long_term_care-258,100506,SIGNATURE HEALTHCARE OF TRIMBLE COUNTY,Long-Term Care,50 SHEPHERD LANE,BEDFORD,40006,TRIMBLE,"LP BEDFORD, LLC",LAUREN,POWERS,(502) 255-3244,60,9/1/2017,8/31/2018,NEB,US
USA-KY-92-KY-NursingHome-long_term_care-259,100524,SOMERSET NURSING AND REHABILITATION FACILITY,Long-Term Care,106 GOVER STREET,SOMERSET,42502,PULASKI,"SOMERSET MANOR, LLC",JENNIFER,DAVIS,(606) 679-8331,123,11/1/2016,10/31/2017,SEB,US
USA-KY-92-KY-NursingHome-long_term_care-260,100499,SOMERWOODS NURSING & REHABILITATION CENTER,Long-Term Care,555 BOURNE AVENUE,SOMERSET,42501,PULASKI,"HANGING ROCK, LTC, LLC",BRIAN,JAGGERS,(606) 679-7421,166,9/1/2016,Renewal Pending,SEB,US
USA-KY-92-KY-NursingHome-long_term_care-261,100156,SOUTH SHORE NURSING & REHABILITATION CENTER,Long-Term Care,JAMES E. HANNAH DRIVE,SOUTH SHORE,41175,GREENUP,DIVERSICARE LEASING CORP.,ELIZABETH,TOWNSEND,(606) 932-3127,60,7/1/2017,6/30/2018,EEB,US
USA-KY-92-KY-NursingHome-long_term_care-262,100756,SPRING CREEK HEALTH CARE,Long-Term Care,1401 SOUTH 16TH STREET,MURRAY,42071,CALLOWAY,MURRAY CALLOWAY CO PUBLIC HOSPITAL CORP.,SANDRA,DICK,(270) 752-2900,226,7/1/2017,6/30/2018,WEB,US
USA-KY-92-KY-NursingHome-long_term_care-263,100149,"SPRING VIEW HEALTH & REHAB CENTER, INC",Long-Term Care,718 GOODWIN LANE,LEITCHFIELD,42754,GRAYSON,"SPRING VIEW HEALTH & REHAB CENTER, INC.",PAMELA,GRAY,(270) 259-4036,71,1/1/2017,12/31/2017,WEB,US
USA-KY-92-KY-NursingHome-long_term_care-264,100412,SPRINGFIELD NURSING & REHABILITATION CENTER,Long-Term Care,420 EAST GRUNDY AVENUE,SPRINGFIELD,40069,WASHINGTON,"SPRINGFIELD HEALTH FACILITIES, LP",AUSTIN,GIBSON,(859) 336-7771,70,4/1/2017,3/31/2018,EEB,US
USA-KY-92-KY-NursingHome-long_term_care-265,100513,SPRINGHURST HEALTH AND REHAB,Long-Term Care,3001 N. HURSTBOURNE PKWY.,LOUISVILLE,40241,JEFFERSON,"BAPTIST HOMES, INC.",LESLIE,BUTTERFIELD,(502) 426-5531,90,12/1/2016,11/30/2017,NEB,US
USA-KY-92-KY-NursingHome-long_term_care-266,100704,ST CLAIRE MEDICAL CENTER,Long-Term Care,222 MEDICAL CIRCLE,MOREHEAD,40351,ROWAN,"ST. CLAIRE MEDICAL CENTER, INC.",KEVIN,TRENT,(606) 783-6650,10,1/1/2017,12/31/2017,EEB,US
USA-KY-92-KY-NursingHome-long_term_care-267,100760,ST ELIZABETH FLORENCE SNF,Long-Term Care,4900 HOUSTON ROAD,FLORENCE,41042,BOONE,"ST. ELIZABETH MEDICAL CENTER, INC.",AMY,THOMPSON,(859) 212-4302,16,11/1/2016,10/31/2017,EEB,US
USA-KY-92-KY-NursingHome-long_term_care-268,100759,ST ELIZABETH FT THOMAS SNF,Long-Term Care,85 NORTH GRAND AVENUE,FORT THOMAS,41075,CAMPBELL,"ST. ELIZABETH MEDICAL CENTER, INC.",AMY,THOMPSON,(859) 572-3530,26,11/1/2016,10/31/2017,EEB,US
USA-KY-92-KY-NursingHome-long_term_care-269,100253,ST MATTHEWS CARE CENTER,Long-Term Care,227 BROWNS LANE,LOUISVILLE,40207,JEFFERSON,"ST MATTHEWS LEASING, LLC",JOSH,SCHINDLER,(502) 893-2595,125,11/1/2016,12/31/2017,NEB,US
USA-KY-92-KY-NursingHome-long_term_care-270,100290,Stanford Care And Rehabilitation,Long-Term Care,105 HARMON HEIGHTS,STANFORD,40484,LINCOLN,"Stanford Leasing, LLC",Dawn,Lewis,(606) 365-2141,128,1/20/2017,1/31/2018,SEB,US
USA-KY-92-KY-NursingHome-long_term_care-271,100445,STANTON NURSING AND REHABILITATION CENTER,Long-Term Care,31 DERICKSON LANE,STANTON,40380,POWELL,"STANTON HEALTH FACILITIES, L.P.",JOSEPH,DONCHATZ,(606) 663-2846,81,7/1/2017,6/30/2018,SEB,US
USA-KY-92-KY-NursingHome-long_term_care-272,100277,SUNRISE MANOR NURSING HOME,Long-Term Care,717 NORTH LINCOLN BLVD,HODGENVILLE,42748,LARUE,"LP HODGENVILLE, LLC",HUGHES,ASH,(270) 358-3103,137,1/1/2017,12/31/2017,NEB,US
USA-KY-92-KY-NursingHome-long_term_care-273,100312,SUPERIOR CARE HOME,Long-Term Care,100 MARSHALL COURT,PADUCAH,42001,MCCRACKEN,"SUPERIOR CARE HOMES, INC.",JENNIFER,MYERS,(270) 442-6884,108,12/1/2016,11/30/2017,WEB,US
USA-KY-92-KY-NursingHome-long_term_care-274,101153,SYMPHONY AT OAKLAWN,Long-Term Care,100 SHELBY STATION DR,LOUISVILLE,40245,JEFFERSON,"Shely Station Senior Care, LLC",SHAUNA,DARBYSHIRE,(502) 208-2906,,10/1/2016,9/30/2017,NEB,US
USA-KY-92-KY-NursingHome-long_term_care-275,100761,T J SAMSON COMMUNITY HOSPITAL,Long-Term Care,1301 N RACE ST,GLASGOW,42141,BARREN,"T. J. SAMSON COMMUNITY HOSPITAL, INC.",JIM,REID,(270) 651-4444,16,1/1/2017,12/31/2017,WEB,US
USA-KY-92-KY-NursingHome-long_term_care-276,100420,TAYLOR MANOR NURSING HOME,Long-Term Care,300 BERRY AVENUE,VERSAILLES,40383,WOODFORD,"TAYLOR MANOR, INC.",MARY,FAUSTINA ZUGELDER,(859) 873-4201,0,1/1/2017,12/31/2017,EEB,US
USA-KY-92-KY-NursingHome-long_term_care-277,100946,TELFORD TERRACE,Long-Term Care,1025 ROBERT L TELFORD DRIVE,RICHMOND,40475,MADISON,"MCCREADY MANOR, INC.",GILBERT,SHEW,(859) 626-5200,26,10/1/2016,9/30/2017,SEB,US
USA-KY-92-KY-NursingHome-long_term_care-278,100203,THE EPISCOPAL CHURCH HOME,Long-Term Care,7504 WESTPORT ROAD,LOUISVILLE,40222,JEFFERSON,THE EPISCOPAL CHURCH HOME INC,BEVERLY,EDWARDS,(502) 736-7800,139,10/1/2016,9/30/2017,NEB,US
USA-KY-92-KY-NursingHome-long_term_care-279,100551,THE FORUM AT BROOKSIDE,Long-Term Care,200 BROOKSIDE DRIVE,LOUISVILLE,40243,JEFFERSON,"FIVE STAR BROOKSIDE, LLC",SARA,SHAW,(502) 245-3048,40,5/1/2017,4/30/2018,NEB,US
USA-KY-92-KY-NursingHome-long_term_care-280,100222,THE GOOD SAMARITAN SOCIETY-JEFFERSONTOWN,Long-Term Care,3500 GOOD SAMARITAN WAY,JEFFERSONTOWN,40299,JEFFERSON,"THE EVANGELICAL LUTHERAN GOOD SAMARITAN SOCIETY, I",VALARIE,HUNTER,(502) 267-7403,98,7/1/2017,6/30/2018,NEB,US
USA-KY-92-KY-NursingHome-long_term_care-281,100393,THE GRANDVIEW NURSING & REHABILITATION FACILITY,Long-Term Care,640 WATER TOWER BYPASS,CAMPBELLSVILLE,42719,TAYLOR,"CNRF, LLC",CYNTHIA,O'BANION,(270) 465-4321,81,5/1/2017,4/30/2018,SEB,US
USA-KY-92-KY-NursingHome-long_term_care-282,100771,THE HERITAGE,Long-Term Care,192 BACON CREEK ROAD,CORBIN,40702,WHITLEY,WHITLEY COUNTY LLC,CATHY,WILLIS,(606) 526-1900,85,4/1/2017,3/31/2018,SEB,US
USA-KY-92-KY-NursingHome-long_term_care-283,101207,THE HOMEPLACE AT MIDWAY,Long-Term Care,671 EAST STEPHENS STREET,MIDWAY,40347,WOODFORD,"THE HOME PLACE AT MIDWAY, INC.",TONYA,COX,(502) 254-4275,23,11/1/2016,10/31/2017,EEB,US
USA-KY-92-KY-NursingHome-long_term_care-284,100438,THE JORDAN CENTER,Long-Term Care,270 E CLAYTON LANE,LOUISA,41230,LAWRENCE,"MCKENZIE HEALTH CARE, LLC",DAVID,MCKENZIE,(606) 638-4586,104,3/1/2017,2/28/2018,EEB,US
USA-KY-92-KY-NursingHome-long_term_care-285,100991,THE NEIGHBORHOOD NURSING FACILITY,Long-Term Care,100 NEIGHBORLY WAY,SOMERSET,42503,PULASKI,"MORNINGSIDE OF KENTUCKY, LP",SHARON,REYNOLDS,(606) 677-0166,0,4/1/2017,3/31/2018,SEB,US
USA-KY-92-KY-NursingHome-long_term_care-286,100737,THE TERRACE NURSING & REHABILITATION CENTER,Long-Term Care,1043 BROOKLYN BOULEVARD,BEREA,40403,MADISON,BEREA AREA DEVELOPMENT LLC,PAULA,STRUNK,(859) 228-0551,102,2/1/2017,1/31/2018,SEB,US
USA-KY-92-KY-NursingHome-long_term_care-287,100735,THE TRANSITIONAL CARE CENTER OF OWENSBORO,Long-Term Care,1201 PLEASANT VALLEY ROAD,OWENSBORO,42303,DAVIESS,"OWENSBORO HEALTH, INC.",JOY,EVERLY,(270) 688-2000,30,10/1/2016,9/30/2017,WEB,US
USA-KY-92-KY-NursingHome-long_term_care-288,100469,THE VILLA AT CHEVY CHASE,Long-Term Care,319 DUKE ROAD,LEXINGTON ,40502,FAYETTE,"DUKE ROAD PERSONAL CARE , LLC",SOLOMON,VAN METER,(859) 266-6031,,7/1/2017,6/30/2018,EEB,US
USA-KY-92-KY-NursingHome-long_term_care-289,100326,"THE VILLAGE OF LEBANON II, LLC",Long-Term Care,105 VILLAGE WAY,LEBANON,40033,MARION,"THE VILLAGE OF LEBANON, LLC",LINDA,ROSS,(270) 692-9000,38,8/1/2017,7/31/2018,SEB,US
USA-KY-92-KY-NursingHome-long_term_care-290,100646,"THE VILLAGE OF LEBANON II, LLC",Long-Term Care,105 VILLAGE WAY,LEBANON,40033,MARION,"THE VILLAGE OF LEBANON II, LLC",LINDA,ROSS,(270) 692-9000,16,8/1/2017,7/31/2018,SEB,US
USA-KY-92-KY-NursingHome-long_term_care-291,101215,THE WILLOWS AT CITATION,Long-Term Care,1376 SILVER SPRINGS DRIVE,LEXINGTON,40511,FAYETTE,"TRILOGY HEALTHCARE OF FAYETTE III, LLC",Brittany,Faucher,(859) 277-0320,54,6/1/2017,5/31/2018,EEB,US
USA-KY-92-KY-NursingHome-long_term_care-292,101286,THE WILLOWS AT FRITZ FARM,Long-Term Care,2710 MAN O WAR BLVD,LEXINGTON ,40515,FAYETTE,"TRILOGY HEALTHCARE OF FAYETTE II, LLC",BETH,BLAIR,859-273-0088,54,2/21/2017,2/28/2018,EEB,US
USA-KY-92-KY-NursingHome-long_term_care-293,101136,THE WILLOWS AT HAMBURG,Long-Term Care,2531 OLD ROSEBUD ROAD,LEXINGTON,40509,FAYETTE,"TRILOGY HEALTHCARE OF FAYETTE 1, LLC",Samuel,Frazier,(859) 543-0337,64,12/1/2016,11/30/2017,EEB,US
USA-KY-92-KY-NursingHome-long_term_care-294,100762,THE WILLOWS AT HARRODSBURG,Long-Term Care,464 LINDEN AVENUE,HARRODSBURG,40330,MERCER,"TRILOGY HEALTHCARE OF MERCER, LLC",RACHEL,HETTINGER,(859) 734-2953,34,3/1/2017,2/28/2018,EEB,US
USA-KY-92-KY-NursingHome-long_term_care-295,100651,THOMSON-HOOD VETERANS CENTER,Long-Term Care,100 VETERANS DRIVE,WILMORE,40390,JESSAMINE,COMMONWEALTH OF KENTUCKY,BENJAMIN,SWEGER,(859) 858-2814,285,9/1/2017,8/31/2018,EEB,US
USA-KY-92-KY-NursingHome-long_term_care-296,100436,TRADEWATER POINTE,Long-Term Care,100 W. RAMSEY,DAWSON SPRINGS,42408,HOPKINS,"CORE POINT GROUP, INC.",TYLER,RUMMAGE,(270) 797-8132,60,11/1/2016,10/31/2017,WEB,US
USA-KY-92-KY-NursingHome-long_term_care-297,100548,TREYTON OAK TOWERS,Long-Term Care,211 WEST OAK STREET,LOUISVILLE,40203,JEFFERSON,THIRD & OAK CORPORATION,MIKE,WIDEMAN,(502) 589-3211,60,1/1/2017,12/31/2017,NEB,US
USA-KY-92-KY-NursingHome-long_term_care-298,100767,TRI-CITIES NURSING & REHABILITATION CENTER,Long-Term Care,19101 US HIGHWAY 119 NORTH,CUMBERLAND,40823,HARLAN,"HANGING ROCK, LTC, LLC",JEFF,WILDER,(606) 589-5421,85,4/1/2017,3/31/2018,SEB,US
USA-KY-92-KY-NursingHome-long_term_care-299,100957,TRINITY STATION RETIREMENT COMMUNITY,Long-Term Care,2121 ARGILLITE ROAD,FLATWOODS,41139,GREENUP,"ADVANCED LIVING, INC.",JAMES,BAILEY,(606) 833-1111,0,5/1/2017,4/30/2018,EEB,US
USA-KY-92-KY-NursingHome-long_term_care-300,100094,TWIN RIVERS NURSING AND REHAB CENTER,Long-Term Care,2420 W. 3RD ST.,OWENSBORO,42301,DAVIESS,"OWENSBORO HEALTH FACILITIES, L.P.",ERIC,ROSS,(270) 685-3141,132,8/1/2017,7/31/2018,WEB,US
USA-KY-92-KY-NursingHome-long_term_care-301,100511,VANCEBURG REHABILITATION AND CARE,Long-Term Care,58 EASTHAM STREET,VANCEBURG,41179,LEWIS," VANCEBURG LEASING, LLC",JOY,DINGESS,(606) 796-3046,94,1/1/2017,12/31/2017,EEB,US
USA-KY-92-KY-NursingHome-long_term_care-302,100429,VILLAGE CARE CENTER,Long-Term Care,2990 RIGGS AVENUE,ERLANGER,41018,KENTON,"BAPTIST CONVALESCENT CENTER, INC.",ANTHONY,ZUBROWSKI,(859) 727-9330,100,9/1/2016,Renewal Pending,EEB,US
USA-KY-92-KY-NursingHome-long_term_care-303,100925,VILLASPRING OF ERLANGER,Long-Term Care,630 VIOX DRIVE,ERLANGER,41018,KENTON,"VILLASPRING HEALTH CARE CENTER, LLC",ADAM,LEWANDOWSKI,(859) 727-6700,140,8/1/2017,7/31/2018,EEB,US
USA-KY-92-KY-NursingHome-long_term_care-304,100648,WELLINGTON PARC OF OWENSBORO,Long-Term Care,2885 NEW HARTFORD RD,OWENSBORO,42303,DAVIESS,"WELLINGTON PARC HEALTH SYSTEMS, INC.",PHILIP,TRAVIS,(270) 685-2374,44,7/1/2017,6/30/2018,WEB,US
USA-KY-92-KY-NursingHome-long_term_care-305,100491,WENDELL FOSTER'S CAMPUS FOR DEVELOPMENTAL DISABILI,Long-Term Care,815 TRIPLETT STREET,OWENSBORO,42302,DAVIESS,WENDELL FOSTER'S CAMPUS FOR DEVELOPMENTAL DISABILI,BOB,TARRANT,(270) 683-4517,63,2/1/2017,1/31/2018,WEB,US
USA-KY-92-KY-NursingHome-long_term_care-306,100230,WESLEY MANOR,Long-Term Care,5012 EAST MANSLICK RD,LOUISVILLE,40219,JEFFERSON,"WESLEY MANOR RETIREMENT COMMUNITY, INC.",JERRY,HOGANSON,(502) 969-3277,68,4/1/2017,3/31/2018,NEB,US
USA-KY-92-KY-NursingHome-long_term_care-307,100889,WESLEY VILLAGE,Long-Term Care,1125 LEXINGTON ROAD,WILMORE,40390,JESSAMINE,"UNITED METHODIST RETIREMENT COMMUNITY, INC.",GLENDA,CREECH,(859) 858-3865,0,12/1/2016,12/1/2017,EEB,US
USA-KY-92-KY-NursingHome-long_term_care-308,100340,WEST LIBERTY NURSING & REHABILITATION CENTER,Long-Term Care,774 LIBERTY ROAD,WEST LIBERTY ,41472,MORGAN,DIVERSICARE LEASING CORP.,TIFFANEY,COX,(606) 743-3846,48,6/1/2017,5/31/2018,SEB,US
USA-KY-92-KY-NursingHome-long_term_care-309,100490,WESTERN STATE NURSING FACILITY,Long-Term Care,2400 RUSSELLVILLE ROAD,HOPKINSVILLE,42240,CHRISTIAN,COMMONWEALTH OF KENTUCKY,ROGER,WESTFALL,(270) 889-6025,144,10/1/2016,9/30/2017,WEB,US
USA-KY-92-KY-NursingHome-long_term_care-310,100242,WESTMINSTER TERRACE,Long-Term Care,2116 BUECHEL BANK ROAD,LOUISVILLE,40218,JEFFERSON,"PRESBYTERIAN HOMES & SERVICES OF KY, INC.",CRAIG,JENNINGS,(502) 499-9383,112,11/1/2016,10/31/2017,NEB,US
USA-KY-92-KY-NursingHome-long_term_care-311,100192,WESTPORT CARE CENTER,Long-Term Care,1101 LYNDON LANE,LOUISVILLE,40222,JEFFERSON,"CAMELOT LEASING, LLC",AMANDA,ROSENGARN,(502) 425-0331,145,6/1/2017,5/31/2018,NEB,US
USA-KY-92-KY-NursingHome-long_term_care-312,101144,WESTPORT PLACE HEALTH CAMPUS,Long-Term Care,4247 WESTPORT ROAD,LOUISVILLE,40207,JEFFERSON,"TRILOGY HEALTHCARE OF LOUISVILLE EAST, LLC",CHRIS,BOYD,(502) 893-3033,62,7/1/2017,6/30/2018,NEB,US
USA-KY-92-KY-NursingHome-long_term_care-313,100488,WILLIAMSBURG HEALTH AND REHABILITATION CENTER,Long-Term Care,287 N ELEVENTH STREET,WILLIAMSBURG,40769,WHITLEY,WILLIAMSBURG NURSING HOME,MICHELLE,JARBOE,(606) 549-4321,125,3/1/2017,2/28/2018,SEB,US
USA-KY-92-KY-NursingHome-long_term_care-314,100714,WILLIAMSON ARH,Long-Term Care,260 HOSPITAL DRIVE,SOUTH WILLIAMSON,41503,PIKE,"APPALACHIAN REGIONAL HEALTHCARE, INC.",TIM,HATFIELD,(606) 237-1725,35,12/1/2016,11/30/2017,SEB,US
USA-KY-92-KY-NursingHome-long_term_care-315,100696,WINDSONG ICF/IID,Long-Term Care,9001 PARK WOODS DRIVE,CRESTWOOD,40014,OLDHAM,COMMONWEALTH OF KENTUCKY,MEREDITH,CRAWFORD,(502) 241-1551,8,5/1/2017,4/30/2018,NEB,US
USA-KY-92-KY-NursingHome-long_term_care-316,100468,WINDSOR CARE CENTER,Long-Term Care,125 STERLING WAY,MOUNT STERLING,40353,MONTGOMERY,"REGENCY CARE OF MOUNT STERLING, LLC",REBECCA,COOLEY,(859) 498-3343,144,12/1/2016,11/30/2017,EEB,US
USA-KY-92-KY-NursingHome-long_term_care-317,101254,WINDSOR GARDENS CCRC,Long-Term Care,103 ISAAC GREER COURT,BARDSTOWN,40004,NELSON,"WINDSOR GARDENS, LLC",KATIE,SIMPSON,(502) 349-6214,0,4/1/2017,3/31/2018,NEB,US
USA-KY-92-KY-NursingHome-long_term_care-318,100636,WOLFE COUNTY HEALTH & REHABILITATION CENTER,Long-Term Care,850 HWY 191,CAMPTON,41301,WOLFE,"WOLFE COUNTY HEALTH CARE CENTER, INC.",AMELIA,PRATER,(606) 668-3216,100,4/1/2017,3/31/2018,SEB,US
USA-KY-92-KY-NursingHome-long_term_care-319,100905,WOODCREST NURSING & REHABILITATION CENTER,Long-Term Care,3876 TURKEYFOOT ROAD,ELSMERE,41018,KENTON,ELSMERE HEALTH,THOMAS,NIELANDER,(859) 342-8775,127,5/1/2017,4/30/2018,EEB,US
USA-KY-92-KY-NursingHome-long_term_care-320,100665,WOODLAND OAKS,Long-Term Care,1820 OAKVIEW ROAD,ASHLAND,41101,BOYD,"WOODLAND OAKS OPERATIONS, LLC",KIMBERLY,NALL,(606) 325-5200,110,2/1/2017,1/31/2018,EEB,US
USA-KY-92-KY-NursingHome-long_term_care-321,100449,WURTLAND NURSING AND REHABILITATION CENTER,Long-Term Care,100 WURTLAND AVENUE,WURTLAND,41144,GREENUP,DIVERSICARE LEASING CORP.,SARAH,WILLIS,(606) 836-0931,126,3/1/2017,2/28/2018,EEB,US
