row_id,name,license_num,licensure_status,care_level,owner,number_of_floors,number_of_suites,size_of_suites,facilities,services,website,contact,phone,cell,fax,email,street_address,po_box,city,province,postal_code,country,facility_type
Canada-MB-23-SeniorHousing-23-SeniorHousing-1,Alonsa (Southern Health RHA) Railway Avenue S or Main Street West,,,,Manitoba Housing Authority,,12,1 1 bedroom Rental,Kitchen Building,Wheel chair access,,Stan Plewak,204-622-2092,,,,,,Alonsa,MB,R0H 0A0,Canada,Senior Housing
Canada-MB-23-SeniorHousing-23-SeniorHousing-2,Altona (Southern Health RHA) Buffalo Apartments,,,,Ebenezer Home,,23,"2 Batchelor, 1 bedroom Rental",Kitchenette; air conditioning Building,Cleaning/linen service; social programs; congregate meal services; meal delivery,,Jake Penner,204-324-8945,,,,235 - 5th St. N.E.,Box 152,Altona,MB,R0G 0B0,Canada,Senior Housing
Canada-MB-23-SeniorHousing-23-SeniorHousing-3,Angusville (Southern Health RHA) Graham and Wright St.,,,,Manitoba Housing Authority,,6,1 1 Bedroom Rental,Kitchen Building,,,Gail Chescu ”ÛÄ,204-937-6474,,,,Graham and Wright St.,,Angusville,MB,ROJ OAO,Canada,Senior Housing
Canada-MB-23-SeniorHousing-23-SeniorHousing-4,Anola (Interlake RHA) Sunrise Lodge,,,,Sunrise Lodge Inc.,,12,1 Bachelor; 1 bedroom Rental,Kitchen Building,Congregate meal services,,Laura Crandoll,204-866-3280,,,,835 Wieser Crescent,,Anola,MB,R0E 0A0,Canada,Senior Housing
Canada-MB-23-SeniorHousing-23-SeniorHousing-5,Arborg (Interlake RHA) Sunrise Lodge,,,,Manitoba Housing,,6,1 1 bedroom Rental,Kitchen; cable Building,Emergency call service,,Keith Poleschuk (MHA Gimli),204-642-6061,,,,405 Crosstown Ave,,Arborg,MB,R0C 0A0,Canada,Senior Housing
Canada-MB-23-SeniorHousing-23-SeniorHousing-6,Ashern (Interlake RHA) First Choice Manor,,,,Manitoba Housing Authority,,26,1 1 Bedroom; Bachelor Rental,Kitchen; cable TV; individual temperature control; smoke detectors; grab bars in bathroom Building,Congregate meal service; meal delivery,,Phillip Russell,1-866-440-4663,,,,Ave. N.,,Ashern,MB,R0C 0E0,Canada,Senior Housing
Canada-MB-23-SeniorHousing-23-SeniorHousing-7,Austin (Southern Health RHA) Hill View Lodge Inc.,,,,Manitoba Housing Authority,,10,1 Bachelor; 1 bedroom Rental,Kitchen; air conditioning Building,,,Debbie Early,204-637-2355,,,,", 46 Main St.",Box 99,Austin,MB,R0H 0C0,Canada,Senior Housing
Canada-MB-23-SeniorHousing-23-SeniorHousing-8,Baldur (Prairie Mountain Health RHA) Argyle Lodge,,,,RM of Argyle,,9,1 1 Bedroom; 2 bedroom Rental,Kitchen; cable; air conditioning Building,Emergency call service,,Doris Smout,204-535-2190,,,,156 Elizabeth Street,,Baldur,MB,R0K 0B0,Canada,Senior Housing
Canada-MB-23-SeniorHousing-23-SeniorHousing-9,Balmoral (Interlake RHA) Sprucewood Place,,,,Manitoba Housing Authority,,12,1 1 Bedroom Rental,Kitchen Building,Emergency call service,,Maureen Paskaruk (MHA Gimli),204-642-6060,,,,6013 E PR 236,,Balmoral,MB,R0C 0H0,Canada,Senior Housing
Canada-MB-23-SeniorHousing-23-SeniorHousing-10,Beausejour (Interlake RHA) South Haven,,,,Lion Lodge Inc.,,20,1 Bachelor; 1 bedroom Rental,Cable; kitchen; draperies Building,,,Doreen Kerr,204-264-4131,,,,418-1st Street North,,Beausejour,MB,R0E 0C0,Canada,Senior Housing
Canada-MB-23-SeniorHousing-23-SeniorHousing-11,Belmont (Prairie Mountain Health RHA) Strathcona Belcrest Manor,,,,Manitoba Housing Authority,,9,1 Bachelor; 1 bedroom Rental,Kitchen Building,Congregate meal service; meal delivery,,Brenda &amp; Maurice Hutlet,204-537-2711,,,,,,Belmont,MB,R0K 0C0,Canada,Senior Housing
Canada-MB-23-SeniorHousing-23-SeniorHousing-12,Benito (Prairie Mountain Health RHA) 200 Main St.,,,,Manitoba Housing Authority,,30,1 Bachelor; 1 bedroom Rental,Kitchen Building,Emergency call service; social programs,,,204-937-8326,,,,200 Main St.,,Benito,MB,R0L 0C0,Canada,Senior Housing
Canada-MB-23-SeniorHousing-23-SeniorHousing-13,Binscarth (Prairie Mountain Health RHA) Westview Lodge,,,,Manitoba Housing Authority,,4,1 1 Bedroom Rental,Kitchen Building,,,Gail Chescu,1-888-567-8125,,,,122-2nd Ave,,Binscarth,MB,R0J 0C0,Canada,Senior Housing
Canada-MB-23-SeniorHousing-23-SeniorHousing-14,Birch River (Prairie Mountain Health RHA) Birchwood Place,,,,Manitoba Housing Authority,,14,1 1 Bedroom Rental,Kitchen; in-suite security Building,,,,204-937-8326,,,,319 Victoria Avenue,,Birch River,MB,R0L 0E0,Canada,Senior Housing
Canada-MB-23-SeniorHousing-23-SeniorHousing-15,Birds Hill (Interlake RHA) Birds Hill Manor,,,,Manitoba Housing,,8,1 1 Bedroom Rental,Kitchen Building,,,Ronda Sitka (MHA Selkirk),204-785-5382,,,,3110 Birds Hill Rd.,,Birds Hill,MB,R0E 0H0,Canada,Senior Housing
Canada-MB-23-SeniorHousing-23-SeniorHousing-16,Birtle (Prairie Mountain Health RHA) Pioneer Lodge,,,,Manitoba Housing Authority,,4,1 1 Bedroom Rental,Kitchen Building,,,,204-726-6455,,,,159-7th St.,,Birtle,MB,R0M 0C0,Canada,Senior Housing
Canada-MB-23-SeniorHousing-23-SeniorHousing-17,Boissevain (Prairie Mountain Health RHA) Jubillee Manor,,,,Manitoba Housing Authority,,23,1 Bachelor; 1 bedroom Rental,Kitchen Building,Social programs; congregate meal service; meal delivery,,,204-726-6455,,,,335 North Railway,,Boissevain,MB,R0K 0E0,Canada,Senior Housing
Canada-MB-23-SeniorHousing-23-SeniorHousing-18,Bowsman (Prairie Mountain Health RHA) Bowsman Community Manor Inc.,,,,Manitoba Housing Authority,,,Bachelor; 2 bedroom Rental,Kitchen; cable; draperies Building,,,,204-937-8326,,,,,,Bowsman,MB,R0L 0H0,Canada,Senior Housing
Canada-MB-23-SeniorHousing-23-SeniorHousing-19,Brandon (Prairie Mountain Health RHA) Kin Village Inc.,,,,,,9,3 1 bedroom Rental,Kitchen; cable; draperies Building,,,Sheryl Hyne-Cavers,204-728-1514,,,,415-11th Street,,Brandon,MB,R7A 4K2,Canada,Senior Housing
Canada-MB-23-SeniorHousing-23-SeniorHousing-20,Brookdale (Prairie Mountain Health RHA) Railway Ave.,,,,Manitoba Housing Authority,,2,1 1 Bedroom Rental,Kitchen; in-suite laundry room Building,,,,204-726-6455,,,,Railway Ave,,Brookdale,MB,R0K 0G0,Canada,Senior Housing
Canada-MB-23-SeniorHousing-23-SeniorHousing-21,Carberry (Prairie Mountain Health RHA) Carberry Plains Lodge,,,,Marshall Memorial Centre Inc.,,6,1 2 Bedroom Rental,Kitchen; cable; wall to wall carpeting; patios Building,,,Helen Muirhead,204-834-2808,,,,240 Simcoe St.,,Carberry,MB,R0K 0H0,Canada,Senior Housing
Canada-MB-23-SeniorHousing-23-SeniorHousing-22,Carman (Southern Health RHA) O'Brien Oakes,,,,Manitoba Housing Authority,,35,1 Bachelor; 1 bedroom Rental,Kitchen; bathroom Building,24 hour block Home Care available,,Susanne Moran,204-239-3688,,,,"159-1st Ave, NW",,Carman,MB,,Canada,Senior Housing
Canada-MB-23-SeniorHousing-23-SeniorHousing-23,Cartwright (Prairie Mountain Health RHA) Badger Creek Lodge,,,,Manitoba Housing,,12,1 Bachelor; 1 bedroom Rental,Kitchen; bathroom Building,Social programs; meal delivery,,Fern Gervais (MH Portage),204-248-7274,,,,"700 Bowles Street, N",,Cartwright,MB,R0K 0L0,Canada,Senior Housing
Canada-MB-23-SeniorHousing-23-SeniorHousing-24,Churchill (Winnipeg RHA) O Connor Block,,,,Manitoba Housing,,10,1 1 Bedroom Rental,"Fridge, stove, dryer Building",,,Angela Campbell (MHA Churchill),204-675-8838,,,,85-103 Hendry,,Churchill,MB,R0B 0E0,Canada,Senior Housing
Canada-MB-23-SeniorHousing-23-SeniorHousing-25,Clearwater (Southern Health RHA) Valley Villa,,,,Manitoba Housing Authority,,4,1 1 Bedroom Rental,Kitchen; in-suite laundry room; bathroom Building,,,Fern Gervais (MH Portage),204-248-7274,,,,PR 342,,Clearwater,MB,R0K 0M0,Canada,Senior Housing
Canada-MB-23-SeniorHousing-23-SeniorHousing-26,Cooks Creek (Interlake RHA) Pleasant View Lodge,,,,Municipality of Springfield,,10,1 Bachelor; 1 bedroom Rental,Kitchen Building,Emergency call service; dial-a-bus; social programs; congregate meal service; meal delivery,,,,,,,", RR 2",Box 70,Cook's Creek,MB,R0E 0K0,Canada,Senior Housing
Canada-MB-23-SeniorHousing-23-SeniorHousing-27,Crystal City (Southern Health RHA) Parkview Community Lodge,,,,Parkview Community Lodge Inc.,,15,1 Bachelor; 1 Bedroom Rental,Kitchen; cable; air conditioning; grab bars in bathroom Building,Social programs; handi-van service (fee),,Joyce Reimer,204-873-2603,,,,25 North Railway Ave W,,Crystal City,MB,R0K 0N0,Canada,Senior Housing
Canada-MB-23-SeniorHousing-23-SeniorHousing-28,Cypress River (Prairie Mountain Health RHA) Cypress River Lodge,,,,Cypress River Lodge Inc.,,11,1 1 Bedroom Rental,Kitchen; draperies; air conditioning Building,Emergency call service; congregate meal services; meal delivery,,Rita Hyrich,204-743-2289,,,,134 Railway Ave,,Cypress River,MB,R0K 0P0,Canada,Senior Housing
Canada-MB-23-SeniorHousing-23-SeniorHousing-29,Dauphin (Prairie Mountain Health RHA) Spruce Manor,,,,Dauphin Non Profit Residence Inc.,,32,3 1 Bedroom; 2 bedrooms Rental,"Kitchen; carpeting, grab bars in bathroom Building",,,Bev M. Sarkonak,204-638-5143,,,,38-6th Ave. NW,,Dauphin,MB,R7N 1J6,Canada,Senior Housing
Canada-MB-23-SeniorHousing-23-SeniorHousing-30,Deloraine (Prairie Mountain Health RHA) Centennial Apts.,,,,Manitoba Housing Authority,,38,1 2 Bedroom Rental,Kitchen; cable Building,Social programs; instructional programs; congregate meal service; meal delivery; on-call medical services; emergency call services; handi-van,,Rose Long,204-747-2697,,,,"502 South Railway West,",Box 512,Deloraine,MB,R0M 0M0,Canada,Senior Housing
Canada-MB-23-SeniorHousing-23-SeniorHousing-31,Dominion City (Southern Health RHA) Franklin Manor,,,,,,,,,,,Gordon Daman,855-371-5833 (Toll Free)  or 204-289-3039 - Ext. 200,,,,,PO Box 66,Dominion City,MB,R0A 0H0,Canada,Senior Housing
Canada-MB-23-SeniorHousing-23-SeniorHousing-32,Dugald (Interlake RHA) Evergreen Lodge,,,,Springfield Municipality,,10,1 Bachelor; 1 bedroom Rental,Kitchen; draperies Building,Social programs; congregate meal service; meal delivery; emergency call service; dial-a-bus,,Municipal Office of Oakbank,204-444-3321,,,,735 Dugald Road,,Dugald,MB,R0E 0K0,Canada,Senior Housing
Canada-MB-23-SeniorHousing-23-SeniorHousing-33,Eddystone (Prairie Mountain Health RHA) Eddystone Villa,,,,Manitoba Housing Authority,,12,1 Bachelor; 1 bedroom Rental,Kitchen Building,,,Michael Coombs,204-622-2092,,,,Hwy 68 E,,Eddystone,MB,R0L 0S0,Canada,Senior Housing
Canada-MB-23-SeniorHousing-23-SeniorHousing-34,Elie (Southern Health RHA) Manoir Cartier Inc.,,,,Community of Elie,,12,1 Bachelor; 1 bedroom Rental,Kitchen; cable; some with carpeting; storage Building,Congregate meal service; on call medical services; emergency call service,,Stella Remillard,204-353-2757,,,,", 11 Magloire",Box 117,Elie,MB,R0H 0H0,Canada,Senior Housing
Canada-MB-23-SeniorHousing-23-SeniorHousing-35,Elkhorn (Prairie Mountain Health RHA) Elkview Lodge,,,,Manitoba Housing Authority,,18,1 Bachelor; 1 bedroom Rental,Kitchen Building,Social programs; congregate meal service; meal delivery,,,204-726-6455,,,,,,Elkhorn,MB,R0M 0N0,Canada,Senior Housing
Canada-MB-23-SeniorHousing-23-SeniorHousing-36,Elm Creek (Southern Health RHA) Heritage Manor,,,,Elm Creek Housing Corp.,,9,1 1 bedroom; 2 Bedroom Rental,Kitchen; grab bars in bathroom Building,Social programs; meal program; homecare in building,,,204-436-2592,,,,78 Gordon Ave.,,Elm Creek,MB,R0G 0N0,Canada,Senior Housing
Canada-MB-23-SeniorHousing-23-SeniorHousing-37,Elphinstone (Prairie Mountain Health RHA) Railway Ave.,,,,Manitoba Housing Authority,,4,1 1 Bedroom Rental,Kitchen; in-suite laundry room Building,Tenant parking; guest parking,,MHA Brandon,204-726-6455,,,,,,Elphinstone,MB,R0J 0N0,Canada,Senior Housing
Canada-MB-23-SeniorHousing-23-SeniorHousing-38,Emerson (Southern Health RHA) South Gate Haven Inc.,,,,Manitoba Housing Authority,,16,2 Bachelor; 1 bedroom Rental,Kitchen Building,,,Caroline Schellenberg,204-324-5308,,,,115 Dominion,,Emerson,MB,R0L 0L0,Canada,Senior Housing
Canada-MB-23-SeniorHousing-23-SeniorHousing-39,Erickson Parkland Home Inc.,,,,Manitoba Housing Authority,,6,1 1 Bedroom Rental,Kitchen Building,Fees & Charges,,Tara Elliott,204-636-2717,,,,,,Erickson,MB,R0J 0P0,Canada,Senior Housing
Canada-MB-23-SeniorHousing-23-SeniorHousing-40,Eriksdale (Interlake RHA) The Friendly Villa,,,,Manitoba Housing Authority,,8,1 1 Bedroom Rental,"Kitchen, cable TV Building",Social programs; emergency call service Fees &amp; Charges,,Phillip Russell,(204) 302-0278,,,,11 May St.,,Eriksdale,MB,R0C 0W0,Canada,Senior Housing
Canada-MB-23-SeniorHousing-23-SeniorHousing-41,Ethelbert (Prairie Mountain Health RHA) Sunnyside Lodge,,,,Manitoba Housing Authority,,20,1 Bachelor; 1 bedroom Rental,Kitchen Building,Congregate meal service; meal delivery; emergency call service,,Michael Coombs,204-622-2092,,,,81 River Ave.,,Ethelbert,MB,R0L 0T0,Canada,Senior Housing
Canada-MB-23-SeniorHousing-23-SeniorHousing-42,Fisher Branch (Interlake RHA) Fisher Branch Chalet,,,,Manitoba Housing,,20,1 Bachelor; 1 bedroom Rental,Kitchen Building,social programs; congregate meal service; meal delivery; emergency call service,,Keith Poleschuk (MHA Gimli),204-642-6061,,,,7 Chalet Drive,,Fisher Branch,MB,R0C 0Z0,Canada,Senior Housing
Canada-MB-23-SeniorHousing-23-SeniorHousing-43,Flin Flon (Northern RHA) Rotary Court,,,,Flin Flon Rotary Club,,19,1 Bachelor Rental,Kitchen; cable Building,,,Dave Kendall,204-687-8211,,,,#NAME?,Box 773,Flin Flon,MB,R8A 1M7,Canada,Senior Housing
Canada-MB-23-SeniorHousing-23-SeniorHousing-44,Foxwarren (Prairie Mountain Health RHA) Webster Avenue,,,,Manitoba Housing Authority,,6,1 1 Bedroom Rental,Kitchen Building,,,Gail Chescu,204-937-6474,,,,Webster Ave.,,Foxwarren,MB,R0J 0R0,Canada,Senior Housing
Canada-MB-23-SeniorHousing-23-SeniorHousing-45,Fraserwood (Interlake RHA) Maplewood Lodge,,,,Manitoba Housing,,12,1 1 Bedroom Rental,Kitchen Building,Emergency call service,,Maureen Paskaruk (MHA Gimli),204-642-6060,,,,Gov‰Ûªt Road Allowance,,Fraserwood,MB,R0C 1A0,Canada,Senior Housing
Canada-MB-23-SeniorHousing-23-SeniorHousing-46,Gilbert Plains (Prairie Mountain Health RHA) Burrows Apartments,,,,Gilbert Plains Kinsmen Club,,8,1 Bachelor; 1 bedroom; 2 bedroom Rental,Kitchen; cable; grab bars in bathroom Building,Home care in building; social/recreational programs,,Marnie Beckley,204-548-2959,,,,", 18 Buller Ave E",Box 272,Gilbert Plains,MB,R0L 0X0,Canada,Senior Housing
Canada-MB-23-SeniorHousing-23-SeniorHousing-47,Gimli (Interlake RHA) Water Front Centre,,,,Rotary Club of Gimli,,39,4 1 Bedroom; 2 bedroom; 3 bedroom Rental,Kitchen; dishwasher; in suite laundry room; cable; wall to wall carpeting; air conditioning; balconies; in-suite security system Building,Social programs; instructional programs,,Associates,204-642-8576,,,,94-1st Ave.,,Gimli,MB,R0C 1B0,Canada,Senior Housing
Canada-MB-23-SeniorHousing-23-SeniorHousing-48,Gladstone (Southern Health RHA) Crescent Lodge,,,,Seven Regions Health Centre,,24,1 1 Bedroom Rental,"Kitchen; cable; tub, individual temp. Control, smoke detectors, grab bars in bathroom Building","Meals on Wheels delivery; home care; Group Living Coordinator, Seniors Support Services",,Director of Health Services,204-385-2968,,,,193 Dennis Street,,Gladstone,MB,R0J 0T0,Canada,Senior Housing
Canada-MB-23-SeniorHousing-23-SeniorHousing-49,Glenboro  (Prairie Mountain Health RHA) Lyall Park Place,,,,Glenboro and District EPH,,8,1 1 bedroom Rental,Kitchen; cable; grab bars in bathroom Building,,,Elsie Pinkerton,204-827-2772,,,,307 Lyle St,,Glenboro,MB,R0K 0X0,Canada,Senior Housing
Canada-MB-23-SeniorHousing-23-SeniorHousing-50,Glenella (Prairie Mountain Health RHA) Lokier Street,,,,Manitoba Housing Authority,,4,1 Bachelor; 1 bedroom Rental,Kitchen Building,,,Michael Coombs,204-622-2092,,,,Lokier Street,,Glenella,MB,R0J 0V0,Canada,Senior Housing
Canada-MB-23-SeniorHousing-23-SeniorHousing-51,Grandview (Prairie Mountain Health RHA) Valley View Lodge,,,,Grandview Manor Inc,,11,1 1 Bedroom Rental,Stove and cupboards (not a complete kitchen) Building,Social programs,,Ramona Hicks,204-546-2916,,,,444 Mill St,,Grandview,MB,R0L 0Y0,Canada,Senior Housing
Canada-MB-23-SeniorHousing-23-SeniorHousing-52,Gretna (Southern Health RHA) Gretna Seniors Home,,,,Manitoba Housing Authority,,17,1 Bachelor; 1 bedroom Rental,Kitchen Building,Social programs; meal delivery,,Caroline Schellenberg,204-324-5308,,,,599 Berlin Ave,,Gretna,MB,R0G 0V0,Canada,Senior Housing
Canada-MB-23-SeniorHousing-23-SeniorHousing-53,Grunthal (Southern Health RHA) Grunthal Homes,,,,Manitoba Housing Authority,,12,1 1 Bedroom Rental,Kitchen Building,Social programs; instructional programs; congregate meal service,,Lynne Goulet (MH Eastman/Interlake),1-800-441-5514,,,,Southside Park Street,,Grunthal,MB,R0A 0R0,Canada,Senior Housing
Canada-MB-23-SeniorHousing-23-SeniorHousing-54,Hamiota (Prairie Mountain Health RHA) Hamiota Senior Citizens Park Res. Inc,,,,Manitoba Housing Authority (not owned by MHA),,30,1 1 Bedroom Rental,Kitchen Building,,,,,,,,177 Birch,,Hamiota,MB,R0M 0T0,Canada,Senior Housing
Canada-MB-23-SeniorHousing-23-SeniorHousing-55,Hartney (Prairie Mountain Health RHA) Cameron Lodge,,,,Town of Hartney,,16,1 Bachelor; 1 bedroom; 2 bedroom Rental,Kitchen; cable; carpeting; draperies Building,Emergency call service; social programs; instructional programs; congregate meal service; adult day programs; meals on wheels; handivan,,Dorothy Coe,204-858-2376,,,,404 Spencer St,,Hartney,MB,R0M 0X0,Canada,Senior Housing
Canada-MB-23-SeniorHousing-23-SeniorHousing-56,Haywood (Southern Health RHA) St. Denis Chalet,,,,Manitoba Housing,,6,1 1 Bedroom Rental,Kitchen; bathroom Building,social programs,,Barb Congram (MH Portage),204-239-3687 toll-free 1-866-440-4663,,,,41 Edward Ave,,Haywood,MB,R0G 0W0,Canada,Senior Housing
Canada-MB-23-SeniorHousing-23-SeniorHousing-57,Hodgson (Interlake RHA) Early Settlers Lodge,,,,Manitoba Housing,,14,1 1 Bedroom Rental,Kitchen Building,Emergency call service; congregate meal service; meal delivery,,Maureen Paskaruk (MHA Gimli),204-642-6061,,,,Second Ave.,,Hodgson,MB,R0C 1N0,Canada,Senior Housing
Canada-MB-23-SeniorHousing-23-SeniorHousing-58,Holland (Prairie Mountain Health RHA) Victoria Manor,,,,Victoria Manor Inc.,,13,1 1 Bedroom; Bachelor Rental,Kitchen (not all suites); cable; grab bars in bathroom Building,Meal program; bus outings; homecare in building,,President,204-526-2378,,,,110 Steward Ave.,,Holland,MB,R0G 0X0,Canada,Senior Housing
Canada-MB-23-SeniorHousing-23-SeniorHousing-59,Ile des Chenes (Southern Health RHA) Villa des ChÌ»nes,,,,Manitoba Housing Authority,,12,1 Bachelor; 1 bedroom Rental,Kitchen Building,,,Lynne Goulet (MH Eastman/Interlake),1-800-441-5514,,,,503 Main Street,,Ile des Chenes,MB,R0A 0T0,Canada,Senior Housing
Canada-MB-23-SeniorHousing-23-SeniorHousing-60,Inglis (Prairie Mountain Health RHA) 139 Blighty St. S,,,,Manitoba Housing Authority,,10,1 1 Bedroom Rental,Kitchen; in-suite security Building,,,,204-937-8326,,,,139 Blighty St. S,,Inglis,MB,R0J 0X0,Canada,Senior Housing
Canada-MB-23-SeniorHousing-23-SeniorHousing-61,Inwood (Interlake RHA) Inwood Manor Addition,,,,Inwood Manor B o D,,12,1 Bachelor; 1 bedroom Rental,Kitchen Building,emergency call service; social programs; congregate meal service; meal delivery,,Sheila Cherid,204-278-3534,,,,,Box 137,Inwood,MB,R0C 1P0,Canada,Senior Housing
Canada-MB-23-SeniorHousing-23-SeniorHousing-62,Kelwood (Prairie Mountain Health RHA) Isabel Avenue West,,,,Manitoba Housing Authority,,8,1 Bachelor; 1 bedroom Rental,Kitchen Building,,,Michael Coombs,204-622-2092,,,,Isabel Avenue West,,Kelwood,MB,R0J 0Y0,Canada,Senior Housing
Canada-MB-23-SeniorHousing-23-SeniorHousing-63,Killarney (Prairie Mountain Health RHA) Royal Manor,,,,Barb &amp; Jim Spencer,,21,Rental,Building,,,Barb Spencer,204-736-3756,,,,110 Clark Ave,,Killarney,MB,R0K 1G0,Canada,Senior Housing
Canada-MB-23-SeniorHousing-23-SeniorHousing-64,Komarno (Interlake RHA) Second Ave,,,,Manitoba Housing,,4,1 1 Bedroom Rental,Kitchen Building,Emergency call service,,Maureen Paskaruk (MHA Gimli),204-642-6060,,,,66 Second St.,,Komarno,MB,R0C 1R0,Canada,Senior Housing
Canada-MB-23-SeniorHousing-23-SeniorHousing-65,La Broquerie (Southern Health RHA) Le Chalet de La Broquerie Inc.,,,,Le Chalet de La Broquerie Inc.,,42,1 Bachelor; 1 bedroom; 2 bedroom Rental,Kitchen with fridge and stove (fridge only in assisted living wing); large bathrooms; walk-in showers and grab bars in bathrooms; cable and wireless internet; pull-cord alarm system in bathroom and bedroom; Building,Weekly suite cleaning and linen service; emergency call service; social programs; instructional programs; two meals a day in dining room;,,"Paul Lord, General Manager",204-424-5892,204-371-5738,,,"93, rue Principale, Suite 50",,La Broquerie,MB,R0A 0W0,Canada,Senior Housing
Canada-MB-23-SeniorHousing-23-SeniorHousing-66,Lac du Bonnet (Interlake RHA) Bonna Vista Lodge,,,,Manitoba Housing Authority,,38,2 Bachelor; 1 bedroom Rental,Kitchen Building,Emergency call service; social programs,,,204-785-5228,,,,75 Macintosh Avenue,,Lac du Bonnet,MB,R0E 1A0,Canada,Senior Housing
Canada-MB-23-SeniorHousing-23-SeniorHousing-67,Landmark (Southern Health RHA) Prairie Rose Apartments,,,,Prairie Rose Apartments Inc.,,12,1 1 Bedroom; 2 bedroom Rental,Kitchen; carpeting Building,Congregate meal service; social programs,,Anne Marie Reimer,204-355-4311,,,,219-1st St W,P.O. Box 28,Landmark,MB,R0A 0X0,Canada,Senior Housing
Canada-MB-23-SeniorHousing-23-SeniorHousing-68,La Salle (Interlake RHA) La Salle Senior Citizens Home,,,,Manitoba Housing Authority,,6,1 1 Bedroom Rental,Kitchen Building,Social programs,,Lynne Goulet (MH Eastman/Interlake),1-800-441-5514,,,,65 Rue Gandry,,La Salle,MB,R0G 1B0,Canada,Senior Housing
Canada-MB-23-SeniorHousing-23-SeniorHousing-69,Laurier (Prairie Mountain Health RHA) Fasberry Street,,,,Manitoba Housing Authority,,8,1 Rental,Kitchen Building,,,Michael Coombs,204-622-2092,,,,Nammie St.,,Laurier,MB,,Canada,Senior Housing
Canada-MB-23-SeniorHousing-23-SeniorHousing-70,Letellier (Southern Health RHA) Third Avenue East,,,,Manitoba Housing Authority,,4,1 1 Bedroom Rental,Kitchen Building,,,Caroline Schellenberg,204-324-5308,,,,Third Avenue East,,Letellier,MB,R0G 1C0,Canada,Senior Housing
Canada-MB-23-SeniorHousing-23-SeniorHousing-71,Lorette (Southern Health RHA) Foyer Notre Dame,,,,Manitoba Housing Authority,,14,1 Bachelor Rental,Kitchen Building,Social programs,,Lynne Goulet (MH Eastman/Interlake),1-800-441-5514,,,,12 St. Amant Ave.,,Lorette,MB,R0A 0Y0,Canada,Senior Housing
Canada-MB-23-SeniorHousing-23-SeniorHousing-72,Lowe Farm (Southern Health RHA) Prairie View Apartments,,,,Lowe Farm Housing Corp.,,18,1 Bachelor; 1 bedroom; 2 bedroom Rental,Kitchen; grab bars in bathroom Building,Emergency call service; laundry service; BP clinics; foot clinics; hairdresser visits; lifeline; congregate meal service; social programs,,Randy Schroeder,204-746-8418,,,,22-1st St W,,Lowe Farm,MB,R0G 1E0,Canada,Senior Housing
Canada-MB-23-SeniorHousing-23-SeniorHousing-73,Lundar (Interlake RHA) Lundar Senior Citizens Home,,,,Senior Citizens Home Board,,23,1 Bachelor; 1 bedroom Rental,Kitchen; cable Building,,,Harold Bachman,204-762-5437,,,,86 Main St,,Lundar,MB,R0C 1Y0,Canada,Senior Housing
Canada-MB-23-SeniorHousing-23-SeniorHousing-74,MacGregor (Southern Health RHA) Lions Manor,,,,Manitoba Housing Authority,,12,1 Bachelor; 1 bedroom Rental,Kitchen; cable; exhaust fans Building,,,Terry Wotton,204-945-7861,,,,", Ross Street, N",Box 516,MacGregor,MB,R0H 0R0,Canada,Senior Housing
Canada-MB-23-SeniorHousing-23-SeniorHousing-75,Manitou (Southern Health RHA) Manitou Kinsmen Haven,,,,Manitoba Kinsmen Haven Inc.,,17,1 Bachelor; 1 bedroom Rental,Kitchen; cable Building,Congregate meal services,,Dale Dobson,204-242-2607,,,,561 Souris Avenue,,Manitou,MB,R0G 1G0,Canada,Senior Housing
Canada-MB-23-SeniorHousing-23-SeniorHousing-76,Mcauley (Prairie Mountain Health RHA) Mcauley Ave. N.,,,,Manitoba Housing Authority,,2,1 1 Bedroom Rental,Kitchen Building,,,Gail Chescu,204-937-6474,,,,Mcauley Ave. N.,,Mcauley,MB,R0M 1H0,Canada,Senior Housing
Canada-MB-23-SeniorHousing-23-SeniorHousing-77,McCreary (Prairie Mountain Health RHA) Mountain View Home,,,,Manitoba Housing Authority,,12,1 Bachelor; 1 bedroom Rental,Kitchen Building,Congregate meal service; meal delivery.,,Michael Coombs,204-622-2092,,,,435 Broderick St.,,McCreary,MB,R0J 1B0,Canada,Senior Housing
Canada-MB-23-SeniorHousing-23-SeniorHousing-78,Melita (Prairie Mountain Health RHA) Melita Area Elderly Person Coop,,,,Manitoba Housing Authority,,47,1 Bachelor; 1 bedroom Rental,Kitchen; security systems Building,Emergency call service; meal delivery,,Patricia Downey,522-3493,,,,,Box 207,Melita,MB,R0M 1L0,Canada,Senior Housing
Canada-MB-23-SeniorHousing-23-SeniorHousing-79,Miami (Southern Health RHA) The Collingwood,,,,Miami Senior Citizens Housing Association,,14,1 Bachelor (330 sq. ft.); 1 bedroom (396 sq. ft.); 2 bedroom (620 sq. ft.) Rental,Kitchen; carpeting; grab bars in some bathrooms Building,Meal service (2 times/week); social programs homecare,,Jenifer Lawson,204-435-2257,,,,333 Cameron Ave.,,Miami,MB,R0G 1H0,Canada,Senior Housing
Canada-MB-23-SeniorHousing-23-SeniorHousing-80,Middlebro (Southern Health RHA) Railway Ave.,,,,Manitoba Housing Authority,,4,1 1 Bedroom Rental,Kitchen Building,Social programs; congregate meal service; meal delivery,,Sharon Yatsko (MH),1-204-425-5010,,,,Railway Ave,,Middlebro,MB,R0A 1B0,Canada,Senior Housing
Canada-MB-23-SeniorHousing-23-SeniorHousing-81,Miniota (Prairie Mountain Health RHA) Parkissimo Lodge Inc.,,,,Parkissimo Lodge Inc.,,10,1 Bachelor; 1 bedroom; 2 bedroom Rental,Kitchen; grab bars in bathroom Building,emergency call service; meal service at noon 5 days per week (user fee),,Olive McKean,204-567-3710,,,,156 North Railway Ave.,,Miniota,MB,R0M 1M0,Canada,Senior Housing
Canada-MB-23-SeniorHousing-23-SeniorHousing-82,Minitonas (Prairie Mountain Health RHA) The Chalet,,,,First Baptist Church,,12,1 1 Bedroom Rental,Kitchen; cable; carpeting Building,Meal service; homecare in building; building security;,,Marilyn Natyna,204-525-4914,,,,281 5th Ave.,,Minitonas,MB,R0L 1G0,Canada,Senior Housing
Canada-MB-23-SeniorHousing-23-SeniorHousing-83,Minnedosa (Prairie Mountain Health RHA) Minnedosa Legion Gardens,,,,Manitoba Housing Authority,,55,6 Bachelor; 1 bedroom Rental,Kitchen Building,emergency call service; social programs,,,204-726-6455 1-800-651-8217,,,,169 Main Street,,Minnedosa,MB,R0J 1E0,Canada,Senior Housing
Canada-MB-23-SeniorHousing-23-SeniorHousing-84,Minto (Prairie Mountain Health RHA) Dowland Manor,,,,Manitoba Housing Authority,,4,1 1 Bedroom Rental,Kitchen Building,,,,204-726-6455,,,,John Street,,Minto,MB,R0K 1M0,Canada,Senior Housing
Canada-MB-23-SeniorHousing-23-SeniorHousing-85,Moosehorn (Interlake RHA) Heritage Villa,,,,Manitoba Housing Authority,,22,1 Bachelor; 1 bedroom Rental,Kitchen Building,meal delivery,,Phillip Russell,1-866-440-4663,,,,Lot 1Railway Ave,,Moosehorn,MB,R0C 2E0,Canada,Senior Housing
Canada-MB-23-SeniorHousing-23-SeniorHousing-86,Morden (Southern Health RHA) Morden Elks Park Place,,,,Manitoba Housing Authority,,36,5 1 Bedroom; 2 bedroom Rental,Kitchen; security system; cable Building,Emergency call service; congregate meal service; meal delivery,,Fred Mayor,204-822-6596,,,,265 North Railway Street,,Morden,MB,R6M 1W4,Canada,Senior Housing
Canada-MB-23-SeniorHousing-23-SeniorHousing-87,Morris (Southern Health RHA) Rebecca Cove,,,,Manitoba Housing Authority,,28,1 Bachelor; 1 bedroom; 2 bedroom Rental,Kitchen Building,Social programs; congregate meal service; meal delivery,,Caroline Schellenberg,204-324-5308,,,,153 Montreal St.,,Morris,MB,R0G 1K0,Canada,Senior Housing
Canada-MB-23-SeniorHousing-23-SeniorHousing-88,Neepawa (Prairie Mountain Health RHA) Neepawa Elks Manor,,,,Neepawa Kinsmen Sr Citizens Housing,,51,4 1 Bedroom Rental,Kitchen Building,Social programs,,Warren Burton,204-476-2900,,,,299 Davidson St.,,Neepawa,MB,R0J 1H0,Canada,Senior Housing
Canada-MB-23-SeniorHousing-23-SeniorHousing-89,Newdale (Prairie Mountain Health RHA) Harrison House,,,,Newdale Sr Cit Home Inc.,,11,1 Bachelor; 1 bedroom Rental,Kitchen; grab bars in bathroom Building,Social programs; meal service 3 times a week; foot care; homecare in building,,Carol Delgarno,204-849-2193,,,,212 Firehall St.,,Newdale,MB,R0J 1J0,Canada,Senior Housing
Canada-MB-23-SeniorHousing-23-SeniorHousing-90,Niverville (Interlake RHA) Pleasant Plaza,,,,Manitoba Housing Authority,,14,1 Bachelor; 1 bedroom Rental,Kitchen Building,,,Lynne Goulet (MH Eastman/Interlake),1-800-441-5514,,,,113-3rd Ave,,Niverville,MB,R0A 1E0,Canada,Senior Housing
Canada-MB-23-SeniorHousing-23-SeniorHousing-91,Notre Dame (Southern Health RHA) Ensemble Chez Soi,,,,Manitoba Housing Authority,,24,1 Bachelor; 1 bedroom Rental,Kitchen; bathroom Building,,,Fernand Gervais,204-248-7270,,,,33 Rodgers Street,,Notre Dame,MB,R0G 1M0,Canada,Senior Housing
Canada-MB-23-SeniorHousing-23-SeniorHousing-92,Oakbank (Interlake RHA) Kinplace-Oakbank,,,,Manitoba Housing Authority,,14,1 1 Bedroom Rental,Kitchen; cable; security system Building,"social programs, instructional programs; meal delivery; congregate meal service",,Rosemary Chabluk,204-444-2821,,,,689 Main Street,,Oakbank,MB,R0E 1J1,Canada,Senior Housing
Canada-MB-23-SeniorHousing-23-SeniorHousing-93,Oaklake (Prairie Mountain Health RHA) Aspen Place,,,,Manitoba Housing Authority,,16,1 Bachelor; 1 bedroom Rental,Kitchen; cable Building,Emergency call service; social programs,,,204-726-6455,,,,Assiniboine Street,,Oaklake,MB,R0M 1P0,Canada,Senior Housing
Canada-MB-23-SeniorHousing-23-SeniorHousing-94,Oakville (Interlake RHA) Kawende Courts,,,,Manitoba Housing,,10,1 1 Bedroom Rental,Kitchen; bathroom Building,Social programs; instructional programs; meal delivery,,Barb Congram (MH Portage),204-239-3687,,,,222-Fourth Street,,Oakville,MB,R0H 0Y0,Canada,Senior Housing
Canada-MB-23-SeniorHousing-23-SeniorHousing-95,Ochre River (Prairie Mountain Health RHA) Sunny Bay Apartments,,,,Manitoba Housing Authority,,12,1 1 Bedroom Rental,Kitchen Building,,,Michael Coombs,204-622-2092,,,,200 East Ave. S,,Ochre River,MB,R0L 1K0,Canada,Senior Housing
Canada-MB-23-SeniorHousing-23-SeniorHousing-96,Onanole (Prairie Mountain Health RHA) Crestview,,,,Manitoba Housing Authority,,8 (4 duplexes),1 1 Bedroom Rental,Kitchen; in-suite laundry room Building,,,,204-726-6455,,,,52-59 Grenant,,Onanole,MB,R0J 1N0,Canada,Senior Housing
Canada-MB-23-SeniorHousing-23-SeniorHousing-97,Pilot Mound (Southern Health RHA) Prairie View Lodge,,,,Pilot Mound Housing Corporation,,16,1 2 Bedroom Rental,Kitchen; in-suite laundry room; air conditioning Building,,,Lois Lynch,204-825-2394,,,,Railway &amp; Beverage,,Pilot Mound,MB,R0G 1P0,Canada,Senior Housing
Canada-MB-23-SeniorHousing-23-SeniorHousing-98,Pinawa (Interlake RHA) 11 McGregor Crescent,,,,Parklands Property,,8 (condos),2 3 Bedroom Rental,Kitchen; in-suite laundry room; cable Building,,,Bill Ederton,204-753-2167,,,,11 McGregor Crescent,,Pinawa,MB,R0E 1L0,Canada,Senior Housing
Canada-MB-23-SeniorHousing-23-SeniorHousing-99,Pine Falls (Interlake RHA) Pineview Lodge,,,,Pineview Senior Citizens Home Inc.,,13,1 Bachelor; 1 Bedroom; 2 bedroom Rental,Kitchen; cable; storage Building,Adult day program; emergency call service; social programs; meals twice per week; occasional bus outings; homecare if required; grocery shopping,,Shirley Lavalee,204-367-8983,,,,48 Pine Street,,Pine Falls,MB,R0E 1M0,Canada,Senior Housing
Canada-MB-23-SeniorHousing-23-SeniorHousing-100,Pine River Rainbow Villa,,,,Manitoba Housing Authority,,10,1 1 Bedroom Rental,Kitchen Building,,,Michael Coombs,204-622-2092,,,,417-2nd Ave.,,Pine River,MB,R0L 1M0,Canada,Senior Housing
Canada-MB-23-SeniorHousing-23-SeniorHousing-101,Plumas (Southern Health RHA) Valley View Lodge,,,,Manitoba Housing,,12,1 1 Bedroom Rental,Kitchen; bathroom Building,social programs; congregate meal service; meal delivery,,Cornie Wolfe (MH Portage),204-239-3685,,,,225 Evanson Street,,Plumas,MB,R0J 1P0,Canada,Senior Housing
Canada-MB-23-SeniorHousing-23-SeniorHousing-102,Plum Coulee (Southern Health RHA) Maple Manor,,,,Manitoba Housing Authority,,30,1 Bachelor; 1 bedroom Rental,Kitchen Building,Congregate meal service; meal delivery,,Caroline Schellenberg,204-324-5308,,,,14 Maple Drive,,Plum Coulee,MB,R0G 1R0,Canada,Senior Housing
Canada-MB-23-SeniorHousing-23-SeniorHousing-103,Poplarfield (Interlake RHA) Poplar Villa,,,,Manitoba Housing,,8,1 1 Bedroom Rental,Kitchen Building,,,Keith Poleschuk (MHA Gimli),204-642-6061,,,,6 High Plains Road,,Poplarfield,MB,R0C 2N0,Canada,Senior Housing
Canada-MB-23-SeniorHousing-23-SeniorHousing-104,Portage la Prairie (Southern Health RHA) One Broadway Place,,,,Manitoba Housing,,68,3 Bachelor; 1 bedroom Rental,Kitchen; bathroom Building,social programs; congregate meal service; meal delivery,,Kelly Ouellette (MH Portage),204-239-3684,,,,"149-4th Street, SE",,Portage la Prairie,MB,R1N 1K3,Canada,Senior Housing
Canada-MB-23-SeniorHousing-23-SeniorHousing-105,Powerview (Interlake RHA) Winnipeg River Manor,,,,Winnipeg River Lions Manor,,18,2 1 Bedroom; 2 bedroom Rental,Kitchen; grab bars in bathroom Building,Congregate meal service; emergency call service; social programs,,,1-800-543-6118 1-204-982-2000,,,,34 Laura Street,,Powerview,MB,R0E 1P0,Canada,Senior Housing
Canada-MB-23-SeniorHousing-23-SeniorHousing-106,Rapid City (Prairie Mountain Health RHA) Rapid City Legion Community Gardens Inc.,,,,Manitoba Housing Authority,,10,1 Bachelor; 1 bedroom Rental,Kitchen; cable Building,,,Keith Findlay,204-826-2021,,,,350 - 2nd Ave.,,Rapid City,MB,ROK 1WO,Canada,Senior Housing
Canada-MB-23-SeniorHousing-23-SeniorHousing-107,Rathwell (Prairie Mountain Health RHA) Green Prairie Lodge,,,,Town of Rathwell ‰ÛÒ CMHC,,9,1 Bachelor; 1 bedroom; 2 bedroom Rental,Kitchen Building,social programs; congregate meal service; meal delivery,,Board of Directors Gwenda Johnston,204-749-2145,,,,,Box 158,Rathwell,MB,R0G 1S0,Canada,Senior Housing
Canada-MB-23-SeniorHousing-23-SeniorHousing-108,Reston (Prairie Mountain Health RHA) Alstone Lodge,,,,Alstone Lodges,,18,1 Bachelor; 2 bedroom Rental,Kitchen; cable; in-suite laundry (2 suites only) Building,Congregate meal service; meal delivery,,Lori Anderson,204-877-3632,,,,,Box 205,Reston,MB,R0M 1X0,Canada,Senior Housing
Canada-MB-23-SeniorHousing-23-SeniorHousing-109,Richer (Southern Health RHA) 50-54 South East Drive,,,,Manitoba Housing Authority,,8 (4 duplexes),1 1 Bedroom Rental,Kitchen; in-suite laundry room Building,,,Richard Ewen (MH Eastman/Interlake),1-800-441-5514,,,,50-54 South East Drive,,Richer,MB,R0E 1S0,Canada,Senior Housing
Canada-MB-23-SeniorHousing-23-SeniorHousing-110,Rivers (Prairie Mountain Health RHA) Riverdale Manor,,,,Rivers Kiwanis Courts Ltd.,,9,1 1 Bedroom; bachelor; 1 large suite Rental,Kitchen Building,,,Jean Young,204-328-7316,,,,"620-6th Ave W.,",Box 221,Rivers,MB,R0K 1X0,Canada,Senior Housing
Canada-MB-23-SeniorHousing-23-SeniorHousing-111,Riverton (Interlake RHA) Icelandic River Lodge,,,,Manitoba Housing,,24,1 Bachelor; 1 bedroom Rental,Kitchen Building,Emergency call service; congregate meal service; meal delivery,,Keith Poleschuk (MHA Gimli),204-642-6061,,,,64 Main St. N.,,Riverton,MB,R0C 2R0,Canada,Senior Housing
Canada-MB-23-SeniorHousing-23-SeniorHousing-112,Roblin (Prairie Mountain Health RHA) Maple Manor,,,,Housing Authority,,21,1 1 Bedroom; bachelor Rental,Cable; grab bars in bathroom Building,Emergency call service; congregate meal service; social programs; homecare in building,,Tracy Dube,204-937-2345,,,,26 Park St.,,Roblin,MB,R0L 1P0,Canada,Senior Housing
Canada-MB-23-SeniorHousing-23-SeniorHousing-113,Rorketon (Prairie Mountain Health RHA) 2nd Avenue South,,,,Manitoba Housing Authority,,8,1 Bachelor; 1 bedroom Rental,Kitchen Building,,,Michael Coombs,204-622-2092,,,,"Railway Ave, Main St. W",,Rorketon,MB,R0L 1R0,Canada,Senior Housing
Canada-MB-23-SeniorHousing-23-SeniorHousing-114,Rosenfeld (Southern Health RHA) Rose Village Villa,,,,Manitoba Housing Authority,,13,1 Bachelor; 1 bedroom Rental,Kitchen Building,Emergency call service; social programs; congregate meal service,,Caroline Schellenberg,204-324-5308,,,,12 Bredin St.,,Rosenfeld,MB,R0G 1X0,Canada,Senior Housing
Canada-MB-23-SeniorHousing-23-SeniorHousing-115,Rosenort (Southern Health RHA) Rose Lane Apartments,,,,Rosenort Housing Corporation,,9,1 2 Bedroom Rental,Kitchen; in-suite laundry room; carpeting; draperies; air conditioning; patio/deck Building,Social programs; instructional programs; congregate meal service,,Larry Buhler,204-746-8994,,,,29 Rose Lane,,Rosenort,MB,R0G 1W0,Canada,Senior Housing
Canada-MB-23-SeniorHousing-23-SeniorHousing-116,Rossburn (Prairie Mountain Health RHA) Our Lady of Fatima Manor,,,,Manitoba Housing Authority,,11,1 Rental,Kitchen Building,,,Gail Chescu,204-937-6474,,,,71 Main St. N.,,Rossburn,MB,R0J 1V0,Canada,Senior Housing
Canada-MB-23-SeniorHousing-23-SeniorHousing-117,Russell (Prairie Mountain Health RHA) Elks Legion Court,,,,Manitoba Housing Authority,,40,Bachelor Rental,Kitchen Building,,,,204-726-6455,,,,122 Manitoba Ave.,,Russell,MB,R0J 1W0,Canada,Senior Housing
Canada-MB-23-SeniorHousing-23-SeniorHousing-118,Sandy Lake (Prairie Mountain Health RHA) Railroad Ave,,,,Manitoba Housing Authority,,12,1 1 Bedroom Rental,Kitchen; in-suite laundry room Building,,,,204-726-6455,,,,Railroad Ave,,Sandy Lake,MB,R0J 1X0,Canada,Senior Housing
Canada-MB-23-SeniorHousing-23-SeniorHousing-119,Selkirk (Southern Health RHA) Parkview Manor,,,,Manitoba Housing Authority,,12,1 1 Bedroom Rental,Kitchen Building,social programs; emergency call service,,Kathy Barnard (MHA Selkirk),204-785-5228,,,,Henderson Highway,,Selkirk,MB,R0E 0M0,Canada,Senior Housing
Canada-MB-23-SeniorHousing-23-SeniorHousing-120,Shoal Lake (Prairie Mountain Health RHA) Morley House Shoal Lake,,,,,,9,1 1 Bedroom Rental,Kitchen; carpeting Building,,,Kim Manuliak,204-759-2118,,,,,Box 490,Shoal Lake,MB,R0J 1Z0,Canada,Senior Housing
Canada-MB-23-SeniorHousing-23-SeniorHousing-121,Sifton (Prairie Mountain Health RHA) Golden Harbor,,,,Manitoba Housing Authority,,8,1 1 Bedroom Rental,Kitchen Building,,,Michael Coombs,204-622-2092,,,,100 Government Road,,Sifton,MB,R0L 1X0,Canada,Senior Housing
Canada-MB-23-SeniorHousing-23-SeniorHousing-122,Snow Lake (Northern RHA) Snow Lake,,,,Manitoba Housing Authority,,4,1 1 Bedroom Rental,Kitchen Building,Tenant parking; guest parking,,,204-627-8355,,,,,,Snow Lake,MB,R0B 1M0,Canada,Senior Housing
Canada-MB-23-SeniorHousing-23-SeniorHousing-123,Somerset (Southern Health RHA) Somerset Manor,,,,Somerset Manor BoD,,31,1 Bachelor; 1 bedroom; 2 bedroom Rental,Kitchen; cable; draperies Building,; congregate meal service; social programs,,Margaret Lussier,204-744-2299,,,,Therien Ave,Box 354,Somerset,MB,R0G 2L0,Canada,Senior Housing
Canada-MB-23-SeniorHousing-23-SeniorHousing-124,Souris (Prairie Mountain Health RHA) Victoria Park Lodge,,,,Manitoba Housing Authority,,60,3 Bachelor; 1 bedroom Rental,Kitchen Building,social programs; congregate meal service; meal delivery,,Roy Palmer,1-800-651-8217,,,,", 135 3rd St. S",Box 940,Souris,MB,R0K 2C0,Canada,Senior Housing
Canada-MB-23-SeniorHousing-23-SeniorHousing-125,Sprague (Southern Health RHA) Sprague,,,,Manitoba Housing Authority,,12,1 1 Bedroom Rental,Kitchen; in-suite laundry room Building,,,Sharon Yatsko (MHA),1-204-425-5010,,,,59-64 Rose Bay,,Sprague,MB,R0A 1Z0,Canada,Senior Housing
Canada-MB-23-SeniorHousing-23-SeniorHousing-126,St. Adolphe (Southern Health RHA) Chalet Beausejour,,,,Manitoba Housing Authority,,12,1 1 Bedroom Rental,Kitchen Building,,,Lynne Goulet (MH Eastman/Interlake),1-800-441-5514,,,,428 Main Street,,St. Adolphe,MB,R0A 1S0,Canada,Senior Housing
Canada-MB-23-SeniorHousing-23-SeniorHousing-127,Starbuck (Southern Health RHA) Riverdale Apartments,,,,Starview Manor Society Inc.,,6,1 Bachelor; 1 bedroom; 2 bedroom Rental,Kitchen; carpeting; draperies Building,Emergency call service; social programs,,Darlene Morissette,204-735-2892,,,,,Box 225,Starbuck,MB,R0G 2P0,Canada,Senior Housing
Canada-MB-23-SeniorHousing-23-SeniorHousing-128,St. Claude (Southern Health RHA) Manoir de St. Claude,,,,Manitoba Housing,,8 (4 duplexes),1 1 Bedroom Rental,Kitchen; in-suite laundry room; bathroom Building,,,Barb Congram (MH Portage),204-239-3687,,,,Aspen Rd,,St. Claude,MB,R0G 1Z0,Canada,Senior Housing
Canada-MB-23-SeniorHousing-23-SeniorHousing-129,Ste. Agathe (Southern Health RHA) Chalet Ste. Agathe,,,,Manitoba Housing Authority,,10,1 1 Bedroom Rental,Kitchen Building,,,Lynne Goulet (MH Eastman/Interlake),1-800-441-5514,,,,431 Bourret Ave,,Ste. Agathe,MB,R0A 1R0,Canada,Senior Housing
Canada-MB-23-SeniorHousing-23-SeniorHousing-130,Ste. Anne (Southern Health RHA) Villa Youville Inc.,,,,Al Deschauer,,240 lots,1 mobile homes Rental,Customized Building,Emergency call service; social programs; instructional programs,,Al Deschauer,204-422-8662,,,,8A Paradise Drive,,Ste. Anne,MB,R5H 1H2,Canada,Senior Housing
Canada-MB-23-SeniorHousing-23-SeniorHousing-131,Steinbach (Southern Health RHA) Linden Place,,,,Steinbach Housing Inc.,,136,6 1 Bedroom; 2 bedroom Rental,Kitchen; cable; carpeting; some with air conditioning; security system; grab bars in bathroom Building,emergency call service; social programs; congregate meal service; hairdresser; homecare in building,,Brenda or Leverne Penner,204-326-2002,,,,303-3rd Street,,Steinbach,MB,R5G 1K1,Canada,Senior Housing
Canada-MB-23-SeniorHousing-23-SeniorHousing-132,Ste. Rose du Lac (Prairie Mountain Health RHA) Leisure Apartments,,,,Dr. Gendreau Personal Care Home,,24,1 Bedroom Rental,Kitchen Building,,,Dr. Gendreau Personal Care Home,204-447-2019,,,,Memorial Drive,,Ste. Rose Du Lac,MB,R0L 1X0,Canada,Senior Housing
Canada-MB-23-SeniorHousing-23-SeniorHousing-133,St. Eustache (Southern Health RHA) St. Eustache Manor,,,,Manitoba Housing,,12,1 Rental,Kitchen; bathroom Building,Social programs,,Barb Congram (MH Portage),204-239-3687,,,,248 Provincial Road,,St. Eustache,MB,R0H 1H0,Canada,Senior Housing
Canada-MB-23-SeniorHousing-23-SeniorHousing-134,St. George (Interlake RHA) Foyer Chateauguay Home,,,,Manitoba Housing Authority,,15,1 Studio; 1 bedroom Rental,Kitchen Building,social programs;,,Cindy Zinyk (MHA Selkirk),204-785-5228,,,,21 Baie Caron,,St. George,MB,R0E 1V0,Canada,Senior Housing
Canada-MB-23-SeniorHousing-23-SeniorHousing-135,St. Jean (Southern Health RHA) Paradis Des Pionniers,,,,MB Housing &amp; Paradis Des Pionniers Inc.,,25,1 Bachelor; 1 bedroom; 2 bedroom Rental,Building,Meal service; social programs; bus outings; grocery shopping; homecare in building,,Sandra Fillion,204-758-3025,,,,,Box 249,St. Jean,MB,R0G 2B0,Canada,Senior Housing
Canada-MB-23-SeniorHousing-23-SeniorHousing-136,St. Laurent (Interlake RHA) Foyer Laurentien Lodge,,,,Manitoba Housing Authority,,20,1 Bachelor; 1 bedroom Rental,Kitchen Building,Emergency call service; social programs; congregate meal service,,Kathy Barnard,204-785-5235,,,,,,St. Laurent,MB,R0C 2S0,Canada,Senior Housing
Canada-MB-23-SeniorHousing-23-SeniorHousing-137,St. Lazare (Prairie Mountain Health RHA) Charlier Ave.,,,,Manitoba Housing Authority,,12,1 Bachelor and 1 Bedroom Rental,Kitchen Building,,,Gail Chescu,204-937-6474,,,,Charlier Ave.,,St. Lazare,MB,R0M 1Y0,Canada,Senior Housing
Canada-MB-23-SeniorHousing-23-SeniorHousing-138,St. Leon (Southern Health RHA) Rue des Peres,,,,Manitoba Housing,,1 Duplex,1 1 Bedroom Rental,Kitchen; in-suite laundry room; bathroom Building,,,Fern Gervais (MH Portage),204-248-7274 toll-free 1-866-440-4663,,,,Rue des Peres,,St. Leon,MB,R0G 2E0,Canada,Senior Housing
Canada-MB-23-SeniorHousing-23-SeniorHousing-139,St. Malo Southern Health RHA Chalet Malouin Inc.,,,,Chalet Malouin Inc.,,84,1 Bachelor; 1 bedroom; 2 bedroom Rental,Kitchen; carpeting; draperies Building,Cleaning/linen services; on call medical services; homecare in building; emergency call service; social programs; instructional programs; congregate meal service; meal delivery;  senior coordinator; bus outings; grocery shopping,,,204-347-5753,,,,14 St. Hilaire Street,,St. Malo,MB,R0A 1T0,Canada,Senior Housing
Canada-MB-23-SeniorHousing-23-SeniorHousing-140,Stonewall (Interlake RHA) Stonewall and District Lions Manor,,,,Interlake Eastern RHA,,30,2 1 Bedroom Rental,Kitchen; cable (extra); carpeting; draperies; smoke detectors; grab bars in bathroom Building,On-call medical services; emergency call service; social programs; congregate meal service,,Brigette Budgell (Pinawa MB),204-753-3100,,,,385 34rd Street W,Box 760,Stonewall,MB,R0C 2Z0,Canada,Senior Housing
Canada-MB-23-SeniorHousing-23-SeniorHousing-141,Stony Mountain (Interlake RHA) Hilltop Manor,,,,Manitoba Housing Authority,,12,1 1 Bedroom Rental,Kitchen Building,Social programs; congregate meal service; meal delivery,,Kathy Barnard,204-785-5235,,,,,,Stony Mountain,MB,R0C 3A0,Canada,Senior Housing
Canada-MB-23-SeniorHousing-23-SeniorHousing-142,St. Pierre Joly (Southern Health RHA) Manoir St. Pierre Inc.,,,,St. Pierre Manor Inc.,,60,1 Bachelor; 1 bedroom; 2 bedroom Rental,Kitchen; grab bars in bathroom Building,"Congregate meal services; bus outings, grocery shopping; homecare in the building; social programs",,Leon Morrissette,204-433-3724,,,,449 Joly Ouest,,St. Pierre Joly,MB,R0A 1V0,Canada,Senior Housing
Canada-MB-23-SeniorHousing-23-SeniorHousing-143,Strathclair (Prairie Mountain Health RHA) Centennial Lodge,,,,Strathclair Seniors Home Inc,,12,1 Bachelor; 1 bedroom Rental,Kitchen; cable; draperies; grab bars in bathroom Building,Social programs; meal program; homecare,,,204-365-2567,,,,6 Arnitt St,,Strathclair,MB,R0J 2C0,Canada,Senior Housing
Canada-MB-23-SeniorHousing-23-SeniorHousing-144,Swan Lake (Southern Health RHA) Swan Lake Senior Citizens Home,,,,Swan Lake Sr Cit Home Inc.,,11,1 1 Bedroom Rental,Kitchen; carpeting Building,emergency call service; meal delivery; pharmacist visits; hairdresser visits; church services,,Betty-Ann DeCeuleneer,204-836-2616,,,,,Box 97,Swan Lake,MB,R0G 2S0,Canada,Senior Housing
Canada-MB-23-SeniorHousing-23-SeniorHousing-145,Swan River Duck Mountain Manor,,,,Temple Baptist Housing Coop,,30,3 1 Bedroom; 2 bedroom Rental,Kitchen; cable; carpeting Building,Emergency call service; social programs,,Alvin Berkam,204-734-9321,,,,203 8th Ave. S,,Swan River,MB,R0L 1Z0,Canada,Senior Housing
Canada-MB-23-SeniorHousing-23-SeniorHousing-146,Teulon (Interlake RHA) Crescent Creek Park,,,,Manitoba Housing,,18,1 Bachelor; 1 bedroom Rental,Kitchen; cable TV Building,Meal service,,Maureen Paskaruk (MHA Gimli),204-642-6060,,,,20 Fifth Ave,,Teulon,MB,R0C 3B0,Canada,Senior Housing
Canada-MB-23-SeniorHousing-23-SeniorHousing-147,The Pas (Northern RHA) Northern View Lodge,,,,Manitoba Housing Authority,,15,1 1 Bedroom; 2 bedroom Rental,Kitchen Building,,,,204-627-8355,,,,524 Fafard Avenue,,The Pas,MB,R9A 1K6,Canada,Senior Housing
Canada-MB-23-SeniorHousing-23-SeniorHousing-148,Thompson (Northern RHA) Rotary Place,,,,Manitoba Housing Authority,,10,3 2 Bedroom; 3 bedroom Rental,Kitchen and balconies Building,,,,204-627-8355,,,,38 Brandon Crescent,,Thompson,MB,R8N 1N5,Canada,Senior Housing
Canada-MB-23-SeniorHousing-23-SeniorHousing-149,Treherne (Prairie Mountain Health RHA) Broadway Ave”ÛÄ,,,,Treherne Legion Lodge Inc.,,11,1 Bachelor; 1 bedroom Rental,Kitchen; cable; grab bars in bathroom Building,social/recreational programs; home care; handitransit available; auto door opener,,Georgina Rintoul,204-726-2633,,,,188 Smith St,,Treherne,MB,R0G 2V0,Canada,Senior Housing
Canada-MB-23-SeniorHousing-23-SeniorHousing-150,Tyndall (Interlake RHA) Tyndall Manor,,,,Manitoba Housing,,12,1 1 Bedroom Rental,Kitchen Building,,,Rhonda Stika (MHA Selkirk),204-785-5382,,,,19 First Street,,Tyndall,MB,R0E 2B0,Canada,Senior Housing
Canada-MB-23-SeniorHousing-23-SeniorHousing-151,Vassar (Southern Health RHA) Sandy Crescent,,,,Manitoba Housing Authority,,8,1 1 Bedroom Rental,Kitchen; in-suite laundry room Building,Social programs; emergency call service,,Sharon Yatsko (MH Eastman/Interlake),1-204-425-5010,,,,Sandy Crescent,,Vassar,MB,R0A 2J0,Canada,Senior Housing
Canada-MB-23-SeniorHousing-23-SeniorHousing-152,Victoria Beach (Interlake RHA) Ateah Road,,,,Desi Trainer,,4,1 1 Bedroom Rental,Kitchen Building,emergency call service,,Desi Trainer,204-756-2701,,,,5 Ateah Road,,Victoria Beach,MB,R0E 2C0,Canada,Senior Housing
Canada-MB-23-SeniorHousing-23-SeniorHousing-153,Virden (Prairie Mountain Health RHA) Princess Lodge,,,,Manitoba Housing,,8,2 Bachelor; 1 bedroom Rental,Kitchen; bathroom Building,Social programs; instructional programs; congregate meal services; meal delivery; 24 hour block Home Care available; Handi transit available;,,Barb Congram (MH Portage),204-239-3687,,,,257 Hargrave St. E,,Virden,MB,R0M 2C0,Canada,Senior Housing
Canada-MB-23-SeniorHousing-23-SeniorHousing-154,Vita (Southern Health RHA) Shady Oaks Lodge,,,,Manitoba Housing Authority,,32,1 Bachelor; 1 bedroom Rental,Kitchen Building,Congregate meal service; meal deliver; Enter phone system; social and recreational programs; bus outings,,Sharon Yatsko,204-425-5010,,,,133 Drull Ave.,,Vita,MB,R0A 2K0,Canada,Senior Housing
Canada-MB-23-SeniorHousing-23-SeniorHousing-155,Waskada (Prairie Mountain Health RHA) Waskada,,,,Manitoba Housing Authority,,6,1 1 Bedroom Rental,Kitchen; in-suite laundry room Building,,,,204-726-6455,,,,,,Waskada,MB,R0M 2E0,Canada,Senior Housing
Canada-MB-23-SeniorHousing-23-SeniorHousing-156,Wawanesa (Prairie Mountain Health RHA) Valley Lodge,,,,Valley Lodge Wawanesa Inc.,,12,1 Bachelor; 1 bedroom Rental,Kitchen; bathroom Building,Emergency call service,,Shirley Bell,204-824-2359,,,,429 Commercial Street,,Wawanesa,MB,R0K 2G0,Canada,Senior Housing
Canada-MB-23-SeniorHousing-23-SeniorHousing-157,Westbourne (Southern Health RHA) First Crossing Courts,,,,Manitoba Housing,,8,1 1 Bedroom Rental,Kitchen; bathroom Building,,,Cornie Wolfe (MH Portage),204-239-3685,,,,641 Main Street,,Westbourne,MB,R0H 1P0,Canada,Senior Housing
Canada-MB-23-SeniorHousing-23-SeniorHousing-158,Whitemouth (Interlake RHA) Riverbend Manor Inc.,,,,Manitoba Housing Authority,,12,1 Bachelor; 1 bedroom Rental,Kitchen Building,Emergency call service; meal delivery,,,204-785-5228,,,,General Delivery,,Whitemouth,MB,R0E 2G0,Canada,Senior Housing
Canada-MB-23-SeniorHousing-23-SeniorHousing-159,Winkler (Southern Health RHA) Heritage Manor,,,,Winkler Heritage Village Inc.,,34,6 Bachelor; 1 bedroom Rental,Kitchen; cable; grab bars in bathroom Building,Social programs; congregate meal service; meal delivery; emergency call service; homecare in building,,Cornelious Froese,204-325-8810,,,,Street,,Winkler,MB,R6W 4C6,Canada,Senior Housing
Canada-MB-23-SeniorHousing-23-SeniorHousing-160,Winnipeg Beach (Interlake RHA) Winnipeg Beach Lake Lodge,,,,Manitoba Housing,,20,1 Bachelor; 1 bedroom Rental,Kitchen Building,Congregate meal service;,,Maureen Paskaruk (MHA Gimli),204-642-6060,,,,32 Centre St,,Winnipeg Beach,MB,R0C 3G0,Canada,Senior Housing
Canada-MB-23-SeniorHousing-23-SeniorHousing-161,Winnipegosis (Prairie Mountain Health RHA),,,,Manitoba Housing Authority,,12,1 Bachelor; 1 bedroom Rental,Kitchen; cable Building,Emergency call service and congregate meals,,Jack Ogryzlo,204-656-4558,,,,1st or 2nd St.,,Winnipegosis,MB,R0L 2G0,Canada,Senior Housing
Canada-MB-23-SeniorHousing-23-SeniorHousing-162,Woodlands (Interlake RHA) Oak Park Lodge Inc.,,,,Committee of Woodland CMHC,,24,1 1 Bedroom Rental,Kitchen Building,Social programs; congregate meal service; meal delivery,,,204-383-5903,,,,75 Railway Ave.,,Woodlands,MB,R0C 3H0,Canada,Senior Housing
