row_id,Facility Name,Address1,Address2,City,Zip,State,Administrator,Phone,Fax,License Number,License Exp.,Country,facility_type
USA-IN-84-IN-ResidentialCare-output-1,1717 SENIOR LIVING LLC,1703 W 86TH STREET,,INDIANAPOLIS,46260,IN,SHELLY MCFALL,(317)826-2916,,17-013880-1,10/31/2017,US,Residential Care
USA-IN-84-IN-ResidentialCare-output-2,ADDISON PLACE,2244 Q AVE,,NEW CASTLE,47362,IN,STACI KEEN,(765)521-3220,(765)521-3260,17-004426-1,6/30/2018,US,Residential Care
USA-IN-84-IN-ResidentialCare-output-3,ALLISONVILLE MEADOWS ASSISTED LIVING,10410 ALLISONVILLE ROAD,,FISHERS,46038,IN,CARRIE HAMILTON,(317)436-6400,(317)436-6401,17-013039-1,1/31/2018,US,Residential Care
USA-IN-84-IN-ResidentialCare-output-4,"APERION ESTATES PERU, LLC",1200 KITTYHAWK DRIVE,,PERU,46970,IN,ALICIA BAUER,(765)689-7305,(765)689-7333,16-013327-1,8/31/2017,US,Residential Care
USA-IN-84-IN-ResidentialCare-output-5,ASSISTED LIVING AT HARTSFIELD VILLAGE,10002 COLUMBIA AVE,,MUNSTER,46321,IN,LESLIE RILEY,(219)934-0580,(219)934-2045,17-010937-1,3/31/2018,US,Residential Care
USA-IN-84-IN-ResidentialCare-output-6,ASSISTED LIVING AT ROMWEBER FLATS,123 SOUTH DEPOT STREET,,BATESVILLE,47006,IN,DENNIS PINKERTON,(812)932-3528,(812)932-3529,17-013321-1,12/31/2017,US,Residential Care
USA-IN-84-IN-ResidentialCare-output-7,ASTER PLACE,741 PARK EAST BLVD,,LAFAYETTE,47905,IN,VICKIE HOLCOMB,(765)446-3540,(765)446-9500,16-013045-1,11/30/2017,US,Residential Care
USA-IN-84-IN-ResidentialCare-output-8,AUTUMN GLEN,98 NORTH 10TH STREET,,GREENCASTLE,46135,IN,"WILLIAM ORIS ""TREI"" BARNETT",(765)653-6999,(765)653-1689,16-013322-1,10/31/2017,US,Residential Care
USA-IN-84-IN-ResidentialCare-output-9,AUTUMN HILLS ALZHEIMER'S SPECIAL CARE CENTER,3203 MOORES PIKE ROAD,,BLOOMINGTON,47401,IN,LAUREN HAYDEN,(812)335-4655,,16-012706-1,11/30/2017,US,Residential Care
USA-IN-84-IN-ResidentialCare-output-10,AZALEA HILLS,3700 LAFAYETTE PKWY,,FLOYDS KNOBS,47119,IN,CASSANDRA MCCOUN,(812)923-4888,(812)923-4889,16-012161-1,11/30/2017,US,Residential Care
USA-IN-84-IN-ResidentialCare-output-11,BELL OAKS PLACE,4200 WYNTREE DR,,NEWBURGH,47630,IN,LAURA BARNETT,(812)858-0488,(812)858-3762,17-004903-1,6/30/2018,US,Residential Care
USA-IN-84-IN-ResidentialCare-output-12,BELVEDERE SENIOR HOUSING,343 E 90TH DRIVE,,MERRILLVILLE,46410,IN,SUSAN L TIPTON HUTTEL,(219)769-2145,(219)769-2726,17-014178-1,11/30/2017,US,Residential Care
USA-IN-84-IN-ResidentialCare-output-13,BENNETT PLACE,3928 HORNE AVE,,NEW ALBANY,47150,IN,RICHARD PEDERSEN,(812)948-1960,(812)949-7857,17-004442-1,6/30/2018,US,Residential Care
USA-IN-84-IN-ResidentialCare-output-14,BETHANY VILLAGE ASSISTED LIVING,3530 S SHELBY ST,,INDIANAPOLIS,46227,IN,DANA HUFFMAN,(317)784-3066,(317)781-3037,17-001121-1,7/31/2018,US,Residential Care
USA-IN-84-IN-ResidentialCare-output-15,BICKFORD OF CARMEL,5829  EAST 116TH STREET,,CARMEL,46033,IN,JACKIE ADAMS,(317)807-1500,(317)819-0294,17-013217-1,5/31/2018,US,Residential Care
USA-IN-84-IN-ResidentialCare-output-16,BICKFORD OF CROWN POINT,140 E 107TH AVENUE,,CROWN POINT,46307,IN,,(219)663-0972,(219)663-6825,17-012940-1,4/30/2018,US,Residential Care
USA-IN-84-IN-ResidentialCare-output-17,BICKFORD OF GREENWOOD,3021 STELLA DRIVE,,GREENWOOD,46143,IN,KRISTINA BLUMENSTOCK,(317)807-3077,(913)782-4851,17-012938-1,2/28/2018,US,Residential Care
USA-IN-84-IN-ResidentialCare-output-18,BLISS PLACE,3008 SHAWNEE DR S,,BEDFORD,47421,IN,DOROTHY MOSIER,(812)275-2468,(812)275-2491,17-004011-1,6/30/2018,US,Residential Care
USA-IN-84-IN-ResidentialCare-output-19,BLOOM AT EAGLE CREEK,5045 W 52ND ST,,INDIANAPOLIS,46254,IN,ROBERT THAYER,(317)293-2929,(317)293-1806,17-003915-1,7/31/2018,US,Residential Care
USA-IN-84-IN-ResidentialCare-output-20,BLOOM AT GERMAN CHURCH,2250 HARVEST MOON DR,,INDIANAPOLIS,46229,IN,JAMES KESLER,(317)891-1508,(317)894-2074,17-003916-1,7/31/2018,US,Residential Care
USA-IN-84-IN-ResidentialCare-output-21,BRECKENRIDGE COMMONS,2009 NORTH HOSPITAL BLVD,,SULLIVAN,47882,IN,ERIN LINN CRAIG,(812)268-2000,(317)818-1430,17-013401-1,8/31/2018,US,Residential Care
USA-IN-84-IN-ResidentialCare-output-22,BRENTWOOD AT HOBART,1420 ST MARY CIR,,HOBART,46342,IN,AMANDA QUESENBERRY,(219)945-1968,(219)945-1219,17-002627-1,4/30/2018,US,Residential Care
USA-IN-84-IN-ResidentialCare-output-23,BRENTWOOD AT LAPORTE,2002 ANDREW AVE,,LA PORTE,46350,IN,KAITLYNN DUGAN,(219)325-1599,(219)362-1682,17-010890-1,4/30/2018,US,Residential Care
USA-IN-84-IN-ResidentialCare-output-24,BRIDGE AT GARDEN PLAZA,8614 W 10TH  ST,,INDIANAPOLIS,46234,IN,STEPHANIE TUMMINELLO,(317)271-1020,(317)273-1448,17-005616-1,8/31/2018,US,Residential Care
USA-IN-84-IN-ResidentialCare-output-25,BROOKDALE BLOOMINGTON,3802 SARE RD,,BLOOMINGTON,47401,IN,,(812)330-0885,(812)330-1827,16-011076-1,10/31/2017,US,Residential Care
USA-IN-84-IN-ResidentialCare-output-26,BROOKDALE CARMEL,301 EXECUTIVE DR,,CARMEL,46032,IN,ASHLEY WOODCOX,(317)580-0389,(317)843-9790,16-010416-1,10/31/2017,US,Residential Care
USA-IN-84-IN-ResidentialCare-output-27,BROOKDALE CASTLETON,8480 CRAIG ST,,INDIANAPOLIS,46250,IN,ANGELA MARTINEZ,(317)842-6564,(317)842-8742,16-009894-1,9/30/2017,US,Residential Care
USA-IN-84-IN-ResidentialCare-output-28,BROOKDALE EVANSVILLE,6521 GREENDALE DR,,EVANSVILLE,47711,IN,DIADREE JOLLY,(812)867-7900,(812)867-1272,17-010681-1,7/31/2018,US,Residential Care
USA-IN-84-IN-ResidentialCare-output-29,BROOKDALE FORT WAYNE,4730 E STATE BLVD,,FORT WAYNE,46815,IN,KATHLEEN DIIANNI,(260)484-0308,(260)471-6665,17-003273-1,1/31/2018,US,Residential Care
USA-IN-84-IN-ResidentialCare-output-30,BROOKDALE GRANGER,430 CLEVELAND RD,,GRANGER,46530,IN,TIFFANY KUZIO,(574)243-9020,(574)243-5909,17-002556-1,5/31/2018,US,Residential Care
USA-IN-84-IN-ResidentialCare-output-31,BROOKDALE MARION,2452 W KEM RD,,MARION,46952,IN,ELIZABETH PATTON,(765)384-4500,(765)384-4502,17-010682-1,7/31/2018,US,Residential Care
USA-IN-84-IN-ResidentialCare-output-32,BROOKDALE PORTAGE,3444 SWANSON RD,,PORTAGE,46368,IN,KYLIE PEARISH,(219)763-4867,(219)764-0896,17-010889-1,12/31/2017,US,Residential Care
USA-IN-84-IN-ResidentialCare-output-33,BROOKDALE RICHMOND,3700 S A ST,,RICHMOND,47374,IN,MELISSA NESTER,(765)939-3310,(765)939-1683,16-010888-1,11/30/2017,US,Residential Care
USA-IN-84-IN-ResidentialCare-output-34,BROOKDALE SOUTH BEND,17441 SR 23,,SOUTH BEND,46635,IN,JUSTIN KIMBRELL,(574)273-2233,(574)273-0164,17-010667-1,6/30/2018,US,Residential Care
USA-IN-84-IN-ResidentialCare-output-35,BROOKDALE VALPARAISO,2601 VALPARAISO ST,,VALPARAISO,46383,IN,REBECCA ARTHUR,(219)548-2230,(219)548-8197,17-010757-1,8/31/2018,US,Residential Care
USA-IN-84-IN-ResidentialCare-output-36,BROWNSBURG MEADOWS ASSISTED LIVING,7133 MEADOW TRAIL,,BROWNSBURG,46112,IN,KRIS GRAPHMAN,(317)852-1977,(317)520-5410,16-013356-1,10/31/2017,US,Residential Care
USA-IN-84-IN-ResidentialCare-output-37,CARMEL SENIOR LIVING,13390 N ILLINOIS STREET,,CARMEL,46032,IN,RITA SHEW,(317)451-4702,(317)818-0630,17-013297-1,12/31/2017,US,Residential Care
USA-IN-84-IN-ResidentialCare-output-38,CENTURY FIELDS RETIREMENT COMMUNITY LP,825 N MERIDIAN ST,,GREENTOWN,46936,IN,JOHN MARTIN,(765)628-3377,(765)628-3950,17-013128-1,4/30/2018,US,Residential Care
USA-IN-84-IN-ResidentialCare-output-39,CHANDLER PLACE,2879 S LIMA RD,,KENDALLVILLE,46755,IN,KATIE ROBINSON,(260)349-1030,(260)349-1250,17-004440-1,6/30/2018,US,Residential Care
USA-IN-84-IN-ResidentialCare-output-40,CHAPMAN PLACE,3110 E COLISEUM BLVD,,FORT WAYNE,46805,IN,,(260)471-3110,(260)471-9822,16-010235-1,6/30/2018,US,Residential Care
USA-IN-84-IN-ResidentialCare-output-41,CHARLES FORD MEMORIAL HOME INC,920 S MAIN ST,,NEW HARMONY,47631,IN,AMY KNOPF-KOCH,(812)682-4685,(812)682-4676,16-001123-1,9/30/2017,US,Residential Care
USA-IN-84-IN-ResidentialCare-output-42,CHATEAU OF BATESVILLE,44 CHATEAU BLVD,,BATESVILLE,47006,IN,DANIEL KENYON,(812)932-8888,(812)932-8899,16-006489-1,9/30/2017,US,Residential Care
USA-IN-84-IN-ResidentialCare-output-43,CHRISTINA PLACE,1435 CHRISTIAN BLVD,,FRANKLIN,46131,IN,JERRILYNN O'NEILL,(317)535-6550,(317)535-6553,17-004017-1,6/30/2018,US,Residential Care
USA-IN-84-IN-ResidentialCare-output-44,CLARENDALE OF SCHERERVILLE,7770 BURR STREET,,SCHERERVILLE,46375,IN,MARK MIRON,(219)322-8855,(515)875-4780,17-013825-1,8/31/2018,US,Residential Care
USA-IN-84-IN-ResidentialCare-output-45,CLARKSVILLE SENIOR LIVING LLC,400 HUNTER STATION ROAD,,SELLERSBURG,47172,IN,JENNIFER GELLINGER,(812)252-2000,,17-013841-2,4/30/2018,US,Residential Care
USA-IN-84-IN-ResidentialCare-output-46,COUNTRY CHARM,3177 MERIDIAN PARKE DR,,GREENWOOD,46142,IN,DEBORAH THOMPSON,(317)882-5455,(317)882-3606,16-011478-1,9/30/2017,US,Residential Care
USA-IN-84-IN-ResidentialCare-output-47,COVENTRY MEADOWS ASSISTED LIVING,7833 W JEFFERSON BLVD,,FORT WAYNE,46804,IN,LINDSEY BROYLES,(260)432-4848,(260)435-2115,17-005846-1,1/31/2018,US,Residential Care
USA-IN-84-IN-ResidentialCare-output-48,CRAWFORDSVILLE BICKFORD COTTAGE,100 BICKFORD LN,,CRAWFORDSVILLE,47933,IN,LORA REEVES,(765)362-2000,(765)362-2004,17-003674-1,5/31/2018,US,Residential Care
USA-IN-84-IN-ResidentialCare-output-49,CRESTWOOD VILLAGE SOUTH APARTMENTS LLC,8809 MADISON AVENUE,,INDIANAPOLIS,46227,IN,BETH ELLEN WELCH,(317)885-3461,(317)885-3467,17-013367-1,6/30/2018,US,Residential Care
USA-IN-84-IN-ResidentialCare-output-50,CROWN POINTE SENIOR LIVING COMMUNITY,1034 CROWN POINTE BLVD,,GREENSBURG,47240,IN,AMANDA OAKES,(812)662-8888,(812)662-8899,17-011914-1,4/30/2018,US,Residential Care
USA-IN-84-IN-ResidentialCare-output-51,CROWN SENIOR LIVING,7960 SHADELAND AVENUE NORTH,,INDIANAPOLIS,46250,IN,KAMALA WEST,(317)376-4639,(317)376-4638,16-013328-1,9/30/2017,US,Residential Care
USA-IN-84-IN-ResidentialCare-output-52,CROWNPOINTE OF ANDERSON,2727 CROWNPOINTE CIR,,ANDERSON,46012,IN,NANCY MORGAN,(765)641-9995,(765)622-0340,16-012129-1,11/30/2017,US,Residential Care
USA-IN-84-IN-ResidentialCare-output-53,CROWNPOINTE OF CARMEL,11610 TECHNOLOGY DR,,CARMEL,46032,IN,JOYCE CALLAHAN,(317)818-1786,(317)818-1796,17-012309-1,6/30/2018,US,Residential Care
USA-IN-84-IN-ResidentialCare-output-54,CROWNPOINTE OF GREENFIELD,831 SWOPE STREET,,GREENFIELD,46140,IN,ANGELA SHELL,(317)467-9317,(317)467-4463,17-012798-1,1/31/2018,US,Residential Care
USA-IN-84-IN-ResidentialCare-output-55,CROWNPOINTE OF HARTFORD CITY,100 INDEPENDENCE PARKWAY,,HARTFORD CITY,47348,IN,LARRY NEW,(765)348-3250,(765)348-3894,17-013578-1,5/31/2018,US,Residential Care
USA-IN-84-IN-ResidentialCare-output-56,CROWNPOINTE OF INDIANAPOLIS,7365 E 16TH ST,,INDIANAPOLIS,46219,IN,LORI WEAVER,(317)351-2578,(317)375-7626,17-005729-1,12/31/2017,US,Residential Care
USA-IN-84-IN-ResidentialCare-output-57,CROWNPOINTE OF LEBANON,610 CROWNPOINTE DRIVE,,LEBANON,46052,IN,LILLIE LORENE BATLEY,(765)482-3436,(765)482-3439,17-013582-1,4/30/2018,US,Residential Care
USA-IN-84-IN-ResidentialCare-output-58,CROWNPOINTE OF PORTLAND,745 PATRIOT DRIVE,,PORTLAND,47371,IN,AMANDA HIRSCHY,(260)726-3577,(260)726-2002,17-014090-1,9/30/2017,US,Residential Care
USA-IN-84-IN-ResidentialCare-output-59,DIGBY PLACE,167 CR W 240 S,,LAFAYETTE,47905,IN,TIFFANY TRIBBLE,(765)471-8552,(765)471-0763,17-004392-1,6/30/2018,US,Residential Care
USA-IN-84-IN-ResidentialCare-output-60,EASTLAKE TERRACE,3109 E BRISTOL,,ELKHART,46514,IN,STEPHANIE MAUPIN,(574)266-4508,(574)264-2383,17-010065-1,4/30/2018,US,Residential Care
USA-IN-84-IN-ResidentialCare-output-61,ELKHART PLACE,27833 CR 24,,ELKHART,46517,IN,JUDITH HOESE,(574)295-9058,(574)295-9906,17-004353-2,6/30/2018,US,Residential Care
USA-IN-84-IN-ResidentialCare-output-62,ELMCROFT OF MUNCIE,1601 N MORRISON RD,,MUNCIE,47304,IN,DAWN BEEMAN,(765)286-9907,(765)281-9476,17-010886-1,6/30/2018,US,Residential Care
USA-IN-84-IN-ResidentialCare-output-63,EMERALD PLACE,297 S 100 E,,WASHINGTON,47501,IN,VANESSA KAVANAUGH,(812)254-5230,(812)257-0828,17-004904-1,6/30/2018,US,Residential Care
USA-IN-84-IN-ResidentialCare-output-64,FRANCISCAN HEALTH ALTERNACARE,1104 E GRACE ST,,RENSSELAER,47978,IN,DEBORAH RILEY,(219)866-5141,(219)866-2052,16-005072-1,6/30/2018,US,Residential Care
USA-IN-84-IN-ResidentialCare-output-65,GENTRY PARK -BLOOMINGTON LLC,901 S HASTINGS DR,,BLOOMINGTON,47401,IN,MEGHAN YODER,(812)668-1200,,17-013766-1,2/28/2018,US,Residential Care
USA-IN-84-IN-ResidentialCare-output-66,GEORGETOWN PLACE,1717 MAPLECREST ROAD,,FORT WAYNE,46815,IN,KRISTINE ANN LUNDQUIST,(260)493-6927,(972)770-5666,17-013463-1,11/30/2017,US,Residential Care
USA-IN-84-IN-ResidentialCare-output-67,GI-XXXIV SUMMERS POINTE OPERATOR LLC,1 SUNSET DRIVE,,WINCHESTER,47394,IN,JODIE MARKER,(765)584-7676,(765)584-7496,16-013838-1,10/31/2017,US,Residential Care
USA-IN-84-IN-ResidentialCare-output-68,GRAND EMERALD PLACE,4010 S IRONWOOD DR,,SOUTH BEND,46614,IN,THERESA TEEPLE,(574)291-2222,(574)231-9401,17-013555-1,12/31/2017,US,Residential Care
USA-IN-84-IN-ResidentialCare-output-69,GREENBRIAR VILLAGE,8800 SPOON DR,,INDIANAPOLIS,46219,IN,CARRIE VANVELSE,(317)899-6777,(317)899-2659,17-011799-1,7/31/2018,US,Residential Care
USA-IN-84-IN-ResidentialCare-output-70,HAMILTON PLACE,2116 BUTLER RD,,FORT WAYNE,46815,IN,KATASCHA ZOLMAN,(260)471-0944,(260)482-7476,17-004686-1,6/30/2018,US,Residential Care
USA-IN-84-IN-ResidentialCare-output-71,HEARTH AT JUDAY CREEK LLC,6330 N FIR RD,,GRANGER,46530,IN,LAURA PAYNE,(574)243-5557,(574)243-5559,17-012229-1,3/31/2018,US,Residential Care
USA-IN-84-IN-ResidentialCare-output-72,HEARTH AT PRESTWICK,182 S CR 550 E,,AVON,46123,IN,MARIA CASH,(317)745-2766,(317)718-1051,17-003902-1,4/30/2018,US,Residential Care
USA-IN-84-IN-ResidentialCare-output-73,HEARTH AT STONES CROSSING LLC THE,2339 S STATE ROAD 135,,GREENWOOD,46143,IN,STEPHEN EVANS,(317)535-0422,(317)535-0425,17-005722-1,7/31/2018,US,Residential Care
USA-IN-84-IN-ResidentialCare-output-74,HEARTH AT SYCAMORE VILLAGE LLC,611 W COUNTY LINE RD SOUTH,,FORT WAYNE,46814,IN,CHRISTOPHER CASE,(260)625-4025,(260)625-3466,17-011804-1,7/31/2018,US,Residential Care
USA-IN-84-IN-ResidentialCare-output-75,HEARTH AT TUDOR GARDENS LLC,11755  N MICHIGAN RD,,ZIONSVILLE,46077,IN,DAVID MOBERG,(317)873-6300,(317)873-6375,17-012263-1,4/30/2018,US,Residential Care
USA-IN-84-IN-ResidentialCare-output-76,HEARTH AT WINDERMERE,9745 OLYMPIA DR,,FISHERS,46038,IN,HEIDI MARIE MYERS,(317)576-1925,(317)578-1742,17-002999-1,4/30/2018,US,Residential Care
USA-IN-84-IN-ResidentialCare-output-77,HERITAGE POINT ALZHEIMER'S SPECIAL CARE CENTER,1215 TRINITY PLACE,,MISHAWAKA,46545,IN,LORI CRISPEN,(574)247-7400,(574)247-7399,17-013330-1,6/30/2018,US,Residential Care
USA-IN-84-IN-ResidentialCare-output-78,HI JILL'S HOUSE LLC,751 E TAMARACK TRAIL,,BLOOMINGTON,47408,IN,NICOLE BAYS,(812)787-7692,,17-013824-1,1/31/2018,US,Residential Care
USA-IN-84-IN-ResidentialCare-output-79,INDEPENDENT LIVING CLUB,6038 W 25TH ST,,INDIANAPOLIS,46224,IN,CYNTHIA JONES,(317)291-5228,(317)328-8329,17-001132-1,6/30/2018,US,Residential Care
USA-IN-84-IN-ResidentialCare-output-80,INDIANA MASONIC HOME INC,690 STATE STREET,,FRANKLIN,46131,IN,CHARLES SPENCER,(317)736-6141,(317)736-0454,17-013460-1,3/31/2018,US,Residential Care
USA-IN-84-IN-ResidentialCare-output-81,JEWEL PLACE,607 VIRGINIA AVE,,MADISON,47250,IN,JOHN EVERHART,(812)273-0432,(812)273-0065,17-004352-1,6/30/2018,US,Residential Care
USA-IN-84-IN-ResidentialCare-output-82,JOURNEY SENIOR LIVING OF MERRILLVILLE LLC,7900 RHODE ISLAND STREET,,MERRILLVILLE,46410,IN,TARA HOLMES,(219)525-4123,,17-013733-1,12/31/2017,US,Residential Care
USA-IN-84-IN-ResidentialCare-output-83,KEEPSAKE VILLAGE OF COLUMBUS,2564 FOXPOINTE DR,,COLUMBUS,47201,IN,LUAN DESKINS,(812)372-0950,(812)372-1762,17-010680-1,4/30/2018,US,Residential Care
USA-IN-84-IN-ResidentialCare-output-84,KESSLERWOOD PLACE,5011 KESSLER BLVD E,,INDIANAPOLIS,46220,IN,LORNA CASTILLO,(317)251-1300,(317)251-7720,17-010064-1,7/31/2018,US,Residential Care
USA-IN-84-IN-ResidentialCare-output-85,KEYSTONE WOODS,2335 N MADISON AVE,,ANDERSON,46011,IN,JEANNE BROWN,(765)642-8020,(765)642-8015,17-010409-1,7/31/2018,US,Residential Care
USA-IN-84-IN-ResidentialCare-output-86,KINGSTON AT DUPONT,1716 E DUPONT RD,,FORT WAYNE,46825,IN,DANIELLE SORG,(260)490-5111,(260)490-5112,16-003000-1,11/30/2017,US,Residential Care
USA-IN-84-IN-ResidentialCare-output-87,KINGSTON RESIDENCE OF FORT WAYNE,7515 WINCHESTER RD,,FORT WAYNE,46819,IN,ERIN FLOYD,(260)747-1523,(260)747-1525,16-001135-1,11/30/2017,US,Residential Care
USA-IN-84-IN-ResidentialCare-output-88,KOKOMO PLACE,3025 W SYCAMORE ST,,KOKOMO,46901,IN,PEGGY FRYE,(765)456-1490,(765)456-1491,16-011075-1,10/31/2017,US,Residential Care
USA-IN-84-IN-ResidentialCare-output-89,LAFAYETTE BICKFORD COTTAGE,3633 REGAL VALLEY DR,,LAFAYETTE,47901,IN,,(765)477-0770,(765)477-0826,17-004503-1,4/30/2018,US,Residential Care
USA-IN-84-IN-ResidentialCare-output-90,LAKE CITY PLACE,425 CHINWORTH CT,,WARSAW,46580,IN,KATIE ROBINSON,(574)267-3873,(574)267-6352,17-011389-1,6/30/2018,US,Residential Care
USA-IN-84-IN-ResidentialCare-output-91,LAKE PARK RESIDENTIAL CARE,2075 RIPLEY ST,,LAKE STATION,46405,IN,JOELYNN MILLER-JOHNSON,(219)962-9437,(219)962-7878,16-001136-2,9/30/2017,US,Residential Care
USA-IN-84-IN-ResidentialCare-output-92,LAMPLIGHT INN OF FORT WAYNE,300 E WASHINGTON BLVD,,FORT WAYNE,46802,IN,SHERRI BERGHOFF,(260)422-5511,(260)422-3778,16-012288-1,9/30/2017,US,Residential Care
USA-IN-84-IN-ResidentialCare-output-93,LINCOLNSHIRE PLACE - FORT WAYNE,11911 DIEBOLD ROAD,,FORT WAYNE,46845,IN,CAROL ANGELA BUCKLAND,(847)777-6933,,17-013687-1,2/28/2018,US,Residential Care
USA-IN-84-IN-ResidentialCare-output-94,LYND PLACE,2410 E MCGALLIARD RD,,MUNCIE,47303,IN,DEBRA ANDERSON,(765)284-7670,(765)284-1209,17-004428-1,6/30/2018,US,Residential Care
USA-IN-84-IN-ResidentialCare-output-95,MCCORDSVILLE SENIOR LIVING LLC,6311 W CR 900 N,,MCCORDSVILLE,46055,IN,PATRICIA JUNE,(317)335-9900,(317)335-9902,17-013847-2,6/30/2018,US,Residential Care
USA-IN-84-IN-ResidentialCare-output-96,MCKINNEY PLACE,3901 HIGH STREET RD,,LOGANSPORT,46947,IN,SHIRLY KELLER,(574)739-2134,(574)722-1512,17-004441-1,6/30/2018,US,Residential Care
USA-IN-84-IN-ResidentialCare-output-97,MEADOW BROOK SENIOR LIVING,11011 VILLAGE SQUARE LANE,,FISHERS,46038,IN,EDNA DOMINGO,(317)842-4215,(317)842-6505,16-013163-1,9/30/2017,US,Residential Care
USA-IN-84-IN-ResidentialCare-output-98,MILLER BEACH TERRACE,4905 MELTON RD,,GARY,46403,IN,JANUARY SZWEDA,(219)938-0124,(219)939-3036,17-001140-1,8/31/2018,US,Residential Care
USA-IN-84-IN-ResidentialCare-output-99,MONROE PLACE,2770 S ADAMS RD,,BLOOMINGTON,47403,IN,CHRISTY LAFREE,(812)331-8153,(812)331-0155,17-004016-1,6/30/2018,US,Residential Care
USA-IN-84-IN-ResidentialCare-output-100,MORNING POINTE OF FRANKLIN,75 S MILFORD DR,,FRANKLIN,46131,IN,ELIZABETH HOLSTEIN,(317)736-4665,(317)736-0654,17-002858-1,7/31/2018,US,Residential Care
USA-IN-84-IN-ResidentialCare-output-101,MORNING VIEW NURSING AND REHABILITATION CENTER,475 NORTH NILES AVENUE,,SOUTH BEND,46617,IN,ROGER GARMENDIA,(574)246-4123,(574)272-2608,17-013149-2,8/31/2018,US,Residential Care
USA-IN-84-IN-ResidentialCare-output-102,MORNINGSIDE OF COLLEGE PARK,8810 COLBY BLVD,,INDIANAPOLIS,46268,IN,JO ANNA COWAN,(317)872-4567,,17-013034-1,6/30/2018,US,Residential Care
USA-IN-84-IN-ResidentialCare-output-103,NORTH WOODS VILLAGE AT EDISON LAKES,1409 E DAY ROAD,,MISHAWAKA,46545,IN,JAMES MUELLER,(574)247-1866,(574)247-7890,17-013236-1,6/30/2018,US,Residential Care
USA-IN-84-IN-ResidentialCare-output-104,NORTH WOODS VILLAGE AT INVERNESS LAKE,8075 GLENCARIN BOULEVARD,,FORT WAYNE,46804,IN,TIMOTHY NIX,(260)420-1866,(260)432-0031,16-013612-1,11/30/2017,US,Residential Care
USA-IN-84-IN-ResidentialCare-output-105,OASIS AT 30TH,5651 E 30TH STREET,,INDIANAPOLIS,46218,IN,MARQUE MCKINNOR,(317)297-9000,(317)297-9374,16-013347-1,11/30/2017,US,Residential Care
USA-IN-84-IN-ResidentialCare-output-106,OASIS DEMENTIA CARE INC,4301 WASHINGTON AVE,,EVANSVILLE,47714,IN,JANINE GOODMAN BUZICK,(812)303-3310,(812)303-3340,16-013613-1,10/31/2017,US,Residential Care
USA-IN-84-IN-ResidentialCare-output-107,"PARK PLACE II, LLC",4411 PARK PLACE DR,,FORT WAYNE,46845,IN,MAYA KACZMAREK,(260)480-2500,(260)480-2521,17-012582-1,3/31/2018,US,Residential Care
USA-IN-84-IN-ResidentialCare-output-108,PINE KNOLL ASSISTED LIVING CENTER,607 WILSON CREEK RD,,LAWRENCEBURG,47025,IN,DANIEL MCMULLEN,(812)537-4422,(812)537-9012,17-001142-1,7/31/2018,US,Residential Care
USA-IN-84-IN-ResidentialCare-output-109,PORTAGE MANOR HEALTH CARE FACILITY,3016 PORTAGE AVE,,SOUTH BEND,46628,IN,ROBYN CHALLINOR,(574)272-9100,(574)277-3486,17-001143-1,12/31/2017,US,Residential Care
USA-IN-84-IN-ResidentialCare-output-110,PRIMROSE  OF MISHAWAKA,820 FULMER ROAD,,MISHAWAKA,46544,IN,LEAH BENNETT,(574)259-3211,,17-013439-1,12/31/2017,US,Residential Care
USA-IN-84-IN-ResidentialCare-output-111,PRIMROSE MEMORY CARE OF ANDERSON,2100 N MADISON AVENUE,,ANDERSON,46011,IN,,(765)641-0050,,16-013811-2,11/30/2017,US,Residential Care
USA-IN-84-IN-ResidentialCare-output-112,PRIMROSE OF NEWBURGH,9800 LINCOLN AVE,,NEWBURGH,47630,IN,CARLA GRIMWOOD,(812)573-0088,,17-013846-2,6/30/2018,US,Residential Care
USA-IN-84-IN-ResidentialCare-output-113,PRIMROSE RETIREMENT COMMUNITY OF ANDERSON,1118 W CROSS ST,,ANDERSON,46011,IN,CARISSA STEVENS,(765)643-5000,(765)643-5201,17-011806-1,5/31/2018,US,Residential Care
USA-IN-84-IN-ResidentialCare-output-114,PRIMROSE RETIREMENT COMMUNITY OF KOKOMO,329  W RAINBOW DR,,KOKOMO,46901,IN,MONICA MARTIN,(765)455-1700,(765)455-1717,16-011555-1,11/30/2017,US,Residential Care
USA-IN-84-IN-ResidentialCare-output-115,RESIDENCES AT DEER CREEK,401 EAST US 30,,SCHERERVILLE,46375,IN,KAREN AYERSMAN,(219)864-0700,(219)865-3619,16-013069-1,9/30/2017,US,Residential Care
USA-IN-84-IN-ResidentialCare-output-116,RITTENHOUSE SENIOR LIVING OF INDIANAPOLIS,1251 W 96TH ST,,INDIANAPOLIS,46260,IN,,(317)575-9200,(317)575-8209,16-003282-1,10/31/2017,US,Residential Care
USA-IN-84-IN-ResidentialCare-output-117,RITTENHOUSE SENIOR LIVING OF MICHIGAN CITY,4300 CLEVELAND RD,,MICHIGAN CITY,46360,IN,TIFFANY KUZIO,(219)872-6800,(219)872-6805,16-012180-1,10/31/2017,US,Residential Care
USA-IN-84-IN-ResidentialCare-output-118,RITTENHOUSE SENIOR LIVING OF PORTAGE,6235 STERLING CREEK RD,,PORTAGE,46368,IN,MARSHA LEONARD,(219)764-2900,(219)764-0900,16-012396-1,10/31/2017,US,Residential Care
USA-IN-84-IN-ResidentialCare-output-119,RITTENHOUSE SENIOR LIVING OF VALPARAISO,1300 VALE PARK RD,,VALPARAISO,46383,IN,DEBORAH ATSAS,(219)531-2484,(219)531-2485,16-012181-1,10/31/2017,US,Residential Care
USA-IN-84-IN-ResidentialCare-output-120,RIVER CROSSING ASSISTED LIVING,2400 MARKET ST,,CHARLESTOWN,47111,IN,MELISSA GOLDSTEIN,(812)406-1099,(812)406-1101,16-012007-1,11/30/2017,US,Residential Care
USA-IN-84-IN-ResidentialCare-output-121,RIVERBEND,2715 CHARLESTOWN PIKE,,JEFFERSONVILLE,47130,IN,CHRISTOPHER KINCADE,(812)280-0965,(812)280-8094,17-010885-1,2/28/2018,US,Residential Care
USA-IN-84-IN-ResidentialCare-output-122,RIVERWALK COMMONS,7235 RIVERWALK WAY N,,NOBLESVILLE,46062,IN,RICHARD ROBISON,(317)770-0011,(317)774-8589,17-004417-1,3/31/2018,US,Residential Care
USA-IN-84-IN-ResidentialCare-output-123,RIVERWALK COMMUNITIES,401 S.E. 6TH STREET,,EVANSVILLE,47713,IN,SHEILA KENNEDY,(812)425-1041,(812)421-7419,17-011274-1,1/31/2018,US,Residential Care
USA-IN-84-IN-ResidentialCare-output-124,ROBIN RUN,5354 W 62ND STREET,,INDIANAPOLIS,46268,IN,DAVID PRUETT,(317)293-5500,(317)297-4443,17-013550-1,7/31/2018,US,Residential Care
USA-IN-84-IN-ResidentialCare-output-125,ROSEGATE COMMONS ASSISTED LIVING,7525 ROSEGATE DRIVE,,INDIANAPOLIS,46237,IN,ANN KIRSTEIN,(317)788-2500,,17-012936-1,1/31/2018,US,Residential Care
USA-IN-84-IN-ResidentialCare-output-126,ROSEWALK AT LUTHERWOODS,1301 N RITTER AVE,,INDIANAPOLIS,46219,IN,DENISE DICKEY,(317)356-2760,(317)356-2762,16-011587-1,9/30/2017,US,Residential Care
USA-IN-84-IN-ResidentialCare-output-127,ROSEWOOD MANOR,5200 S BURLINGTON DR,,MUNCIE,47302,IN,MATTHEW ALEXANDER,(765)288-0087,(765)288-0156,17-000312-1,6/30/2018,US,Residential Care
USA-IN-84-IN-ResidentialCare-output-128,SAINT ANNE COMMUNITIES AT BISHOP LUERS,5610 NOLL AVE,,FORT WAYNE,46806,IN,TYLER WEILBAKER,(260)745-7039,(260)744-4887,17-001150-1,7/31/2018,US,Residential Care
USA-IN-84-IN-ResidentialCare-output-129,SANDERS GLEN,334 S CHERRY ST,,WESTFIELD,46074,IN,SUZANNE HAMAKER,(317)867-0212,(317)896-9263,17-005657-1,12/31/2017,US,Residential Care
USA-IN-84-IN-ResidentialCare-output-130,"SENIOR SUITES AT THE LELAND, LLC",900 SOUTH A STREET,,RICHMOND,47374,IN,AMANDA MARQUIS,(765)939-6500,(765)965-6837,17-012497-1,1/31/2018,US,Residential Care
USA-IN-84-IN-ResidentialCare-output-131,SETTLERS PLACE,3304 MONROE ST,,LA PORTE,46350,IN,,(219)326-7283,(219)326-0573,17-004458-1,6/30/2018,US,Residential Care
USA-IN-84-IN-ResidentialCare-output-132,SEYMOUR PLACE,2288 NICHOLAS CT,,SEYMOUR,47274,IN,JEFFREY JENKINS,(812)523-8991,(812)523-5011,17-004376-1,6/30/2018,US,Residential Care
USA-IN-84-IN-ResidentialCare-output-133,SHADY REST HOME,10924 LINCOLNWAY E,,PLYMOUTH,46563,IN,LYNN REYNOLDS,(574)936-2635,(574)936-8565,17-001147-1,2/28/2018,US,Residential Care
USA-IN-84-IN-ResidentialCare-output-134,SILVER BIRCH OF HAMMOND,5620 SOHL AVENUE,,HAMMOND,46320,IN,NEYSA HOLMAN STEWART,(219)937-9085,(219)937-9052,17-013801-1,7/31/2018,US,Residential Care
USA-IN-84-IN-ResidentialCare-output-135,SUGAR GROVE SENIOR LIVING,5865 SUGAR LN,,PLAINFIELD,46168,IN,JACQUELINE MULLINS,(317)839-7900,(317)839-7985,16-012394-1,11/30/2017,US,Residential Care
USA-IN-84-IN-ResidentialCare-output-136,SUMMIT PLACE WEST,55 N MISSION DR,,INDIANAPOLIS,46214,IN,ANGELA J KLINGE,(317)244-2600,(317)244-3771,17-011840-1,4/30/2018,US,Residential Care
USA-IN-84-IN-ResidentialCare-output-137,SUNRISE ON OLD MERIDIAN,12130 OLD MERIDAN ST,,CARMEL,46032,IN,TERONA LONG,(317)569-0100,(317)569-0500,16-012141-1,9/30/2017,US,Residential Care
USA-IN-84-IN-ResidentialCare-output-138,TANGLEWOOD TRACE,530 W TANGLEWOOD LN,,MISHAWAKA,46545,IN,BARBARA GAWEL,(574)277-4310,(574)277-6509,17-009669-1,6/30/2018,US,Residential Care
USA-IN-84-IN-ResidentialCare-output-139,TERRACE AT TOWNE CENTRE THE,7252 ARTHUR BLVD,,MERRILLVILLE,46410,IN,JUSTIN AUGUST,(219)736-2900,(219)736-2209,17-002392-1,5/31/2018,US,Residential Care
USA-IN-84-IN-ResidentialCare-output-140,TIPTON PLACE,460 FORKS OF THE WABASH WAY,,HUNTINGTON,46750,IN,ROBERT PETRAS,(260)356-2028,(260)356-2087,17-003376-1,6/30/2018,US,Residential Care
USA-IN-84-IN-ResidentialCare-output-141,TRADITIONS AT REAGAN PARK,1176 KINGWOOD DRIVE,,AVON,46123,IN,STACEY GALLARDO,(317)271-0100,(317)271-0104,16-013264-1,11/30/2017,US,Residential Care
USA-IN-84-IN-ResidentialCare-output-142,TRADITIONS AT SOLANA,7721 BATTERY POINTE WAY,,INDIANAPOLIS,46240,IN,SHANNON AMMERMAN,(317)860-0000,(317)860-0001,16-013164-1,11/30/2017,US,Residential Care
USA-IN-84-IN-ResidentialCare-output-143,TRAIL CREEK PLACE- ASSISTED LIVING,1400 E COOLSPRING AVE,,MICHIGAN CITY,46360,IN,SUZANNE DILLE,(219)874-5500,(219)872-5352,17-010610-2,7/31/2018,US,Residential Care
USA-IN-84-IN-ResidentialCare-output-144,"VANNONI LIVING CENTER, THE",500 LINCOLNWAY EAST,,MISHAWAKA,46544,IN,SU LYNN FREDERICKSON,(574)855-3937,(574)258-1741,16-012688-1,9/30/2017,US,Residential Care
USA-IN-84-IN-ResidentialCare-output-145,VERMILLION PLACE,449 MAIN ST,,ANDERSON,46016,IN,CHRISTY TOMPKINS,(765)622-7825,(765)608-2010,17-011970-1,5/31/2018,US,Residential Care
USA-IN-84-IN-ResidentialCare-output-146,"VILLAS OF HOLLY BROOK INDIANA, LLC",1941 W US HIGHWAY 40,,BRAZIL,47834,IN,FRANCES GAYLE CAMONTE,(812)420-2243,,17-013946-1,5/31/2018,US,Residential Care
USA-IN-84-IN-ResidentialCare-output-147,VIRGINIA PLACE,8253 VIRGINIA ST,,MERRILLVILLE,46410,IN,JILLIAN KUTEMEIER UZELAC,(219)736-9383,(219)736-6858,16-010887-2,10/31/2017,US,Residential Care
USA-IN-84-IN-ResidentialCare-output-148,"WABASH BICKFORD COTTAGE OPCO, LLC",3037 W DIVISION RD,,WABASH,46992,IN,MITCHELL BACKS,(260)569-2000,(260)569-6759,17-003466-2,8/31/2018,US,Residential Care
USA-IN-84-IN-ResidentialCare-output-149,WALKER PLACE,2216 N RILEY HWY,,SHELBYVILLE,46176,IN,SUSAN ROBERTS,(317)392-3370,(317)421-0564,17-004444-1,6/30/2018,US,Residential Care
USA-IN-84-IN-ResidentialCare-output-150,WALNUT CREEK ALZHEIMER'S SPECIAL CARE CENTER,525 BENTEE WES COURT,,EVANSVILLE,47715,IN,KELLI WALTERS,(812)471-3100,(812)471-3101,17-013642-1,12/31/2017,US,Residential Care
USA-IN-84-IN-ResidentialCare-output-151,"WATERFORD AT EDISON LAKES, THE",1025 PARK PLACE,,MISHAWAKA,46545,IN,TONYA TAGUE-O'DELL,(574)247-1552,,16-013331-1,11/30/2017,US,Residential Care
USA-IN-84-IN-ResidentialCare-output-152,WELLINGTON AT KOKOMO THE,2800 S DIXON RD,,KOKOMO,46902,IN,STACY MEVZEK,(765)455-2828,(765)453-2592,17-011366-1,6/30/2018,US,Residential Care
USA-IN-84-IN-ResidentialCare-output-153,WELLINGTON AT SOUTHPORT THE,7212 US HWY 31 S,,INDIANAPOLIS,46227,IN,JAN ANN CAUDILL SENTENEY,(317)889-9822,(317)889-6500,16-003283-1,9/30/2017,US,Residential Care
USA-IN-84-IN-ResidentialCare-output-154,WHITLOCK PLACE,1719 S ELM ST,,CRAWFORDSVILLE,47933,IN,SALLY ROBERTSON,(765)364-1880,(765)361-1509,17-004419-1,6/30/2018,US,Residential Care
USA-IN-84-IN-ResidentialCare-output-155,WILLOW LAKE PLACE,2725 LAKE CIRCLE DR,,INDIANAPOLIS,46268,IN,SHANE PATTERSON,(317)334-9400,(317)334-8794,17-010234-1,7/31/2018,US,Residential Care
USA-IN-84-IN-ResidentialCare-output-156,WINDSOR RIDGE,2700 WATERS EDGE PKWY,,JEFFERSONVILLE,47130,IN,JENNY BROWN,(812)284-4336,(812)284-5973,17-004001-1,2/28/2018,US,Residential Care
USA-IN-84-IN-ResidentialCare-output-157,WOOD RIDGE ASSISTED LIVING,17650 GENERATIONS DR,,SOUTH BEND,46635,IN,AMANDA QUESENBERRY,(574)271-1151,(574)271-2812,17-001148-1,8/31/2018,US,Residential Care
USA-IN-84-IN-ResidentialCare-output-158,WOODLAND TERRACE OF CARMEL,689 PRO MED LANE,,CARMEL,46032,IN,COLE STITES,(317)616-0858,,17-013510-2,6/30/2018,US,Residential Care
USA-IN-84-IN-ResidentialCare-output-159,WOODVIEW ASSISTED LIVING,3320 E STATE BLVD,,FORT WAYNE,46805,IN,DANIEL KENYON,(260)483-4343,(260)483-4455,16-012107-1,11/30/2017,US,Residential Care
USA-IN-84-IN-ResidentialCare-output-160,WORTHINGTON PLACE,10799 ALLIANCE DR,,CAMBY,46113,IN,SHERYL MORNING,(317)856-6224,(317)856-5740,17-003984-1,6/30/2018,US,Residential Care
USA-IN-84-IN-ResidentialCare-output-161,WYNDMOOR ASSISTED LIVING LLC,1465 EAST CROSSING BLVD,,TERRE HAUTE,47802,IN,JAMES PASSWATER,(812)298-9963,(812)299-0660,16-013389-1,10/31/2017,US,Residential Care
