row_id,name,street_address,po_box,city,state,postal_code,county,Fac ID,Medicare #,Medicaid #,contact,phone,type,number_of_beds,ESRD Stations,Hospital Authorized Bed Capacity,Class 1,Class 1 Beds/Stations,Class 2,Class 2 Beds/Stations,Class 3,Class 3 Beds/Stations,Class 4,Class 4 Beds/Stations,Class 5,Class 5 Beds/Stations,license_type,License Status,Deemed Status
USA-AL-66-All-66-NursingHomes-1,Adams Nursing Home,1555 Hillabee Street,,Alexander City,AL,35010,Tallapoosa,N6201,01-5386,47-5200,Debbie Barker Stalnaker,(256) 329-0847,Nursing Home,88,,,Skilled Nursing Facility,88,,0,,0,,0,,0,Limited Liability Company,Regular,
USA-AL-66-All-66-NursingHomes-2,Albertville Nursing Home,750 Alabama Highway 75 North,,Albertville,AL,35951,Marshall,N4803,01-5163,47-5124,Mary Meek,(256) 878-1398,Nursing Home,159,,,Skilled Nursing Facility,159,,0,,0,,0,,0,Corporation,Regular,
USA-AL-66-All-66-NursingHomes-3,Aliceville Manor Nursing Home,"703 Seventeenth Street, Northwest",,Aliceville,AL,35442,Pickens,N5402,01-5137,47-5461,Ashley McGee,(205) 373-6307,Nursing Home,100,,,Skilled Nursing Facility,100,,0,,0,,0,,0,Corporation,Regular,
USA-AL-66-All-66-NursingHomes-4,Allen Health and Rehabilitation,735 South Washington Avenue,,Mobile,AL,36603,Mobile,N4901,01-5098,47-5098,Mrs. Cheryl A. Robinson,(251) 433-2642,Nursing Home,119,,,Skilled Nursing Facility,119,,0,,0,,0,,0,Limited Liability Company,Regular,
USA-AL-66-All-66-NursingHomes-5,Altoona Health & Rehab,6532 Walnut Grove Road,,Altoona,AL,35952,Etowah,N2805,01-5101,47-5739,"Linda Bigelow, Adm.",(205) 589-6394,Nursing Home,50,,,Skilled Nursing Facility,50,,0,,0,,0,,0,Corporation,Regular,
USA-AL-66-All-66-NursingHomes-6,Andalusia Manor,670 Moore Road,,Andalusia,AL,36420,Covington,N2003,01-5416,47-5789,Trece Mays,(334) 222-4544,Nursing Home,154,,,Skilled Nursing Facility,154,,0,,0,,0,,0,Limited Liability Company,Regular,
USA-AL-66-All-66-NursingHomes-7,"Anniston Health and Rehab Services, LLC",500 Leighton Avenue,P.O. Box 1825,Anniston,AL,36202,Calhoun,N0801,01-5375,47-5716,Felecia Boyd,(256) 236-4949,Nursing Home,85,,,Skilled Nursing Facility,85,,0,,0,,0,,0,Limited Liability Company,Regular,
USA-AL-66-All-66-NursingHomes-8,"Arbor Springs Health and Rehab Center, Ltd.",1910 Pepperell Parkway,,Opelika,AL,36801,Lee,N4103,01-5192,47-5590,Matthew Lewis,(334) 749-1471,Nursing Home,225,,,Skilled Nursing Facility,225,,0,,0,,0,,0,Partnership,Regular,
USA-AL-66-All-66-NursingHomes-9,Arbor Woods Health and Rehab,515 Second Avenue N.W.,P.O. Box 400,Reform,AL,35481,Pickens,N5401,01-5141,47-5768,Tammy Fetner,(205) 375-6379,Nursing Home,85,,,Skilled Nursing Facility,85,,0,,0,,0,,0,Limited Liability Company,Regular,
USA-AL-66-All-66-NursingHomes-10,Arlington Rehabilitation & HealthCare Center,"1020 Tuscaloosa Avenue, SW",P.O. Box 28665,Birmingham,AL,35211,Jefferson,N3711,01-5153,47-5364,Jessica Miller,(205) 788-6330,Nursing Home,117,,,Skilled Nursing Facility,117,,0,,0,,0,,0,Limited Liability Company,Regular,
USA-AL-66-All-66-NursingHomes-11,"Ashland Place Health and Rehabilitation, LLC",148 Tuscaloosa Street,,Mobile,AL,36607,Mobile,N4902,01-5103,47-5103,Matt Goolsby,(251) 471-5431,Nursing Home,164,,,Skilled Nursing Facility,164,,0,,0,,0,,0,Limited Liability Company,Regular,
USA-AL-66-All-66-NursingHomes-12,"Aspire Physical Recovery Center at Cahaba River, LLC",3070 Healthy Way,,Vestavia,AL,35243,Jefferson,N3754,15468,198484,Christopher Cornelius,(205) 977-7216,Nursing Home,120,,,Nursing Facility,120,,0,,0,,0,,0,Limited Liability Company,Regular,
USA-AL-66-All-66-NursingHomes-13,"Aspire Physical Recovery Center at Hoover, LLC",575 Southland Drive,,Hoover,AL,35226-3732,Jefferson,N3753,01-5464,198139,Jamie L. Popee,(205) 721-6200,Nursing Home,118,,,Skilled Nursing Facility,118,,0,,0,,0,,0,Limited Liability Company,Regular,
USA-AL-66-All-66-NursingHomes-14,"Aspire Physical Recovery Center of West Alabama, LLC",2400 Hospital Drive,,Northport,AL,35476,Tuscaloosa,N6311,01-5465,,Vicki Phillips,(205) 330-8412,Nursing Home,75,,,Nursing Facility,75,,0,,0,,0,,0,Limited Liability Company,Regular,
USA-AL-66-All-66-NursingHomes-15,"Athens Health and Rehabilitation, LLC",611 West Market Street,,Athens,AL,35611,Limestone,N4201,01-5016,47-5708,Linda Sams,(256) 232-1620,Nursing Home,149,,,Skilled Nursing Facility,149,,0,,0,,0,,0,Limited Liability Company,Regular,
USA-AL-66-All-66-NursingHomes-16,Atmore Nursing Center,715 East Laurel Street,,Atmore,AL,36502,Escambia,N2702,01-5129,47-5740,Marcus Manning,(251) 368-9121,Nursing Home,100,,,Skilled Nursing Facility,100,,0,,0,,0,,0,Limited Liability Company,Regular,
USA-AL-66-All-66-NursingHomes-17,Attalla Health and Rehab,"915 Stewart Avenue, Southeast",,Attalla,AL,35954-9363,Etowah,N2803,01-5203,47-5404,Prentiss Smith,(256) 538-7852,Nursing Home,182,,,Skilled Nursing Facility,182,,0,,0,,0,,0,Limited Liability Company,Regular,
USA-AL-66-All-66-NursingHomes-18,Azalea Gardens of Mobile,1758 Springhill Avenue,,Mobile,AL,36607,Mobile,N4908,01-5151,47-5449,Elisabeth Anderson,(251) 479-0551,Nursing Home,170,,,Skilled Nursing Facility,170,,0,,0,,0,,0,Limited Liability Company,Regular,
USA-AL-66-All-66-NursingHomes-19,"Barfield Health Care, Inc.",22444 Highway 431,,Guntersville,AL,35976,Marshall,N4804,01-5225,47-5690,E. Brooks Barfield,(256) 582-3112,Nursing Home,113,,,Skilled Nursing Facility,113,,0,,0,,0,,0,Corporation,Regular,
USA-AL-66-All-66-NursingHomes-20,Baron House of Hueytown,190 Brooklane Drive,,Hueytown,AL,35023,Jefferson,N3712,01-5404,47-5747,Phillip Cappiello,(205) 491-2905,Nursing Home,50,,,Skilled Nursing Facility,50,,0,,0,,0,,0,Limited Liability Company,Regular,
USA-AL-66-All-66-NursingHomes-21,Bibb Medical Center Nursing Home,208 Pierson Avenue,,Centreville,AL,35042,Bibb,N0401,01-5215,47-5352,Joseph Marchant,(205) 926-4881,Nursing Home,131,,,Skilled Nursing Facility,131,,0,,0,,0,,0,County,Regular,
USA-AL-66-All-66-NursingHomes-22,Bill Nichols State Veterans Home,1784 Elkahatchee Road,,Alexander City,AL,35010,Tallapoosa,N6206,,,Angela Rose,(256) 329-0868,Nursing Home,150,,,Skilled Nursing Facility,150,,0,,0,,0,,0,Corporation,Regular,
USA-AL-66-All-66-NursingHomes-23,"Birmingham Nursing and Rehabilitation Center East, LLC",733 Mary Vann Lane,,Birmingham,AL,35215,Jefferson,N3736,01-5134,47-5727,Melody Burch,(205) 854-1361,Nursing Home,132,,,Skilled Nursing Facility,132,,0,,0,,0,,0,Limited Liability Company,Regular,
USA-AL-66-All-66-NursingHomes-24,"Birmingham Nursing and Rehabilitation Center, LLC",1000 Dugan Avenue,,Birmingham,AL,35214,Jefferson,N3740,01-5217,47-5729,Mattie Banks,(205) 798-8780,Nursing Home,132,,,Skilled Nursing Facility,132,,0,,0,,0,,0,Limited Liability Company,Regular,
USA-AL-66-All-66-NursingHomes-25,Brookdale University Park SNF (AL),501 University Park Drive,,Birmingham,AL,35209,Jefferson,N3710,01-5423,,Craig Dugan,(205) 933-1828,Nursing Home,66,,,Skilled Nursing Facility,66,,0,,0,,0,,0,Limited Liability Company,Regular,
USA-AL-66-All-66-NursingHomes-26,Brookshire Healthcare Center,4320 Judith Lane,,Huntsville,AL,35805,Madison,N4504,01-5127,4757660S,Barry Bell,(256) 837-1730,Nursing Home,129,,,Skilled Nursing Facility,129,,0,,0,,0,,0,Corporation,Regular,
USA-AL-66-All-66-NursingHomes-27,Brown Nursing Home,2334 Washington Street,P.O. Box 1056,Alexander City,AL,35010,Tallapoosa,N6203,01-5191,47-5025,Cecily Lee,(256) 329-9061,Nursing Home,68,,,Skilled Nursing Facility,68,,0,,0,,0,,0,Limited Liability Company,Regular,
USA-AL-66-All-66-NursingHomes-28,"Burns Nursing Home, Inc.","701 Monroe Street, Northwest",,Russellville,AL,35653,Franklin,N3001,01-5009,47-5009,Mark S. DeArman,(256) 332-4110,Nursing Home,57,,,Skilled Nursing Facility,57,,0,,0,,0,,0,Corporation,Regular,
USA-AL-66-All-66-NursingHomes-29,"Camden Nursing Facility, Inc.",550 Ponderosa Drive,P.O. Box 787,Camden,AL,36726,Wilcox,N6601,01-5374,47-5717,Eldridge B. Stewart,(334) 682-4231,Nursing Home,95,,,Skilled Nursing Facility,95,,0,,0,,0,,0,Corporation,Regular,
USA-AL-66-All-66-NursingHomes-30,Canterbury Health Care Facility,1720 Knowles Road,,Phenix City,AL,36869,Russell,N5704,01-5382,47-5774,Lycrecia Patterson,(334) 291-0485,Nursing Home,137,,,Skilled Nursing Facility,137,,0,,0,,0,,0,Corporation,Regular,
USA-AL-66-All-66-NursingHomes-31,Capitol Hill Healthcare Center,520 South Hull Street,,Montgomery,AL,36104,Montgomery,N5101,01-5390,47-5730,Sharon Baker,(334) 834-2920,Nursing Home,284,,,Skilled Nursing Facility,284,,0,,0,,0,,0,Corporation,Regular,
USA-AL-66-All-66-NursingHomes-32,"Caregivers of Pleasant Grove, Inc.",700 First Avenue,,Pleasant Grove,AL,35127,Jefferson,N3704,01-5044,47-5728,Walter Weingarten,(205) 744-8120,Nursing Home,64,,,Skilled Nursing Facility,64,,0,,0,,0,,0,Corporation,Regular,
USA-AL-66-All-66-NursingHomes-33,Cedar Crest,4490 Virginia Loop Road,,Montgomery,AL,36116,Montgomery,N5110,01-5228,47-5718,Thomas Woodham,(334) 281-6826,Nursing Home,121,,,Skilled Nursing Facility,121,,0,,0,,0,,0,Limited Liability Company,Regular,
USA-AL-66-All-66-NursingHomes-34,"Chandler Health & Rehab Center, LLC",850 N. W. 9th Street,,Alabaster,AL,35007,Shelby,N5902,01-5144,47-5417,Larry Barton,(205) 663-3859,Nursing Home,198,,,Skilled Nursing Facility,198,,0,,0,,0,,0,Limited Liability Company,Regular,
USA-AL-66-All-66-NursingHomes-35,"Chapman Healthcare Center, Inc.",3701 Dadeville Road,,Alexander City,AL,35010,Tallapoosa,N6202,01-5221,47-5006,Cera Ashleigh Taylor,(256) 234-6366,Nursing Home,188,,,Skilled Nursing Facility,188,,0,,0,,0,,0,Corporation,Regular,
USA-AL-66-All-66-NursingHomes-36,Charlton Place Rehabilitation & Health Care Center,65 Charlton Place,,Deatsville,AL,36022,Autauga,N0101,01-5460,4758200S,Mico Brenitta Turner,(334) 290-6900,Nursing Home,65,,,Skilled Nursing Facility,65,,0,,0,,0,,0,Limited Liability Company,Regular,
USA-AL-66-All-66-NursingHomes-37,Cherokee County Health & Rehabilitation Center,877 Cedar Bluff Road,,Centre,AL,35960,Cherokee,N1001,01-5200,47-5356,Cindy Cline,(256) 927-5778,Nursing Home,185,,,Skilled Nursing Facility,185,,0,,0,,0,,0,Healthcare Authority,Regular,
USA-AL-66-All-66-NursingHomes-38,Cherry Hill Rehabilitation & Healthcare Center,1250 Jeff Germany Parkway,,Birmingham,AL,35214-4484,Jefferson,N3747,01-5445,47-58100S,Brandon T  Upshaw,(205) 796-0214,Nursing Home,117,,,Skilled Nursing Facility,117,,0,,0,,0,,0,Corporation,Regular,
USA-AL-66-All-66-NursingHomes-39,"Civic Center Health and Rehabilitation, LLC",1201 North 22nd Street,,Birmingham,AL,35234,Jefferson,N3703,01-5109,47-5759,Drew Cook,(205) 251-5271,Nursing Home,95,,,Skilled Nursing Facility,95,,0,,0,,0,,0,Limited Liability Company,Regular,
USA-AL-66-All-66-NursingHomes-40,Clay County Nursing Home,83825 Highway 9,P.O. Box 1270,Ashland,AL,36251,Clay,N1401,01-5124,47-5333,Joel W Tate,(256) 354-1241,Nursing Home,83,,,Skilled Nursing Facility,83,,0,,0,,0,,0,Healthcare Authority,Regular,
USA-AL-66-All-66-NursingHomes-41,Cleburne County Nursing Home,122 Brockford Road,,Heflin,AL,36264,Cleburne,N1501,01-5053,47-5053,Tony Culberson,(256) 463-2121,Nursing Home,82,,,Skilled Nursing Facility,82,,0,,0,,0,,0,Non-Profit Corporation,Regular,
USA-AL-66-All-66-NursingHomes-42,Cloverdale Rehabilitation and Nursing Center,412 Cloverdale Road,,Scottsboro,AL,35768,Jackson,N3602,01-5184,47-5335,Kristy Jones,(256) 259-1505,Nursing Home,141,,,Skilled Nursing Facility,141,,0,,0,,0,,0,Corporation,Regular,
USA-AL-66-All-66-NursingHomes-43,Collinsville Healthcare & Rehab,685 North Valley Avenue,PO Box 310,Collinsville,AL,35961,Dekalb,N2501,01-5207,47-5412,James Coker,(256) 524-2117,Nursing Home,200,,,Skilled Nursing Facility,200,,0,,0,,0,,0,Corporation,Regular,
USA-AL-66-All-66-NursingHomes-44,Colonel Robert L. Howard State Veterans Home,7054 Veterans Parkway,442,Pell City,AL,35125,St. Clair,N5805,,,Derrick Williams,(205) 227-7985,Nursing Home,174,,,Skilled Nursing Facility,174,,0,,0,,0,,0,Corporation,Regular,
USA-AL-66-All-66-NursingHomes-45,Colonial Haven Care & Rehabilitation Center,616 Armory Road,PO Box 438,Greensboro,AL,36744,Hale,N3301,01-5396,47-5212,Rebekah Bonds,(334) 624-3054,Nursing Home,97,,,Skilled Nursing Facility,97,,0,,0,,0,,0,Corporation,Regular,
USA-AL-66-All-66-NursingHomes-46,"Columbiana Health and Rehabilitation, LLC",22969 Highway 25,,Columbiana,AL,35051,Shelby,N5904,01-5453,4758160S,Shannon Bell,(205) 669-1712,Nursing Home,63,,,Skilled Nursing Facility,63,,0,,0,,0,,0,Limited Liability Company,Regular,
USA-AL-66-All-66-NursingHomes-47,Coosa Valley Health and Rehab,513 Pineview Avenue,,Glencoe,AL,35905,Etowah,N2801,01-5174,47-5316,Matthew Leland,(256) 492-5350,Nursing Home,124,,,Skilled Nursing Facility,124,,0,,0,,0,,0,Limited Liability Company,Regular,
USA-AL-66-All-66-NursingHomes-48,Coosa Valley Nursing Facility,315 West Hickory Street,,Sylacauga,AL,35150,Talladega,N6102,01-5010,47-5010,William Joseph McMichen,(256) 401-4000,Nursing Home,85,,,Skilled Nursing Facility,85,,0,,0,,0,,0,Healthcare Authority,Regular,
USA-AL-66-All-66-NursingHomes-49,"Cordova Health and Rehabilitation, LLC",70 Highland Street West,,Cordova,AL,35550,Walker,N6404,01-5115,47-5400,Jonathan Culwell,(205) 483-9282,Nursing Home,114,,,Skilled Nursing Facility,114,,0,,0,,0,,0,Limited Liability Company,Regular,
USA-AL-66-All-66-NursingHomes-50,Cottage of the Shoals,500 John Aldridge Drive,,Tuscumbia,AL,35674,Colbert,N1702,01-5067,47-5772,Cheryl Baker,(256) 383-4541,Nursing Home,103,,,Skilled Nursing Facility,103,,0,,0,,0,,0,Corporation,Regular,
USA-AL-66-All-66-NursingHomes-51,"Crossville Health and Rehabilitation, LLC",8922 Alabama Highway 227 North,,Crossville,AL,35962,Dekalb,N2502,01-5176,47-5440,Gail Painter,(256) 528-7844,Nursing Home,143,,,Skilled Nursing Facility,143,,0,,0,,0,,0,Limited Liability Company,Regular,
USA-AL-66-All-66-NursingHomes-52,Crowne Health Care of Citronelle,19225 North 4th Street,P.O. Drawer 38,Citronelle,AL,36522,Mobile,N4914,01-5121,47-5441,Gregg Myers,(251) 866-5509,Nursing Home,69,,,Skilled Nursing Facility,69,,0,,0,,0,,0,Limited Liability Company,Regular,
USA-AL-66-All-66-NursingHomes-53,Crowne Health Care of Eufaula,430 Rivers Avenue,,Eufaula,AL,36027,Barbour,N0302,01-5199,47-5744,Linda Y. Railey,(334) 687-6627,Nursing Home,180,,,Skilled Nursing Facility,180,,0,,0,,0,,0,Limited Liability Company,Regular,
USA-AL-66-All-66-NursingHomes-54,Crowne Health Care of Fort Payne,"403 Thirteenth Street, Northwest",,Fort Payne,AL,35967,Dekalb,N2503,01-5156,47-5752,James W. Turnipseed,(256) 845-5990,Nursing Home,123,,,Skilled Nursing Facility,123,,0,,0,,0,,0,Limited Liability Company,Regular,
USA-AL-66-All-66-NursingHomes-55,Crowne Health Care of Greenville,408 Country Club Drive,,Greenville,AL,36037,Butler,N0701,01-5193,47-5746,Ann Smith,(334) 382-2693,Nursing Home,118,,,Skilled Nursing Facility,118,,0,,0,,0,,0,Limited Liability Company,Regular,
USA-AL-66-All-66-NursingHomes-56,Crowne Health Care of Mobile,954 Navco Road,,Mobile,AL,36605,Mobile,N4905,01-5100,47-5446,Amber Detamore,(251) 473-8684,Nursing Home,174,,,Skilled Nursing Facility,174,,0,,0,,0,,0,Limited Liability Company,Regular,
USA-AL-66-All-66-NursingHomes-57,Crowne Health Care of Montgomery,1837 Upper Wetumpka Road,,Montgomery,AL,36107,Montgomery,N5103,01-5393,47-5783,Wanda Allie,(334) 264-8416,Nursing Home,185,,,Skilled Nursing Facility,185,,0,,0,,0,,0,Limited Liability Company,Regular,
USA-AL-66-All-66-NursingHomes-58,Crowne Health Care of Springhill,3712 Dauphin Street,,Mobile,AL,36608,Mobile,N4903,01-5426,,Richard Jones,(251) 304-3000,Nursing Home,20,,,Skilled Nursing Facility,20,,0,,0,,0,,0,Limited Liability Company,Regular,
USA-AL-66-All-66-NursingHomes-59,Cullman Health Care Center,"1607 Main Avenue, N.E.",P.O. Box 190,Cullman,AL,35056,Cullman,N2201,01-5048,47-5503,Hannah Brown,(256) 734-8745,Nursing Home,95,,,Skilled Nursing Facility,95,,0,,0,,0,,0,Corporation,Regular,
USA-AL-66-All-66-NursingHomes-60,Cumberland Health and Rehab,47065 Alabama Highway 277,,Bridgeport,AL,35740,Jackson,N3603,01-5420,47-5792,"Lonnie Albin, MD",(256) 437-7260,Nursing Home,100,,,Skilled Nursing Facility,100,,0,,0,,0,,0,Healthcare Authority,Regular,
USA-AL-66-All-66-NursingHomes-61,Cypress Cove Center,200 Alabama Avenue,,Muscle Shoals,AL,35661,Colbert,N1703,01-5392,47-5770,Rhonda Poole,(205) 381-4330,Nursing Home,90,,,Skilled Nursing Facility,90,,0,,0,,0,,0,Corporation,Regular,
USA-AL-66-All-66-NursingHomes-62,Dadeville Healthcare Center,385 East Lafayette Street,P.O. Box 97,Dadeville,AL,36853,Tallapoosa,N6204,01-5166,47-5600,Kim Russell,(256) 825-9244,Nursing Home,144,,,Skilled Nursing Facility,144,,0,,0,,0,,0,Limited Liability Company,Regular,
USA-AL-66-All-66-NursingHomes-63,Davis/Orman Intermediate Care Facility,202 Hope Drive,PO Box 740 (Mailiing Address),Eastaboga,AL,36260-0740,Talladega,N0806,01-G011,4958170I,Stentson Carpenter,(256) 831-0919,Nursing Home,0,,,Intermediate Care Facility/Individuals with Intellectual Disabilities,0,,0,,0,,0,,0,No Data Provided,Not subject to licensure,
USA-AL-66-All-66-NursingHomes-64,Decatur Health and Rehab Center,"2326 Morgan Avenue, S.W.",P.O. Box 1821,Decatur,AL,35602,Morgan,N5207,01-5206,47-5726,Robbie Barnett,(256) 340-5765,Nursing Home,119,,,Skilled Nursing Facility,119,,0,,0,,0,,0,Limited Liability Company,Regular,
USA-AL-66-All-66-NursingHomes-65,Diversicare of Arab,"235 Third Street, S.E.",,Arab,AL,35016,Marshall,N4801,01-5148,47-5405,Mandy Shaddrix,(256) 586-3111,Nursing Home,87,,,Skilled Nursing Facility,87,,0,,0,,0,,0,Limited Liability Company,Regular,
USA-AL-66-All-66-NursingHomes-66,Diversicare of Bessemer,820 Golf Course Road,,Bessemer,AL,35023,Jefferson,N3708,01-5209,47-5751,Maria Ephraim,(205) 425-5241,Nursing Home,180,,,Skilled Nursing Facility,180,,0,,0,,0,,0,Limited Liability Company,Regular,
USA-AL-66-All-66-NursingHomes-67,Diversicare of Big Springs,"500 St. Clair Avenue, Southwest",,Huntsville,AL,35801,Madison,N4501,01-5111,47-5660,Kathi Gipson,(256) 639-5111,Nursing Home,135,,,Skilled Nursing Facility,135,,0,,0,,0,,0,Limited Liability Company,Regular,
USA-AL-66-All-66-NursingHomes-68,Diversicare of Boaz,600 Corley Avenue,,Boaz,AL,35957,Marshall,N4802,01-5063,47-5063,Cindy Brooks,(256) 593-8380,Nursing Home,100,,,Skilled Nursing Facility,100,,0,,0,,0,,0,Limited Liability Company,Regular,
USA-AL-66-All-66-NursingHomes-69,Diversicare of Foley,1701 North Alston Street,,Foley,AL,36535,Baldwin,N0202,01-5032,47-5745,"Albert T. Herndon, Jr.",(251) 943-2781,Nursing Home,154,,,Skilled Nursing Facility,154,,0,,0,,0,,0,Limited Liability Company,Regular,
USA-AL-66-All-66-NursingHomes-70,Diversicare of Lanett,702 South 13th Street,,Lanett,AL,36863,Chambers,N0904,01-5196,47-5749,Annie Swanson,(334) 644-1111,Nursing Home,85,,,Skilled Nursing Facility,85,,0,,0,,0,,0,Limited Liability Company,Regular,
USA-AL-66-All-66-NursingHomes-71,Diversicare of Montgomery,2020 North Country Club Drive,,Montgomery,AL,36106,Montgomery,N5106,01-5040,47-5769,Dennis Davis,(334) 263-1643,Nursing Home,138,,,Skilled Nursing Facility,138,,0,,0,,0,,0,Limited Liability Company,Regular,
USA-AL-66-All-66-NursingHomes-72,Diversicare of Oneonta,215 Valley Road,,Oneonta,AL,35121,Blount,N0502,01-5159,47-5753,Wilson Yopasa,(205) 274-2365,Nursing Home,120,,,Skilled Nursing Facility,120,,0,,0,,0,,0,Limited Liability Company,Regular,
USA-AL-66-All-66-NursingHomes-73,Diversicare of Oxford,1130 South Hale Street,P.O. Box 3408,Oxford,AL,36203,Calhoun,N0802,01-5132,47-5402,Susan Henderson,(256) 831-0481,Nursing Home,173,,,Skilled Nursing Facility,173,,0,,0,,0,,0,Limited Liability Company,Regular,
USA-AL-66-All-66-NursingHomes-74,Diversicare of Pell City,"510 Wolf Creek Road, North",,Pell City,AL,35125,St. Clair,N5804,01-5189,47-5748,Sandy Prescott,(205) 338-3329,Nursing Home,94,,,Skilled Nursing Facility,94,,0,,0,,0,,0,Limited Liability Company,Regular,
USA-AL-66-All-66-NursingHomes-75,Diversicare of Riverchase,2500 Riverhaven Drive,,Birmingham,AL,35244,Jefferson,N3739,01-5145,47-5738,Randolph Pickell,(205) 987-0901,Nursing Home,132,,,Skilled Nursing Facility,132,,0,,0,,0,,0,Limited Liability Company,Regular,
USA-AL-66-All-66-NursingHomes-76,Diversicare of Winfield,144 County Highway 14,,Winfield,AL,35594,Marion,N4703,01-5376,47-5737,Janet Studdard,(205) 487-4211,Nursing Home,123,,,Skilled Nursing Facility,123,,0,,0,,0,,0,Limited Liability Company,Regular,
USA-AL-66-All-66-NursingHomes-77,EAMC - Lanier Nursing Home,4800 48th Street,,Valley,AL,36854,Chambers,N0902,01-5045,47-5482,Jason Banks,(334) 756-9180,Nursing Home,103,,,Skilled Nursing Facility,103,,0,,0,,0,,0,Healthcare Authority,Regular,
USA-AL-66-All-66-NursingHomes-78,East Alabama Medical Center Skilled Nursing Facility,2000 Pepperell Parkway,,Opelika,AL,36802,Lee,N4102,01-5410,,Robyn Olive,(334) 528-2697,Nursing Home,26,,,Skilled Nursing Facility,26,,0,,0,,0,,0,Healthcare Authority,Regular,
USA-AL-66-All-66-NursingHomes-79,East Glen,53 Medical Park Drive East,,Birmingham,AL,35235,Jefferson,N3714,01-5388,47-5805,Adam Alvis,(205) 836-4231,Nursing Home,108,,,Skilled Nursing Facility,108,,0,,0,,0,,0,Limited Liability Company,Regular,
USA-AL-66-All-66-NursingHomes-80,Eastern Shore Rehabilitation and Health Center,101 Villa Drive,,Daphne,AL,36526,Baldwin,N0204,01-5049,1124083761,Kelley Urban,(251) 621-4200,Nursing Home,117,,,Skilled Nursing Facility,117,,0,,0,,0,,0,Non-Profit Corporation,Regular,
USA-AL-66-All-66-NursingHomes-81,Eastview Rehabilitation & Healthcare Center,7755 Fourth Avenue South,,Birmingham,AL,35206-4425,Jefferson,N3725,01-5014,47-5014,Antoine Ash,(205) 833-0146,Nursing Home,90,,,Skilled Nursing Facility,90,,0,,0,,0,,0,Corporation,Regular,
USA-AL-66-All-66-NursingHomes-82,El Reposo Nursing Facility,260 Milner Chapel Road,,Florence,AL,35634,Lauderdale,N3901,01-5402,47-5210,"Beth Anerton, RN, BSN.,NHA",(256) 757-2143,Nursing Home,60,,,Skilled Nursing Facility,60,,0,,0,,0,,0,Non-Profit Corporation,Regular,
USA-AL-66-All-66-NursingHomes-83,"Elba Nursing and Rehabilitation Center, LLC",987 Drayton Street,,Elba,AL,36323,Coffee,N1601,01-5083,151052,Nikki Hall,(334) 897-2257,Nursing Home,111,,,Skilled Nursing Facility,111,,0,,0,,0,,0,Limited Liability Company,Regular,
USA-AL-66-All-66-NursingHomes-84,Englewood Health Care Center,2046 South Alabama Avenue,,Monroeville,AL,36460,Monroe,N5002,01-5322,47-5419,Bryan Keith Baggett,(251) 575-3285,Nursing Home,87,,,Skilled Nursing Facility,87,,0,,0,,0,,0,Limited Liability Company,Regular,
USA-AL-66-All-66-NursingHomes-85,Enterprise Health & Rehabilitation Center,300 Plaza Drive,P.O. Box 311227,Enterprise,AL,36331-1227,Coffee,N1602,01-5320,47-5320,Barbara Stinson,(334) 347-9541,Nursing Home,257,,,Skilled Nursing Facility,257,,0,,0,,0,,0,Healthcare Authority,Regular,
USA-AL-66-All-66-NursingHomes-86,Evergreen Nursing Home,100 Sanders Drive,P.O. Box 391,Evergreen,AL,36401,Conecuh,N1801,01-5089,47-5089,Kimberly M. Bush,(334) 578-3782,Nursing Home,61,,,Skilled Nursing Facility,61,,0,,0,,0,,0,Limited Liability Company,Regular,
USA-AL-66-All-66-NursingHomes-87,Extendicare Health Center,950 South St. Andrews Street,P.O. Box 1246,Dothan,AL,36302-1246,Houston,N3501,01-5152,47-5702,Shenika Ford,(334) 793-1177,Nursing Home,170,,,Skilled Nursing Facility,170,,0,,0,,0,,0,Corporation,Regular,
USA-AL-66-All-66-NursingHomes-88,Fair Haven,1424 Montclair Road,,Birmingham,AL,35210,Jefferson,N3718,01-5076,47-5076,Michael Giles,(205) 956-4150,Nursing Home,259,,,Skilled Nursing Facility,259,,0,,0,,0,,0,Non-Profit Corporation,Regular,
USA-AL-66-All-66-NursingHomes-89,Fairhope Health & Rehab,108 South Church Street,P.O. Box 976,Fairhope,AL,36533,Baldwin,N0201,01-5222,47-5735,Julie K. Doughan,(251) 928-2153,Nursing Home,131,,,Skilled Nursing Facility,131,,0,,0,,0,,0,Limited Liability Company,Regular,
USA-AL-66-All-66-NursingHomes-90,Fairview at Redstone Village,12000 Turnmeyer Drive,,Huntsville,AL,35803,Madison,N4514,01-5454,,Vicki NeSmith,(256) 881-6088,Nursing Home,56,,,Skilled Nursing Facility,56,,0,,0,,0,,0,Non-Profit Corporation,Regular,
USA-AL-66-All-66-NursingHomes-91,Fairview Health and Rehabilitation Center,1028 Bessemer Road,,Birmingham,AL,35228,Jefferson,N3707,01-5303,47-5420,"Stella Dianne Webb, BSN, NHA",(205) 923-1777,Nursing Home,163,,,Skilled Nursing Facility,163,,0,,0,,0,,0,Limited Liability Company,Regular,
USA-AL-66-All-66-NursingHomes-92,Falkville Health Care Center,10 West Third Street,P.O. Box 409,Falkville,AL,35622-5041,Morgan,N5202,01-5136,47-5360,Melba Freeman,(256) 784-5291,Nursing Home,116,,,Skilled Nursing Facility,116,,0,,0,,0,,0,Limited Liability Company,Regular,
USA-AL-66-All-66-NursingHomes-93,Father Purcell Memorial Exceptional Children's Center,2048 West Fairview Avenue,,Montgomery,AL,36108,Montgomery,N5104,01-A193,47-5445,Brenda Withers,(334) 834-5590,Nursing Home,58,,,Nursing Facility,58,,0,,0,,0,,0,Non-Profit Corporation,Regular,
USA-AL-66-All-66-NursingHomes-94,Fayette Medical Center Long Term Care Unit,"1653 Temple Avenue, North",,Fayette,AL,35555,Fayette,N2901,01-5154,47-5312,"Terri Michelle Robertson, RN",(205) 932-1183,Nursing Home,122,,,Skilled Nursing Facility,122,,0,,0,,0,,0,Healthcare Authority,Regular,
USA-AL-66-All-66-NursingHomes-95,"Florala Health and Rehabilitation, LLC",23621 Goldenrod Avenue,,Florala,AL,36442,Covington,N2005,01-5451,4758140S,Sara M. Goolsby,(334) 858-8585,Nursing Home,85,,,Skilled Nursing Facility,85,,0,,0,,0,,0,Limited Liability Company,Regular,
USA-AL-66-All-66-NursingHomes-96,"Florence Nursing and Rehabilitation Center, LLC",2107 Cloyd Boulevard,,Florence,AL,35630,Lauderdale,N3904,01-5169,47-5754,Tina Taylor,(256) 766-5771,Nursing Home,147,,,Skilled Nursing Facility,147,,0,,0,,0,,0,Limited Liability Company,Regular,
USA-AL-66-All-66-NursingHomes-97,"Floyd E. ""Tut"" Fann State Veterans Home",2701 Meridian Street,,Huntsville,AL,35811,Madison,N4508,,,Belinda Schrimsher,(256) 852-5170,Nursing Home,150,,,Skilled Nursing Facility,150,,0,,0,,0,,0,Corporation,Regular,
USA-AL-66-All-66-NursingHomes-98,"Folsom Center for Rehabilitation and Healthcare, The",401 Arnold Street Northeast,,Cullman,AL,35055,Cullman,N2206,01-5437,47-5802,Elizabeth Hayes,(256) 739-4409,Nursing Home,102,,,Skilled Nursing Facility,102,,0,,0,,0,,0,Corporation,Regular,
USA-AL-66-All-66-NursingHomes-99,"Forest Manor, Inc.",2215 32nd Street,,Northport,AL,35476,Tuscaloosa,N6306,01-5143,47-5472,Lyman Hardy,(205) 339-5400,Nursing Home,182,,,Skilled Nursing Facility,182,,0,,0,,0,,0,Corporation,Regular,
USA-AL-66-All-66-NursingHomes-100,Gadsden Health and Rehab Center,1945 Davis Drive,,Gadsden,AL,35904,Etowah,N2802,01-5180,47-5003,"W. R. Lester, Jr.",(256) 547-4938,Nursing Home,168,,,Skilled Nursing Facility,168,,0,,0,,0,,0,Limited Liability Company,Regular,
USA-AL-66-All-66-NursingHomes-101,Galleria Woods Skilled Nursing Facility,3850 Galleria Woods Drive,,Hoover,AL,35244,Jefferson,N3721,01-5459,,Lynda Sullivan,(205) 985-7537,Nursing Home,30,,,Skilled Nursing Facility,30,,0,,0,,0,,0,Limited Liability Company,Regular,
USA-AL-66-All-66-NursingHomes-102,"Generations of Red Bay, LLC",106 10th Avenue North,,Red Bay,AL,35582,Franklin,N3003,01-5201,47-5408,Pamela Bates Poole,(256) 356-4982,Nursing Home,90,,,Skilled Nursing Facility,90,,0,,0,,0,,0,Limited Liability Company,Regular,
USA-AL-66-All-66-NursingHomes-103,"Generations of Vernon, LLC",1050 Convalescent Road,,Vernon,AL,35592,Lamar,N3802,01-5227,47-5228,"Amber Harper, RN",(205) 695-9313,Nursing Home,158,,,Skilled Nursing Facility,158,,0,,0,,0,,0,Corporation,Regular,
USA-AL-66-All-66-NursingHomes-104,"Georgiana Health and Rehabilitation, LLC",206 Palmer Avene,,Georgiana,AL,36033,Butler,N0702,01-5182,47-5454,Matilda Hartley,(334) 376-2267,Nursing Home,91,,,Skilled Nursing Facility,91,,0,,0,,0,,0,Limited Liability Company,Regular,
USA-AL-66-All-66-NursingHomes-105,"Glen Haven Health and Rehabilitation, LLC",2201 32nd Street,,Northport,AL,35476,Tuscaloosa,N6301,01-5186,47-5640,Adam James Madison,(205) 339-5700,Nursing Home,200,,,Skilled Nursing Facility,200,,0,,0,,0,,0,Limited Liability Company,Regular,
USA-AL-66-All-66-NursingHomes-106,Glenwood Center,211 Ana Drive,,Florence,AL,35630,Lauderdale,N3905,01-5147,47-5122,Angie Terry,(256) 766-8963,Nursing Home,125,,,Skilled Nursing Facility,125,,0,,0,,0,,0,Limited Liability Company,Regular,
USA-AL-66-All-66-NursingHomes-107,Goodwater Healthcare Center,16 Jones Hill Road,,Goodwater,AL,35072-9462,Coosa,N1901,01-5204,47-5580,Janice Tyler,(256) 839-6711,Nursing Home,72,,,Skilled Nursing Facility,72,,0,,0,,0,,0,Limited Liability Company,Regular,
USA-AL-66-All-66-NursingHomes-108,Gordon Oaks Health & Rehab,3151-A Knollwood Drive,,Mobile,AL,36693,Mobile,N4926,01-5463,47-5799,Cynthia Luker,(251) 661-7600,Nursing Home,71,,,Skilled Nursing Facility,71,,0,,0,,0,,0,Limited Liability Company,Regular,
USA-AL-66-All-66-NursingHomes-109,"Grand Bay Convalescent Home, Inc.",13750 Highway 90 West,P.O. Box 328,Grand Bay,AL,36541,Mobile,N4904,01-5406,47-5211,Joan Hart,(251) 865-6443,Nursing Home,92,,,Skilled Nursing Facility,92,,0,,0,,0,,0,Corporation,Regular,
USA-AL-66-All-66-NursingHomes-110,Greenbriar at the Altamont Skilled Nursing Facility,2831 Highland Avenue South,,Birmingham,AL,35205,Jefferson,N3701,01-5446,47-58130S,Jennifer B. Shunnarah,(205) 714-3142,Nursing Home,95,,,Skilled Nursing Facility,95,,0,,0,,0,,0,Limited Liability Company,Regular,
USA-AL-66-All-66-NursingHomes-111,Greene County Residential Care Center,509 Wilson Avenue,,Eutaw,AL,35462,Greene,N3201,01-5178,47-5311,Sandra Root,(205) 372-4545,Nursing Home,72,,,Skilled Nursing Facility,72,,0,,0,,0,,0,County,Regular,
USA-AL-66-All-66-NursingHomes-112,"Gulf Coast Health and Rehabilitation, LLC",8002 Grelot Road,,Mobile,AL,36695-8976,Mobile,N4917,01-5456,47-58170S,Scott Lindsey,(251) 634-8002,Nursing Home,100,,,Skilled Nursing Facility,100,,0,,0,,0,,0,Limited Liability Company,Regular,
USA-AL-66-All-66-NursingHomes-113,Haleyville Health Care Center,2201 Eleventh Avenue,P.O. Box 160,Haleyville,AL,35565,Winston,N6701,01-5157,47-5483,Tracy Hooker,(205) 486-9478,Nursing Home,97,,,Skilled Nursing Facility,97,,0,,0,,0,,0,Individual,Regular,
USA-AL-66-All-66-NursingHomes-114,"Hanceville Nursing & Rehab Center, Inc.","420 Main Street, Northeast",,Hanceville,AL,35077,Cullman,N2203,01-5073,47-5073,Michael Vickers,(256) 352-6481,Nursing Home,208,,,Skilled Nursing Facility,208,,0,,0,,0,,0,Corporation,Regular,
USA-AL-66-All-66-NursingHomes-115,Hartford Health Care,217 Toro Road,,Hartford,AL,36344,Geneva,N3102,01-5419,47-5791,Shannon Owen,(334) 588-3842,Nursing Home,86,,,Skilled Nursing Facility,86,,0,,0,,0,,0,Limited Liability Company,Regular,
USA-AL-66-All-66-NursingHomes-116,"Hatley Health Care, Inc.",300 Medical Center Drive,,Clanton,AL,35045,Chilton,N1101,01-5023,47-5743,Michael Lance Bolding,(205) 755-4960,Nursing Home,201,,,Skilled Nursing Facility,201,,0,,0,,0,,0,Corporation,Regular,
USA-AL-66-All-66-NursingHomes-117,"Health Care, Inc.",38286 US Hwy 231,P.O. Box 130,Ashville,AL,35953,St. Clair,N5801,01-5407,47-5202,Pam Penland,(205) 594-5148,Nursing Home,53,,,Skilled Nursing Facility,53,,0,,0,,0,,0,Corporation,Regular,
USA-AL-66-All-66-NursingHomes-118,Hendrix Health and Rehabilitation,1000 Highway 33,,Double Springs,AL,35553,Winston,N6702,01-5138,47-5734,Sonny Ward,(205) 489-2136,Nursing Home,110,,,Skilled Nursing Facility,110,,0,,0,,0,,0,Corporation,Regular,
USA-AL-66-All-66-NursingHomes-119,Henry County Health and Rehabilitation Facility,212 Dothan Road,,Abbeville,AL,36310,Henry,N3401,01-5373,47-5762,Charlie W. Houston II,(334) 585-2241,Nursing Home,142,,,Skilled Nursing Facility,142,,0,,0,,0,,0,Healthcare Authority,Regular,
USA-AL-66-All-66-NursingHomes-120,"Heritage Health Care & Rehab., Inc.",1101 Snows Mill Avenue,,Tuscaloosa,AL,35406,Tuscaloosa,N6305,01-5371,47-5411,George L. Jackson,(205) 759-5179,Nursing Home,216,,,Skilled Nursing Facility,216,,0,,0,,0,,0,Corporation,Regular,
USA-AL-66-All-66-NursingHomes-121,Highlands Health and Rehab,380 Woods Cove Road,P.O. Box 1050,Scottsboro,AL,35768,Jackson,N3601,01-5012,47-5012,Manda Mountain,(256) 259-4444,Nursing Home,50,,,Skilled Nursing Facility,50,,0,,0,,0,,0,Healthcare Authority,Regular,
USA-AL-66-All-66-NursingHomes-122,Hillview Terrace,100 Perry Hill Road,,Montgomery,AL,36109,Montgomery,N5102,01-5436,47-5801,Dustin Watkins,(334) 272-0171,Nursing Home,143,,,Skilled Nursing Facility,143,,0,,0,,0,,0,Corporation,Regular,
USA-AL-66-All-66-NursingHomes-123,"Hunter Creek Health and Rehabilitation, LLC",600 34th Street,,Northport,AL,35473,Tuscaloosa,N6304,01-5034,47-5712,David Estes,(205) 339-5900,Nursing Home,78,,,Skilled Nursing Facility,78,,0,,0,,0,,0,Limited Liability Company,Regular,
USA-AL-66-All-66-NursingHomes-124,"Huntsville Health and Rehabilitation, LLC",4010 Chris Drive,,Huntsville,AL,35802,Madison,N4510,01-5440,47-5803,Rebecca Ann Frazier-Smith,(256) 883-8656,Nursing Home,105,,,Skilled Nursing Facility,105,,0,,0,,0,,0,Limited Liability Company,Regular,
USA-AL-66-All-66-NursingHomes-125,Jackson Health Care Facility,2616 North College Avenue,,Jackson,AL,36545,Clarke,N1301,01-5188,47-5301,Bonnie Pope,(251) 246-2476,Nursing Home,91,,,Skilled Nursing Facility,91,,0,,0,,0,,0,Limited Liability Company,Regular,
USA-AL-66-All-66-NursingHomes-126,"Jacksonville Health and Rehabilitation, LLC","410 Wilson Drive, Southwest",,Jacksonville,AL,36265,Calhoun,N0803,01-5391,47-5782,Derek Patterson,(256) 435-7704,Nursing Home,167,,,Skilled Nursing Facility,167,,0,,0,,0,,0,Limited Liability Company,Regular,
USA-AL-66-All-66-NursingHomes-127,"John Knox Manor, Inc. II",4401 Narrow Lane Road,,Montgomery,AL,36116,Montgomery,N5108,01-5135,47-5475,Terri Howell,(334) 281-6336,Nursing Home,98,,,Skilled Nursing Facility,98,,0,,0,,0,,0,Corporation,Regular,
USA-AL-66-All-66-NursingHomes-128,Keller Landing,813 Keller Lane,,Tuscumbia,AL,35674,Colbert,N1701,01-5028,47-5771,Vanessa Lynn Narmore,(256) 383-1535,Nursing Home,109,,,Skilled Nursing Facility,109,,0,,0,,0,,0,Limited Liability Company,Regular,
USA-AL-66-All-66-NursingHomes-129,Kirkwood by the River,3605 Ratliff Road,,Birmingham,AL,35210,Jefferson,N3741,01-5457,,Jeffery W. Burchfield,(205) 956-2184,Nursing Home,61,,,Skilled Nursing Facility,61,,0,,0,,0,,0,Non-Profit Corporation,Regular,
USA-AL-66-All-66-NursingHomes-130,Lafayette Extended Care,805 Hospital Street,P.O. Box 152,Lafayette,AL,36862,Chambers,N0901,01-5197,47-5560,Yvonne Butler,(334) 864-8854,Nursing Home,69,,,Skilled Nursing Facility,69,,0,,0,,0,,0,Limited Liability Company,Regular,
USA-AL-66-All-66-NursingHomes-131,Lafayette Nursing Home,"555 B Street, Southwest",P.O. Box 109,Lafayette,AL,36862,Chambers,N0903,01-5414,47-5225,Tommy F. Pike,(334) 864-9371,Nursing Home,63,,,Skilled Nursing Facility,63,,0,,0,,0,,0,Limited Liability Company,Regular,
USA-AL-66-All-66-NursingHomes-132,Lauderdale Christian Nursing Home,2019 County Road 394,,Killen,AL,35645,Lauderdale,N3902,01-5361,47-5361,Timothy Lee Morrow,(256) 757-2103,Nursing Home,58,,,Nursing Facility,58,,0,,0,,0,,0,Non-Profit Corporation,Regular,
USA-AL-66-All-66-NursingHomes-133,"Legacy Health and Rehabilitation of Pleasant Grove, LLC",30 7th Street,,Pleasant Grove,AL,35127,Jefferson,N3748,01-5461,,Nicholas Beckham,(205) 744-8226,Nursing Home,198,,,Skilled Nursing Facility,198,,0,,0,,0,,0,Limited Liability Company,Regular,
USA-AL-66-All-66-NursingHomes-134,Lighthouse Rehabilitation & Healthcare Center,2911 Earl Goodwin Parkway,,Selma,AL,36703-2825,Dallas,N2401,01-5413,47-5776,Armelia Oliver,(334) 875-1868,Nursing Home,68,,,Skilled Nursing Facility,68,,0,,0,,0,,0,Limited Liability Company,Regular,
USA-AL-66-All-66-NursingHomes-135,"Lineville Health and Rehabilitation, LLC",88073 Highway 9,,Lineville,AL,36266,Clay,N1402,01-5142,47-5478,Judy Roberson,(256) 396-2104,Nursing Home,101,,,Skilled Nursing Facility,101,,0,,0,,0,,0,Limited Liability Company,Regular,
USA-AL-66-All-66-NursingHomes-136,Little Sisters of the Poor Sacred Heart Residence,1655 McGill Avenue,,Mobile,AL,36604-1299,Mobile,N4909,01-5168,47-5474,Sr. Carolyn M. Martin,(251) 476-6335,Nursing Home,75,,,Skilled Nursing Facility,75,,0,,0,,0,,0,Non-Profit Corporation,Regular,
USA-AL-66-All-66-NursingHomes-137,"Luverne Health and Rehabilitation, LLC",142 West 3rd Street,,Luverne,AL,36049,Crenshaw,N2101,01-5336,47-5437,Tracy Colleen Savage,(334) 335-5331,Nursing Home,151,,,Skilled Nursing Facility,151,,0,,0,,0,,0,Limited Liability Company,Regular,
USA-AL-66-All-66-NursingHomes-138,Lynwood Nursing Home,4164 Halls Mill Road,,Mobile,AL,36693,Mobile,N4907,01-5434,47-5427,David Grimes,(251) 661-5404,Nursing Home,127,,,Skilled Nursing Facility,127,,0,,0,,0,,0,Corporation,Regular,
USA-AL-66-All-66-NursingHomes-139,Madison Manor Nursing Home,3891 Sullivan Street,,Madison,AL,35758,Madison,N4503,01-5214,47-5750,Felita L. Smith,(256) 772-9243,Nursing Home,80,,,Skilled Nursing Facility,80,,0,,0,,0,,0,Limited Liability Company,Regular,
USA-AL-66-All-66-NursingHomes-140,Magnolia Haven Health and Rehabilitation Center,603 Wright Street,,Tuskegee,AL,36083-1585,Macon,N4401,01-5112,47-5112,Anita L. Evans,(334) 727-4960,Nursing Home,111,,,Skilled Nursing Facility,111,,0,,0,,0,,0,Limited Liability Company,Regular,
USA-AL-66-All-66-NursingHomes-141,Magnolia Ridge,420 Dean Drive,,Gardendale,AL,35071,Jefferson,N3738,01-5133,47-5473,King deMontluzin,(205) 631-8709,Nursing Home,148,,,Skilled Nursing Facility,148,,0,,0,,0,,0,Limited Liability Company,Regular,
USA-AL-66-All-66-NursingHomes-142,Marengo Nursing Home,608 North Main Street,,Linden,AL,36748,Marengo,N4601,01-5330,47-5330,Alison Glass,(334) 295-8631,Nursing Home,78,,,Skilled Nursing Facility,78,,0,,0,,0,,0,Healthcare Authority,Regular,
USA-AL-66-All-66-NursingHomes-143,Marion Regional Nursing Home,184 Sasser Drive,,Hamilton,AL,35570,Marion,N4701,01-5167,47-5306,Linda Brown,(205) 921-6341,Nursing Home,79,,,Skilled Nursing Facility,79,,0,,0,,0,,0,Non-Profit Corporation,Regular,
USA-AL-66-All-66-NursingHomes-144,Marshall Manor Nursing Home,3120 North Street,,Guntersville,AL,35976,Marshall,N4805,01-5378,47-5725,Pam Vogt,(256) 582-6561,Nursing Home,91,,,Skilled Nursing Facility,91,,0,,0,,0,,0,Limited Liability Company,Regular,
USA-AL-66-All-66-NursingHomes-145,McGuffey Health and Rehabilitation Center,2301 Rainbow Drive,,Gadsden,AL,35901,Etowah,N2804,01-5202,47-5094,April Conley,(256) 543-3467,Nursing Home,209,,,Skilled Nursing Facility,209,,0,,0,,0,,0,Limited Liability Company,Regular,
USA-AL-66-All-66-NursingHomes-146,Meadowbrook Extended Care,700 Corporate Ridge Drive,,Birmingham,AL,35242,Shelby,N5905,01-5642,,Eric McLemore,(205) 991-8900,Nursing Home,32,,,Skilled Nursing Facility,32,,0,,0,,0,,0,Limited Liability Company,Regular,
USA-AL-66-All-66-NursingHomes-147,Meadowview Nursing Center,7300 Highway 78,,Pell City,AL,35128,St. Clair,N5803,01-5400,47-5765,"Suellen Tobler, LNHA",(205) 640-5212,Nursing Home,59,,,Skilled Nursing Facility,59,,0,,0,,0,,0,Corporation,Regular,
USA-AL-66-All-66-NursingHomes-148,Merry Wood Lodge,280 Mount Hebron Road,,Elmore,AL,36025-1526,Elmore,N2602,01-5019,47-5019,S. Rodney Arp,(334) 567-8484,Nursing Home,124,,,Skilled Nursing Facility,124,,0,,0,,0,,0,Limited Liability Company,Regular,
USA-AL-66-All-66-NursingHomes-149,"Millennium Nursing & Rehab Center, Inc.",5275 Millennium Drive,,Huntsville,AL,35806,Madison,N4515,01-5458,475819OS,Barbara Stripling,(256) 489-6800,Nursing Home,91,,,Skilled Nursing Facility,91,,0,,0,,0,,0,Corporation,Regular,
USA-AL-66-All-66-NursingHomes-150,"Mitchell-Hollingsworth Nursing & Rehabilitation Center, LLC",805 Flagg Circle,,Florence,AL,35630,Lauderdale,N3903,01-5031,47-5033,Brian Scheri,(256) 740-5400,Nursing Home,222,,,Skilled Nursing Facility,222,,0,,0,,0,,0,Limited Liability Company,Regular,
USA-AL-66-All-66-NursingHomes-151,"Mobile Nursing and Rehabilitation Center, LLC",7020 Bruns Drive,,Mobile,AL,36695,Mobile,N4915,01-5379,47-5755,Jennifer Lindsay Guthrie,(251) 639-1588,Nursing Home,120,,,Skilled Nursing Facility,120,,0,,0,,0,,0,Limited Liability Company,Regular,
USA-AL-66-All-66-NursingHomes-152,Monroe Manor Health & Rehabilitation Center,236 West Claiborne Street,,Monroeville,AL,36460-1704,Monroe,N5001,01-5398,47-5713,Zed D. Perrigin,(251) 575-2648,Nursing Home,84,,,Skilled Nursing Facility,84,,0,,0,,0,,0,Limited Liability Company,Regular,
USA-AL-66-All-66-NursingHomes-153,Montgomery Children's Specialty Center,2853 Forbes Drive,,Montgomery,AL,36110,Montgomery,N5109,01-A208,1225347495,Veronicia Johnson,(334) 261-3445,Nursing Home,54,,,Nursing Facility,54,,0,,0,,0,,0,Limited Liability Company,Regular,
USA-AL-66-All-66-NursingHomes-154,Montrose Bay Health and Rehabilitation Center,22670 Main Street,P.O. Box 256,Montrose,AL,36559,Baldwin,N0203,01-5447,47-5011,Maanami Irving Ransome,(251) 928-2177,Nursing Home,83,,,Skilled Nursing Facility,83,,0,,0,,0,,0,Limited Liability Company,Regular,
USA-AL-66-All-66-NursingHomes-155,"Moundville Health and Rehabilitation, LLC",121 Union Street,,Moundville,AL,35474,Hale,N3302,01-5187,47-5456,Brett Evans Milligan,(205) 371-2252,Nursing Home,68,,,Skilled Nursing Facility,68,,0,,0,,0,,0,Limited Liability Company,Regular,
USA-AL-66-All-66-NursingHomes-156,Mount Royal Towers,300 Royal Tower Drive,,Birmingham,AL,35209,Jefferson,N3742,01-5455,,B. Renee Barnard,(205) 870-5666,Nursing Home,143,,,Skilled Nursing Facility,143,,0,,0,,0,,0,Partnership,Regular,
USA-AL-66-All-66-NursingHomes-157,"NHC Healthcare, Anniston",2300 Coleman Road,,Anniston,AL,36207,Calhoun,N0805,01-5120,47-5430,Keeley Stallings,(256) 831-5730,Nursing Home,151,,,Skilled Nursing Facility,151,,0,,0,,0,,0,Limited Liability Company,Regular,
USA-AL-66-All-66-NursingHomes-158,"NHC Healthcare, Moulton",300 Hospital Street,P.O. Box 339,Moulton,AL,35650,Lawrence,N4001,01-5128,47-5334,Holly Harbin,(256) 974-1146,Nursing Home,136,,,Skilled Nursing Facility,136,,0,,0,,0,,0,Limited Liability Company,Regular,
USA-AL-66-All-66-NursingHomes-159,"North Hill Nursing and Rehabilitation Center, LLC",200 North Pine Hill Road,,Birmingham,AL,35217-1215,Jefferson,N3706,01-5091,150890,Lisa Hosford,(205) 849-2352,Nursing Home,190,,,Skilled Nursing Facility,190,,0,,0,,0,,0,Limited Liability Company,Regular,
USA-AL-66-All-66-NursingHomes-160,North Mobile Nursing and Rehabilitation Center,4525 St. Stephens Road,,Eight Mile,AL,36613,Mobile,N4912,01-5183,47-5733,Kathy Odom,(251) 452-0996,Nursing Home,172,,,Skilled Nursing Facility,172,,0,,0,,0,,0,Limited Liability Company,Regular,
USA-AL-66-All-66-NursingHomes-161,Northside Health Care,700 Hutchins Avenue,,Gadsden,AL,35901,Etowah,N2806,01-5223,47-5620,Robbie Martini,(256) 543-7101,Nursing Home,115,,,Skilled Nursing Facility,115,,0,,0,,0,,0,Corporation,Regular,
USA-AL-66-All-66-NursingHomes-162,"Northway Health and Rehabilitation, LLC",1424 North 25th Street,,Birmingham,AL,35234,Jefferson,N3720,01-5047,47-5785,Kelvin Robertson,(205) 328-5870,Nursing Home,113,,,Skilled Nursing Facility,113,,0,,0,,0,,0,Limited Liability Company,Regular,
USA-AL-66-All-66-NursingHomes-163,"Oak Knoll Health and Rehabilitation, LLC",824 Sixth Avenue West,,Birmingham,AL,35204,Jefferson,N3735,01-5117,47-5757,Darlene Mosley,(205) 787-2619,Nursing Home,100,,,Skilled Nursing Facility,100,,0,,0,,0,,0,Limited Liability Company,Regular,
USA-AL-66-All-66-NursingHomes-164,Oak Park,1365 Gatewood Drive,,Auburn,AL,36830,Lee,N4101,01-5452,4758150S,Suzanne Pugh,(334) 826-7200,Nursing Home,87,,,Skilled Nursing Facility,87,,0,,0,,0,,0,Healthcare Authority,Regular,
USA-AL-66-All-66-NursingHomes-165,Oak Trace Care & Rehabilitation Center,325 Selma Road,,Bessemer,AL,35020,Jefferson,N3719,01-5050,47-5050,Barbara Chatman,(205) 428-9383,Nursing Home,79,,,Skilled Nursing Facility,79,,0,,0,,0,,0,Corporation,Regular,
USA-AL-66-All-66-NursingHomes-166,Oaks on Parkwood Skilled Nursing Facility,2625 Laurel Oak Drive,,Bessemer,AL,35022,Jefferson,N3737,01-5369,47-5540,Kathy Smothers,(205) 933-7010,Nursing Home,130,,,Skilled Nursing Facility,130,,0,,0,,0,,0,Limited Liability Company,Regular,
USA-AL-66-All-66-NursingHomes-167,Oakview Manor Health Care Center,929 Mixon School Road,,Ozark,AL,36360,Dale,N2302,01-5216,47-5418,Judy S. Roberts,(334) 774-2631,Nursing Home,138,,,Skilled Nursing Facility,138,,0,,0,,0,,0,Non-Profit Corporation,Regular,
USA-AL-66-All-66-NursingHomes-168,Oakwood-North Baldwin's Center for Living,2010 Medical Center Drive,,Bay Minette,AL,36507,Baldwin,N0206,01-5417,47-5790,Gail G. McInnish,(251) 937-3501,Nursing Home,75,,,Skilled Nursing Facility,75,,0,,0,,0,,0,Non-Profit Corporation,Regular,
USA-AL-66-All-66-NursingHomes-169,"Opp Health and Rehabilitation, LLC",115 Paulk Avenue,P.O. Box 730,Opp,AL,36467,Covington,N2004,01-5210,47-5455,Ava C. Morrow,(334) 493-4558,Nursing Home,197,,,Skilled Nursing Facility,197,,0,,0,,0,,0,Limited Liability Company,Regular,
USA-AL-66-All-66-NursingHomes-170,Orchard Rehabilitation & Healthcare Center,629 State Highway 21 South,P.O. Box 430,Hayneville,AL,36040,Lowndes,N4301,01-5442,47-5806,Jacquelyn  B. Greene,(334) 548-5995,Nursing Home,72,,,Skilled Nursing Facility,72,,0,,0,,0,,0,Corporation,Regular,
USA-AL-66-All-66-NursingHomes-171,"Ozark Health and Rehabilitation, LLC",312 Bryan Drive,,Ozark,AL,36360,Dale,N2301,01-5208,47-5302,Sonya Gouge,(334) 774-2561,Nursing Home,149,,,Skilled Nursing Facility,149,,0,,0,,0,,0,Limited Liability Company,Regular,
USA-AL-66-All-66-NursingHomes-172,"Palm Gardens Health and Rehabilitation, LLC",3104 Dauphin Square Connector,,Mobile,AL,36607,Mobile,N4906,01-5403,47-5214,Nancy Stanford,(251) 450-2800,Nursing Home,100,,,Skilled Nursing Facility,100,,0,,0,,0,,0,Limited Liability Company,Regular,
USA-AL-66-All-66-NursingHomes-173,"Park Manor Health and Rehabilitation, LLC",2201 McFarland Boulevard,,Northport,AL,35476,Tuscaloosa,N6303,01-5326,47-5709,Janet Wise,(205) 339-5300,Nursing Home,152,,,Skilled Nursing Facility,152,,0,,0,,0,,0,Limited Liability Company,Regular,
USA-AL-66-All-66-NursingHomes-174,Park Place,100 Park Place,,Selma,AL,36701,Dallas,N2402,01-5084,47-5084,Edward Stephens,(334) 872-3471,Nursing Home,103,,,Skilled Nursing Facility,103,,0,,0,,0,,0,Limited Liability Company,Regular,
USA-AL-66-All-66-NursingHomes-175,Parkwood Health Care Facility,3301 Stadium Drive,,Phenix City,AL,36867,Russell,N5702,01-5179,47-5570,Jacqueline Morgan Brown,(334) 297-0237,Nursing Home,74,,,Skilled Nursing Facility,74,,0,,0,,0,,0,Limited Liability Company,Regular,
USA-AL-66-All-66-NursingHomes-176,Perry County Nursing Home,505 East Lafayette Street,P.O. Box 149,Marion,AL,36756,Perry,N5301,01-5158,47-5314,Sharon Phillips,(334) 683-9696,Nursing Home,71,,,Skilled Nursing Facility,71,,0,,0,,0,,0,County,Regular,
USA-AL-66-All-66-NursingHomes-177,"Phenix City Health Care, Inc.",3900 Lakewood Drive,,Phenix City,AL,36867,Russell,N5703,01-5331,47-5331,Sherry D. Ginn,(334) 298-8247,Nursing Home,86,,,Skilled Nursing Facility,86,,0,,0,,0,,0,Corporation,Regular,
USA-AL-66-All-66-NursingHomes-178,Piedmont Health Care Center,30 Roundtree Drive,,Piedmont,AL,36272,Calhoun,N0804,01-5194,47-5340,Sandra Keener,(256) 447-8258,Nursing Home,91,,,Skilled Nursing Facility,91,,0,,0,,0,,0,Healthcare Authority,Regular,
USA-AL-66-All-66-NursingHomes-179,Plantation Manor Nursing Home,6450 Old Tuscaloosa Highway,P.O. Box 97,McCalla,AL,35111,Jefferson,N3723,01-5015,47-5407,Gavin Ball,(205) 477-6161,Nursing Home,103,,,Skilled Nursing Facility,103,,0,,0,,0,,0,Corporation,Regular,
USA-AL-66-All-66-NursingHomes-180,"Prattville Health and Rehabilitation, LLC",601 Jasmine Trail,,Prattville,AL,36066,Autauga,N0103,01-5065,47-5761,Quintella South,(334) 365-2241,Nursing Home,162,,,Skilled Nursing Facility,162,,0,,0,,0,,0,Limited Liability Company,Regular,
USA-AL-66-All-66-NursingHomes-181,Regency Health Care and Rehabilitation Center,"2061 Poole Drive, NW",,Huntsville,AL,35810,Madison,N4505,01-5372,47-5809,Linda Robertson,(256) 852-9290,Nursing Home,90,,,Skilled Nursing Facility,90,,0,,0,,0,,0,Limited Liability Company,Regular,
USA-AL-66-All-66-NursingHomes-182,"Ridgeview Health Services, Inc.","907 11th Street, Northeast",,Jasper,AL,35504,Walker,N6401,01-5155,47-5328,Kara Holland,(205) 221-9111,Nursing Home,148,,,Skilled Nursing Facility,148,,0,,0,,0,,0,Corporation,Regular,
USA-AL-66-All-66-NursingHomes-183,"Ridgewood Health Services, Inc.",201 Oakhill Road,,Jasper,AL,35504,Walker,N6402,01-5315,47-5501,Andrea Burton,(205) 221-4862,Nursing Home,98,,,Skilled Nursing Facility,98,,0,,0,,0,,0,Corporation,Regular,
USA-AL-66-All-66-NursingHomes-184,River City Center,"1350 Fourteenth Avenue, Southeast",,Decatur,AL,35601,Morgan,N5204,01-5113,47-5113,James Arthur,(256) 355-6911,Nursing Home,183,,,Skilled Nursing Facility,183,,0,,0,,0,,0,Limited Liability Company,Regular,
USA-AL-66-All-66-NursingHomes-185,Roanoke Rehabilitation & Healthcare Center,680 Seymour Drive,,Roanoke,AL,36274-1522,Randolph,N5601,01-5424,47-5795,Emilee Rose Burchette,(334) 863-6151,Nursing Home,65,,,Skilled Nursing Facility,65,,0,,0,,0,,0,Limited Liability Company,Regular,
USA-AL-66-All-66-NursingHomes-186,Robertsdale Rehabilitation & Healthcare Center,18700 U S Highway 90,,Robertsdale,AL,36567-3271,Baldwin,N0209,01-5443,47-5807,Mary Kay Polys,(251) 947-1911,Nursing Home,152,,,Skilled Nursing Facility,152,,0,,0,,0,,0,Corporation,Regular,
USA-AL-66-All-66-NursingHomes-187,"Russellville Health Care, Inc.",705 Northeast Gandy Street,,Russellville,AL,35653,Franklin,N3002,01-5071,47-5071,Brenda Hovater,(256) 332-3773,Nursing Home,50,,,Skilled Nursing Facility,50,,0,,0,,0,,0,Corporation,Regular,
USA-AL-66-All-66-NursingHomes-188,Sea Breeze Healthcare Center,550 Congress Street,,Mobile,AL,36603,Mobile,N4918,01-5429,47-5797,Shuntay Carter,(251) 433-5471,Nursing Home,120,,,Skilled Nursing Facility,120,,0,,0,,0,,0,Limited Liability Company,Regular,
USA-AL-66-All-66-NursingHomes-189,"Self Health Care & Rehab Center, Inc.",131 East Crest Road,,Hueytown,AL,35023,Jefferson,N3728,01-5212,47-5343,"J. A. Self, Jr.",(205) 491-2411,Nursing Home,131,,,Skilled Nursing Facility,131,,0,,0,,0,,0,Corporation,Regular,
USA-AL-66-All-66-NursingHomes-190,Senior Rehab & Recovery at Limestone Health Facility,1600 West Hobbs Street,,Athens,AL,35611,Limestone,N4202,01-5024,47-5670,David A. Hunt,(256) 232-3461,Nursing Home,170,,,Skilled Nursing Facility,170,,0,,0,,0,,0,Corporation,Regular,
USA-AL-66-All-66-NursingHomes-191,Shadescrest Health Care Center,"331 25th Street, West",P.O. Box 1012,Jasper,AL,35501,Walker,N6405,01-5114,47-5401,Robert Mumpower,(205) 384-9086,Nursing Home,107,,,Skilled Nursing Facility,107,,0,,0,,0,,0,Corporation,Regular,
USA-AL-66-All-66-NursingHomes-192,Shelby Ridge Nursing Home,"881 3rd Street, NE",,Alabaster,AL,35007,Shelby,N5903,01-5411,47-5804,Jeanine Shaw,(205) 620-8500,Nursing Home,131,,,Skilled Nursing Facility,131,,0,,0,,0,,0,Corporation,Regular,
USA-AL-66-All-66-NursingHomes-193,Signature Healthcare of Whitesburg Gardens,105 Teakwood Drive,,Huntsville,AL,35801,Madison,N4502,01-5116,47-5756,Anita Chandler,(256) 881-5000,Nursing Home,159,,,Skilled Nursing Facility,159,,0,,0,,0,,0,Limited Liability Company,Regular,
USA-AL-66-All-66-NursingHomes-194,South Hampton Nursing & Rehabilitation Center,213 Wilson Mann Road,,Owens Cross Roads,AL,35763,Madison,N4511,01-5448,47-58120S,Michelle Watson,(256) 725-3400,Nursing Home,81,,,Skilled Nursing Facility,81,,0,,0,,0,,0,Limited Liability Company,Regular,
USA-AL-66-All-66-NursingHomes-195,South Haven Health and Rehabilitation Center,1300 East South Boulevard,,Montgomery,AL,36116,Montgomery,N5105,01-5043,47-5043,Larry Huffman,(334) 288-0122,Nursing Home,102,,,Skilled Nursing Facility,102,,0,,0,,0,,0,Limited Liability Company,Regular,
USA-AL-66-All-66-NursingHomes-196,"South Haven Health and Rehabilitation, LLC",3141 Old Columbiana Road,,Birmingham,AL,35226,Jefferson,N3729,01-5321,47-5321,James K. Holmes,(205) 822-1580,Nursing Home,101,,,Skilled Nursing Facility,101,,0,,0,,0,,0,Limited Liability Company,Regular,
USA-AL-66-All-66-NursingHomes-197,"South Health and Rehabilitation, LLC",1220 South Seventeenth Street,,Birmingham,AL,35205,Jefferson,N3726,01-5097,47-5758,Sam Cook,(205) 933-2180,Nursing Home,83,,,Skilled Nursing Facility,83,,0,,0,,0,,0,Limited Liability Company,Regular,
USA-AL-66-All-66-NursingHomes-198,Southern Springs Healthcare Facility,745 Southern Springs Road,,Union Springs,AL,36089,Bullock,N0602,01-5171,47-5345,Kristy L. Tanner,(334) 738-5590,Nursing Home,123,,,Skilled Nursing Facility,123,,0,,0,,0,,0,Corporation,Regular,
USA-AL-66-All-66-NursingHomes-199,Southland Nursing Home,500 Shivers Terrace,,Marion,AL,36756,Perry,N5302,01-5104,47-5104,Cathy Swanson,(334) 683-6141,Nursing Home,91,,,Skilled Nursing Facility,91,,0,,0,,0,,0,Limited Liability Company,Regular,
USA-AL-66-All-66-NursingHomes-200,Spring Hill Manor Nursing Home,3900 Old Shell Road,P.O. Box 8395,Mobile,AL,36608,Mobile,N4911,01-5415,47-5232,Angela Hart,(251) 342-5623,Nursing Home,34,,,Skilled Nursing Facility,34,,0,,0,,0,,0,Corporation,Regular,
USA-AL-66-All-66-NursingHomes-201,Springhill Senior Residence,3717 Dauphin Street,,Mobile,AL,36608,Mobile,N4913,01-5435,47-5773,Lana Davis,(251) 343-0909,Nursing Home,151,,,Skilled Nursing Facility,151,,0,,0,,0,,0,Corporation,Regular,
USA-AL-66-All-66-NursingHomes-202,St. Martins in the Pines,4941 Montevallo Road,,Birmingham,AL,35210,Jefferson,N3727,01-5433,47-5800,Joseph Dunavant,(205) 956-1831,Nursing Home,128,,,Skilled Nursing Facility,128,,0,,0,,0,,0,Non-Profit Corporation,Regular,
USA-AL-66-All-66-NursingHomes-203,Strickland/Stringfellow ICF/IID,101 Horizon Drive,P O Box 740 (Mailing Address),Eastaboga,AL,36260-0740,Talladega,N6104,01-G012,,Stentson Carpenter,(256) 831-0919,Nursing Home,0,,,Intermediate Care Facility/Individuals with Intellectual Disabilities,0,,0,,0,,0,,0,Corporation,Not subject to licensure,
USA-AL-66-All-66-NursingHomes-204,"Summerford Nursing Home, Inc.",4087 Highway 31 Southwest,,Falkville,AL,35622,Morgan,N5206,01-5075,47-5075,Ryan Anthony Summerford,(256) 784-5275,Nursing Home,216,,,Skilled Nursing Facility,216,,0,,0,,0,,0,Corporation,Regular,
USA-AL-66-All-66-NursingHomes-205,"Sumter Health and Rehabilitation, LLC",1505 East 4th Avenue,,York,AL,36925,Sumter,N6001,01-5042,47-5042,Kay Harrell,(205) 392-5281,Nursing Home,125,,,Skilled Nursing Facility,125,,0,,0,,0,,0,Limited Liability Company,Regular,
USA-AL-66-All-66-NursingHomes-206,Sunset Manor,251 Sunset Place,,Guin,AL,35563,Marion,N4702,01-5149,47-5319,Lance H. Junkin,(205) 412-4429,Nursing Home,71,,,Skilled Nursing Facility,71,,0,,0,,0,,0,Limited Liability Company,Regular,
USA-AL-66-All-66-NursingHomes-207,Sylacauga Health and Rehab Services,1007 West Fort Williams Street,,Sylacauga,AL,35150,Talladega,N6101,01-5160,47-5317,Valerie Scoggins,(256) 245-7402,Nursing Home,149,,,Skilled Nursing Facility,149,,0,,0,,0,,0,Limited Liability Company,Regular,
USA-AL-66-All-66-NursingHomes-208,"Talladega Healthcare Center, Inc.",616 Chaffee Street,,Talladega,AL,35160,Talladega,N6103,01-5162,47-5021,Mary Tuberville,(256) 362-4197,Nursing Home,234,,,Skilled Nursing Facility,234,,0,,0,,0,,0,Corporation,Regular,
USA-AL-66-All-66-NursingHomes-209,"Tallassee Health and Rehabilitation, LLC",2639 Gilmer Avenue,P.O. Box 780277,Tallassee,AL,36078,Elmore,N2601,01-5139,47-5362,Tammy R. McGee,(334) 283-3975,Nursing Home,111,,,Skilled Nursing Facility,111,,0,,0,,0,,0,Limited Liability Company,Regular,
USA-AL-66-All-66-NursingHomes-210,Terrace Manor Nursing & Rehabilitation Center,390 Underwood Road,,Russellville,AL,35653,Franklin,N3004,01-5066,47-5760,Michael Brian Wade,(256) 332-3826,Nursing Home,63,,,Skilled Nursing Facility,63,,0,,0,,0,,0,Limited Liability Company,Regular,
USA-AL-66-All-66-NursingHomes-211,Terrace Oaks Care & Rehabilitation Center,4201 Bessemer Super Highway,,Bessemer,AL,35020,Jefferson,N3717,01-5060,47-5060,Kelly Pendleton,(205) 428-3249,Nursing Home,69,,,Skilled Nursing Facility,69,,0,,0,,0,,0,Corporation,Regular,
USA-AL-66-All-66-NursingHomes-212,Thomasville Health Care and Rehabilitation Center,1425 Mosley Drive,,Thomasville,AL,36784,Clarke,N1302,01-5220,47-5439,Diane O. Gatlin,(334) 636-5614,Nursing Home,80,,,Skilled Nursing Facility,80,,0,,0,,0,,0,Non-Profit Corporation,Regular,
USA-AL-66-All-66-NursingHomes-213,TLC Nursing Center,212 Ellen Street,P. O. Box 698,Oneonta,AL,35121,Blount,N0503,01-5422,47-5794,Glen Cummings,(205) 625-3520,Nursing Home,103,,,Skilled Nursing Facility,103,,0,,0,,0,,0,Limited Liability Company,Regular,
USA-AL-66-All-66-NursingHomes-214,Traylor Retirement Community,1235 Yancey Street,P.O. Box 467,Roanoke,AL,36274,Randolph,N5603,01-5126,47-5224,Ronald L. Traylor,(334) 863-3500,Nursing Home,123,,,Skilled Nursing Facility,123,,0,,0,,0,,0,Corporation,Regular,
USA-AL-66-All-66-NursingHomes-215,Troy Health & Rehabilitation Center,515 Elba Highway,P.O. Drawer 787,Troy,AL,36079,Pike,N5501,01-5213,47-5426,Warren Kelly,(334) 566-0880,Nursing Home,234,,,Skilled Nursing Facility,234,,0,,0,,0,,0,Corporation,Regular,
USA-AL-66-All-66-NursingHomes-216,Trussville Health & Rehabilitation Center,119 Watterson Parkway,,Trussville,AL,35173,Jefferson,N3755,01-5467,,Susan Potts,(205) 655-3226,Nursing Home,125,,,Nursing Facility,125,,0,,0,,0,,0,Limited Liability Company,Regular,
USA-AL-66-All-66-NursingHomes-217,Twin Oaks Rehabilitation & HealthCare Center,857 Crawford Lane,,Mobile,AL,36617-3877,Mobile,N4910,01-5211,47-5080,George Mixon,(251) 476-3420,Nursing Home,131,,,Skilled Nursing Facility,131,,0,,0,,0,,0,Limited Liability Company,Regular,
USA-AL-66-All-66-NursingHomes-218,"Valley View Health and Rehabilitation, LLC",5968 Wall Triana Highway,,Madison,AL,35757,Madison,N4509,01-5431,47-5798,Thomas Hughes,(256) 830-2316,Nursing Home,155,,,Skilled Nursing Facility,155,,0,,0,,0,,0,Limited Liability Company,Regular,
USA-AL-66-All-66-NursingHomes-219,Village at Cook Springs Skilled Nursing Facility,415 Cook Springs Road,,Pell City,AL,35125,St. Clair,N5802,01-5195,47-5305,Trent Jackson,(205) 814-3250,Nursing Home,168,,,Skilled Nursing Facility,168,,0,,0,,0,,0,Limited Liability Company,Regular,
USA-AL-66-All-66-NursingHomes-220,"Walker Rehabilitation Center, Inc.",350 Northeast 4th Street,PO Box 30,Carbon Hill,AL,35549,Walker,N6403,01-5408,47-5650,Carol C. Holt,(205) 924-4404,Nursing Home,59,,,Skilled Nursing Facility,59,,0,,0,,0,,0,Corporation,Regular,
USA-AL-66-All-66-NursingHomes-221,Warren Manor Health and Rehabilitation Center,11 Bell Road,,Selma,AL,36701,Dallas,N2404,01-5119,47-5428,Elmore Patterson,(334) 874-7425,Nursing Home,172,,,Skilled Nursing Facility,172,,0,,0,,0,,0,Limited Liability Company,Regular,
USA-AL-66-All-66-NursingHomes-222,Washington County Nursing Home,14600 St. Stephens Avenue,P.O. Box 1299,Chatom,AL,36518,Washington,N6501,01-5123,47-5442,Teresa Grimes,(251) 847-2223,Nursing Home,88,,,Skilled Nursing Facility,88,,0,,0,,0,,0,County,Regular,
USA-AL-66-All-66-NursingHomes-223,Wesley Place on Honeysuckle,718 Honeysuckle Road,,Dothan,AL,36305,Houston,N3502,01-5175,47-5367,Patrick Davies,(334) 792-0921,Nursing Home,166,,,Skilled Nursing Facility,166,,0,,0,,0,,0,Non-Profit Corporation,Regular,
USA-AL-66-All-66-NursingHomes-224,West Gate Village,100 Pineview Street & Third Avenue,P.O. Box 49,Brewton,AL,36426,Escambia,N2701,01-5035,47-5035,James McInnish,(251) 867-6077,Nursing Home,129,,,Skilled Nursing Facility,129,,0,,0,,0,,0,Limited Liability Company,Regular,
USA-AL-66-All-66-NursingHomes-225,Westminster Village,500 Spanish Fort Boulevard,,Spanish Fort,AL,36527,Baldwin,N0205,01-5381,,Stephen Davis,(251) 626-7007,Nursing Home,60,,,Skilled Nursing Facility,60,,0,,0,,0,,0,Non-Profit Corporation,Regular,
USA-AL-66-All-66-NursingHomes-226,Westside Terrace Health and Rehabilitation Center,501 North Woodburn Drive,,Dothan,AL,36303,Houston,N3503,01-5425,47-5796,Kristie Hughes,(334) 794-1000,Nursing Home,165,,,Skilled Nursing Facility,165,,0,,0,,0,,0,Limited Liability Company,Regular,
USA-AL-66-All-66-NursingHomes-227,"Wetumpka Health and Rehabilitation, LLC",1825 Holtville Road,,Wetumpka,AL,36092,Elmore,N2603,01-5027,47-5027,Sandra M. Cousins,(334) 567-5131,Nursing Home,121,,,Skilled Nursing Facility,121,,0,,0,,0,,0,Limited Liability Company,Regular,
USA-AL-66-All-66-NursingHomes-228,William F. Green State Veterans Home,300 Faulkner Drive,,Bay Minette,AL,36507,Baldwin,N0207,,,Brian L. McFeely,(251) 937-9881,Nursing Home,150,,,Skilled Nursing Facility,150,,0,,0,,0,,0,Corporation,Regular,
USA-AL-66-All-66-NursingHomes-229,Willow Trace Health and Rehabilitation Center,1406 East Pushmataha Street,,Butler,AL,36904-0729,Choctaw,N1201,01-5164,47-5106,Kenyetta Pearson,(205) 459-5506,Nursing Home,120,,,Skilled Nursing Facility,120,,0,,0,,0,,0,Limited Liability Company,Regular,
USA-AL-66-All-66-NursingHomes-230,WillowBrooke Court at Magnolia Trace,One Crown Circle,,Huntsville,AL,35802,Madison,N4512,01-5450,,Katherine Spegal,(256) 261-1602,Nursing Home,59,,,Skilled Nursing Facility,59,,0,,0,,0,,0,Non-Profit Corporation,Regular,
USA-AL-66-All-66-NursingHomes-231,Windsor House,4411 McAllister Drive,,Huntsville,AL,35805,Madison,N4507,01-5397,47-5787,Beverly T. Cox,(256) 837-8585,Nursing Home,117,,,Skilled Nursing Facility,117,,0,,0,,0,,0,Limited Liability Company,Regular,
USA-AL-66-All-66-NursingHomes-232,Wiregrass Rehabilitation Center & Nursing Home,1200 West Maple Avenue,,Geneva,AL,36340,Geneva,N3101,01-5150,47-5339,Blake Jackson,(334) 684-3655,Nursing Home,96,,,Skilled Nursing Facility,96,,0,,0,,0,,0,Healthcare Authority,Regular,
USA-AL-66-All-66-NursingHomes-233,Woodhaven Manor Nursing Home,105 West Windsor Street,,Demopolis,AL,36732,Marengo,N4602,01-5177,47-5432,Brandon Taylor,(334) 289-2741,Nursing Home,75,,,Skilled Nursing Facility,75,,0,,0,,0,,0,Limited Liability Company,Regular,
USA-AL-66-All-66-NursingHomes-234,Woodland Village Rehabilitation and Healthcare Center,1900 Olive Street,P.O. Box 190,Cullman,AL,35056,Cullman,N2204,01-5383,47-5775,Emily Holcomb,(256) 739-1430,Nursing Home,149,,,Skilled Nursing Facility,149,,0,,0,,0,,0,Limited Liability Company,Regular,
USA-AL-66-All-66-NursingHomes-235,"Woodley Manor Health and Rehabilitation ""Special Focus Facility""",3312 Woodley Road,,Montgomery,AL,36116,Montgomery,N5107,01-5037,47-5037,Mary Alice Stevenson,(334) 288-2780,Nursing Home,105,,,Skilled Nursing Facility,105,,0,,0,,0,,0,Limited Liability Company,Regular,
