row_id,Facility Name,Address1,Address2,City,Zip,State,Country,Contact Phone,Website,Link to details,facility_type
USA-NY-47-NY-HealthProfiles-output-1,A Holly Patterson Extended Care Facility,875 Jerusalem Avenue,,Uniondale,11553,NY,US,(516) 572-1400,http://www.nuhealth.net/about/centers-of-care/a_holly_patterson.asp,https://profiles.health.ny.gov/nursing_home/view/150456,Residential Health Care; AIDS; Ventilator Dependent
USA-NY-47-NY-HealthProfiles-output-2,Aaron Manor Rehabilitation and Nursing Center,100 St. Camillus Way,,Fairport,14450,NY,US,(585) 377-4000,http://www.aaronmanor.com/,https://profiles.health.ny.gov/nursing_home/view/150409,Residential Health Care
USA-NY-47-NY-HealthProfiles-output-3,"Absolut Center for Nursing and Rehabilitation at Allegany, LLC",2178 North Fifth Street,,Allegany,14706,NY,US,(716) 373-2238,http://www.absolutcare.com/locations/?id=54,https://profiles.health.ny.gov/nursing_home/view/150318,Residential Health Care
USA-NY-47-NY-HealthProfiles-output-4,"Absolut Center for Nursing and Rehabilitation at Aurora Park, LLC",292 Main Street,,East Aurora,14052,NY,US,(716) 652-1560,http://www.absolutcare.com/locations/?id=55,https://profiles.health.ny.gov/nursing_home/view/150371,Residential Health Care
USA-NY-47-NY-HealthProfiles-output-5,"Absolut Center for Nursing and Rehabilitation at Dunkirk, LLC",447-449 Lake Shore Drive West,,Dunkirk,14048,NY,US,(716) 366-6710,http://www.absolutcare.com/locations/?id=56,https://profiles.health.ny.gov/nursing_home/view/150828,Residential Health Care
USA-NY-47-NY-HealthProfiles-output-6,"Absolut Center for Nursing and Rehabilitation at Eden, LLC",2806 George Street,,Eden,14057,NY,US,(716) 992-3987,http://www.absolutcare.com/locations/?id=57,https://profiles.health.ny.gov/nursing_home/view/150829,Residential Health Care
USA-NY-47-NY-HealthProfiles-output-7,"Absolut Center for Nursing and Rehabilitation at Endicott, LLC",301 Nantucket Drive,,Endicott,13760,NY,US,(607) 754-2705,http://www.absolutcare.com/locations/?id=60,https://profiles.health.ny.gov/nursing_home/view/150312,Residential Health Care
USA-NY-47-NY-HealthProfiles-output-8,"Absolut Center for Nursing and Rehabilitation at Gasport, LLC",4540 Lincoln Drive,,Gasport,14067,NY,US,(716) 772-2631,http://www.absolutcare.com/locations/?id=65,https://profiles.health.ny.gov/nursing_home/view/150475,Residential Health Care
USA-NY-47-NY-HealthProfiles-output-9,"Absolut Center for Nursing and Rehabilitation at Houghton, LLC",9876 Luckey Dr,,Houghton,14744,NY,US,(585) 567-2207,http://www.absolutcare.com/locations/?id=58,https://profiles.health.ny.gov/nursing_home/view/150496,Residential Health Care
USA-NY-47-NY-HealthProfiles-output-10,"Absolut Center for Nursing and Rehabilitation at Orchard Park, LLC",6060 Armor Road,,Orchard Park,14127,NY,US,(716) 662-4433,http://www.absolutcare.com/locations/?id=61,https://profiles.health.ny.gov/nursing_home/view/150374,Residential Health Care
USA-NY-47-NY-HealthProfiles-output-11,"Absolut Center for Nursing and Rehabilitation at Salamanca, LLC",451 Broad Street,,Salamanca,14779,NY,US,(716) 945-1800,http://www.absolutcare.com/locations/?id=62,https://profiles.health.ny.gov/nursing_home/view/150319,Residential Health Care
USA-NY-47-NY-HealthProfiles-output-12,"Absolut Center for Nursing and Rehabilitation at Three Rivers, LLC",101 Creekside Drive,,Painted Post,14870,NY,US,(607) 936-4108,http://www.absolutcare.com/locations/?id=59,https://profiles.health.ny.gov/nursing_home/view/150729,Residential Health Care
USA-NY-47-NY-HealthProfiles-output-13,"Absolut Center for Nursing and Rehabilitation at Westfield, LLC",26 Cass Street,,Westfield,14787,NY,US,(716) 326-4646,http://www.absolutcare.com/locations/?id=63,https://profiles.health.ny.gov/nursing_home/view/150813,Residential Health Care
USA-NY-47-NY-HealthProfiles-output-14,Acadia Center for Nursing and Rehabilitation,1146 Woodcrest Avenue,,Riverhead,11901,NY,US,(631) 727-7744,http://www.riverheadcarecenter.com/home.php,https://profiles.health.ny.gov/nursing_home/view/150577,Residential Health Care
USA-NY-47-NY-HealthProfiles-output-15,Achieve Rehab and Nursing Facility,170 Lake Street,,Liberty,12754,NY,US,(845) 292-4200,http://www.achieverehabny.com/,https://profiles.health.ny.gov/nursing_home/view/150582,Residential Health Care
USA-NY-47-NY-HealthProfiles-output-16,Adira at Riverside Rehabilitation and Nursing,120 Odell Ave,,Yonkers,10701,NY,US,(914) 964-3333,http://www.riversidehealth.org/Facilities/MalotzSkilledNursing.aspx,https://profiles.health.ny.gov/nursing_home/view/150902,Residential Health Care; Ventilator Dependent
USA-NY-47-NY-HealthProfiles-output-17,"Adirondack Tri-County Nursing and Rehabilitation Center, Inc",112 Ski Bowl Road,,North Creek,12853,NY,US,(518) 251-2447,http://www.adirondacknursing.com/,https://profiles.health.ny.gov/nursing_home/view/150596,Residential Health Care
USA-NY-47-NY-HealthProfiles-output-18,Affinity Skilled Living and Rehabilitation Center,305 Locust Avenue,,Oakdale,11769,NY,US,(631) 218-5900,http://affinityskilled.com/,https://profiles.health.ny.gov/nursing_home/view/150910,Residential Health Care; Ventilator Dependent
USA-NY-47-NY-HealthProfiles-output-19,Albany County Nursing Home,Albany-shaker Road,,Albany,12211,NY,US,(518) 869-2231,http://www.albanycounty.com/Government/Departments/NursingHomeResidentialHealthCareFacilities.aspx,https://profiles.health.ny.gov/nursing_home/view/150304,Residential Health Care
USA-NY-47-NY-HealthProfiles-output-20,Alice Hyde Medical Center,45 Sixth Street,,Malone,12953,NY,US,(518) 481-8000,http://alicehyde.com/Services/NursingHome.asp,https://profiles.health.ny.gov/nursing_home/view/150385,Residential Health Care
USA-NY-47-NY-HealthProfiles-output-21,Alpine Rehabilitation and Nursing Center,755 East Monroe Street,,Little Falls,13365,NY,US,(315) 823-1001,http://www.alpinerehab.net/,https://profiles.health.ny.gov/nursing_home/view/150396,Residential Health Care
USA-NY-47-NY-HealthProfiles-output-22,Amsterdam Nursing Home Corp (1992),1060 Amsterdam Avenue,,New York,10025,NY,US,(212) 678-2600,http://www.amsterdamcares.com/,https://profiles.health.ny.gov/nursing_home/view/150727,Residential Health Care
USA-NY-47-NY-HealthProfiles-output-23,Andrus On Hudson,185 Old Broadway,,Hastings-on-hudson,10706,NY,US,(914) 478-3700,http://www.andrusonhudson.org/,https://profiles.health.ny.gov/nursing_home/view/150631,Residential Health Care
USA-NY-47-NY-HealthProfiles-output-24,Apex Rehabilitation & Care Center,78 Birchwood Dr,,Huntington Station,11746,NY,US,(631) 423-3200,http://www.apexrehabcare.com/,https://profiles.health.ny.gov/nursing_home/view/150571,Residential Health Care
USA-NY-47-NY-HealthProfiles-output-25,Atrium Center for Rehabilitation and Nursing,630 E 104th Street,,Brooklyn,11236,NY,US,(718) 240-3100,,https://profiles.health.ny.gov/nursing_home/view/150714,Residential Health Care
USA-NY-47-NY-HealthProfiles-output-26,Auburn Rehabilitation & Nursing Center,85 Thornton Avenue,,Auburn,13021,NY,US,(315) 253-7351,http://www.auburnagt.com/,https://profiles.health.ny.gov/nursing_home/view/150321,Residential Health Care
USA-NY-47-NY-HealthProfiles-output-27,Aurelia Osborn Fox Memorial Hospital,One Norton Avenue,,Oneonta,13820,NY,US,(607) 431-5980,http://www.bassett.org/ao-fox-hospital/,https://profiles.health.ny.gov/nursing_home/view/150518,Residential Health Care
USA-NY-47-NY-HealthProfiles-output-28,"Autumn View Health Care Facility, LLC",S 4650 Southwestern Blvd,,Hamburg,14075,NY,US,(716) 648-2450,http://www.mcguiregroup.com/autumn%20view%20page.html,https://profiles.health.ny.gov/nursing_home/view/150792,Residential Health Care
USA-NY-47-NY-HealthProfiles-output-29,"Avon Nursing Home, LLC",215 Clinton Street,,Avon,14414,NY,US,(585) 226-2225,http://www.hurlbutcare.com/our-communities/avon-nursing-facility,https://profiles.health.ny.gov/nursing_home/view/150403,Residential Health Care
USA-NY-47-NY-HealthProfiles-output-30,Bainbridge Nursing & Rehabilitation Center,3518 Bainbridge Avenue,,Bronx,10467,NY,US,(718) 655-1991,,https://profiles.health.ny.gov/nursing_home/view/150654,Residential Health Care
USA-NY-47-NY-HealthProfiles-output-31,Baird Nursing Home LLC,2150 St Paul Street,,Rochester,14621,NY,US,(585) 342-5540,http://www.bairdnursinghome.com/,https://profiles.health.ny.gov/nursing_home/view/150410,Residential Health Care
USA-NY-47-NY-HealthProfiles-output-32,"Baptist Health Nursing and Rehabilitation Center, Inc",297 N Ballston Ave,,Scotia,12302,NY,US,(518) 370-4700,http://www.bapthealth.com/nursing_rehab_center.htm,https://profiles.health.ny.gov/nursing_home/view/150549,Residential Health Care
USA-NY-47-NY-HealthProfiles-output-33,Barnwell Nursing & Rehabilitation Center,3230 Church Street,,Valatie,12184,NY,US,(518) 758-6222,http://www.barnwellnrc.com/,https://profiles.health.ny.gov/nursing_home/view/150343,Residential Health Care
USA-NY-47-NY-HealthProfiles-output-34,"Batavia Health Care Center, LLC",257 State St,,Batavia,14020,NY,US,(585) 343-1300,http://batavianursinghome.com/,https://profiles.health.ny.gov/nursing_home/view/150390,Residential Health Care
USA-NY-47-NY-HealthProfiles-output-35,"Bay Park Center for Nursing and Rehabilitation, LLC",801 Co-op City Blvd,,Bronx,10475,NY,US,(718) 239-6500,,https://profiles.health.ny.gov/nursing_home/view/150679,Residential Health Care
USA-NY-47-NY-HealthProfiles-output-36,Bayberry Nursing Home,40 Keogh Lane,,New Rochelle,10805,NY,US,(914) 636-3947,http://www.bayberrycarecenter.com/,https://profiles.health.ny.gov/nursing_home/view/150613,Residential Health Care
USA-NY-47-NY-HealthProfiles-output-37,Beach Gardens Rehab and Nursing Center,17-11 Brookhaven Avenue,,Far Rockaway,11691,NY,US,(718) 869-8000,http://www.ehs.org/Bishop-Charles-Waldo-MacLean-Episcopal-Nursing-H.aspx,https://profiles.health.ny.gov/nursing_home/view/150816,Residential Health Care
USA-NY-47-NY-HealthProfiles-output-38,Beach Terrace Care Center,640 West Broadway,,Long Beach,11561,NY,US,(516) 431-4400,http://www.beach-terrace.com/,https://profiles.health.ny.gov/nursing_home/view/150444,Residential Health Care
USA-NY-47-NY-HealthProfiles-output-39,Beacon Rehabilitation and Nursing Center,140 Beach 113th Street,,Rockaway Park,11694,NY,US,(718) 945-6350,,https://profiles.health.ny.gov/nursing_home/view/150772,Residential Health Care
USA-NY-47-NY-HealthProfiles-output-40,Bedford Center for Nursing and Rehabilitation,40 Heyward Street,,Brooklyn,11249,NY,US,(718) 858-6200,http://www.bedfordcenterrehab.com/,https://profiles.health.ny.gov/nursing_home/view/150713,Residential Health Care
USA-NY-47-NY-HealthProfiles-output-41,Beechtree Center for Rehabilitation and Nursing,318 South Albany Street,,Ithaca,14850,NY,US,(607) 273-4166,http://www.beechtreecarecenter.org/,https://profiles.health.ny.gov/nursing_home/view/150588,Residential Health Care
USA-NY-47-NY-HealthProfiles-output-42,Beechwood Homes,2235 Millersport Highway,,Getzville,14068,NY,US,(716) 688-8822,http://www.beechwoodcare.org/,https://profiles.health.ny.gov/nursing_home/view/150375,Residential Health Care
USA-NY-47-NY-HealthProfiles-output-43,Belair Care Center Inc,2478 Jerusalem Ave,,No Bellmore,11710,NY,US,(516) 826-1160,http://www.belaircarecenter.com/,https://profiles.health.ny.gov/nursing_home/view/150455,Residential Health Care
USA-NY-47-NY-HealthProfiles-output-44,Bellhaven Center for Rehabilitation and Nursing Care,110 Beaver Dam Road,,Brookhaven,11719,NY,US,(631) 286-8100,http://bellhavencenter.com/,https://profiles.health.ny.gov/nursing_home/view/150820,Residential Health Care
USA-NY-47-NY-HealthProfiles-output-45,Bensonhurst Center for Rehabilitation and Healthcare,1740 84th Street,,Brooklyn,11214,NY,US,(718) 232-6700,http://www.center84.com/,https://profiles.health.ny.gov/nursing_home/view/150710,Residential Health Care
USA-NY-47-NY-HealthProfiles-output-46,Berkshire Nursing & Rehabilitation Center,10 Berkshire Road,,W Babylon,11704,NY,US,(631) 587-0600,,https://profiles.health.ny.gov/nursing_home/view/150559,Residential Health Care
USA-NY-47-NY-HealthProfiles-output-47,Beth Abraham Center for Rehabilitation and Nursing,612 Allerton Avenue,,Bronx,10467,NY,US,(718) 881-3000,http://www.bethabrahamhealthservices.org/,https://profiles.health.ny.gov/nursing_home/view/150646,Residential Health Care
USA-NY-47-NY-HealthProfiles-output-48,Bethany Gardens Skilled Living Center,800 West Chestnut Street,,Rome,13440,NY,US,(315) 339-3210,http://www.bethanynursing.com/,https://profiles.health.ny.gov/nursing_home/view/150479,Residential Health Care
USA-NY-47-NY-HealthProfiles-output-49,Bethany Nursing Home & Health Related Facility Inc,3005 Watkins Road,,Horseheads,14845,NY,US,(607) 739-8711,http://www.bethany-village.org/,https://profiles.health.ny.gov/nursing_home/view/150676,Residential Health Care
USA-NY-47-NY-HealthProfiles-output-50,Bethel Nursing & Rehabilitation Center,67 Springvale Road,,Croton-on-hudson,10520,NY,US,(914) 739-6700,http://www.bethelwell.com/croton,https://profiles.health.ny.gov/nursing_home/view/150921,Residential Health Care
USA-NY-47-NY-HealthProfiles-output-51,Bethel Nursing Home Company Inc,17 Narragansett Avenue,,Ossining,10562,NY,US,(914) 941-7300,http://www.bethelwell.com/,https://profiles.health.ny.gov/nursing_home/view/150619,Residential Health Care
USA-NY-47-NY-HealthProfiles-output-52,Bethlehem Commons Care Center,125 Rockefeller Road,,Delmar,12054,NY,US,(518) 621-1200,http://www.goodsamvillage.org/,https://profiles.health.ny.gov/nursing_home/view/150302,Residential Health Care
USA-NY-47-NY-HealthProfiles-output-53,"Betsy Ross Rehabilitation Center, Inc",1 Elsie Street,,Rome,13440,NY,US,(315) 339-2220,,https://profiles.health.ny.gov/nursing_home/view/150480,Residential Health Care
USA-NY-47-NY-HealthProfiles-output-54,Bezalel Rehabilitation and Nursing Center,29-38 Far Rockaway Blvd,,Far Rockaway,11691,NY,US,(718) 471-2600,,https://profiles.health.ny.gov/nursing_home/view/150799,Residential Health Care
USA-NY-47-NY-HealthProfiles-output-55,Boro Park Center for Rehabilitation and Healthcare,4915 10th Ave,,Brooklyn,11219,NY,US,(718) 851-3700,http://boroparkcenter.net/,https://profiles.health.ny.gov/nursing_home/view/150707,Residential Health Care
USA-NY-47-NY-HealthProfiles-output-56,Briarcliff Manor Center for Rehabilitation and Nursing Care,620 Sleepy Hollow Road,,Briarcliff Manor,10510,NY,US,(914) 941-5100,,https://profiles.health.ny.gov/nursing_home/view/150632,Residential Health Care
USA-NY-47-NY-HealthProfiles-output-57,Bridge View Nursing Home,143-10 20th Ave,,Whitestone,11357,NY,US,(718) 961-1212,,https://profiles.health.ny.gov/nursing_home/view/150737,Residential Health Care
USA-NY-47-NY-HealthProfiles-output-58,"Bridgewater Center for Rehabilitation & Nursing, LLC",159-163 Front Street,,Binghamton,13905,NY,US,(607) 722-7225,http://www.bwrehab.com/,https://profiles.health.ny.gov/nursing_home/view/150311,Residential Health Care; Ventilator Dependent
USA-NY-47-NY-HealthProfiles-output-59,Brighton Manor,989 Blossom Road,,Rochester,14610,NY,US,(585) 482-3500,http://www.blossomhealthcare.com/,https://profiles.health.ny.gov/nursing_home/view/150415,Residential Health Care
USA-NY-47-NY-HealthProfiles-output-60,Briody Rehab & Residential Health Care Center,909 Lincoln Ave,,Lockport,14094,NY,US,(716) 434-6361,http://www.briody.org/,https://profiles.health.ny.gov/nursing_home/view/150468,Residential Health Care
USA-NY-47-NY-HealthProfiles-output-61,Broadlawn Manor Nursing & Rehab Center,399 County Line Rd,,Amityville,11701,NY,US,(631) 264-0222,http://www.broadlawn.org/,https://profiles.health.ny.gov/nursing_home/view/150561,Residential Health Care
USA-NY-47-NY-HealthProfiles-output-62,Bronx Center for Rehabilitation & Health Care,1010 Underhill Ave,,Bronx,10472,NY,US,(718) 863-6700,http://bronxcenter.net/,https://profiles.health.ny.gov/nursing_home/view/150672,Residential Health Care
USA-NY-47-NY-HealthProfiles-output-63,Bronx Gardens Rehabilitation and Nursing Center,2175 Quarry Rd,,Bronx,10457,NY,US,(718) 960-3910,http://stbarnabasnursinghome.org/,https://profiles.health.ny.gov/nursing_home/view/150873,Residential Health Care; AIDS; Ventilator Dependent
USA-NY-47-NY-HealthProfiles-output-64,Bronx Lebanon Special Care Center,1265 Fulton Avenue,,Bronx,10456,NY,US,(718) 579-7000,http://www.bronxcare.org/SpecialCareCenter.html,https://profiles.health.ny.gov/nursing_home/view/150855,Residential Health Care; AIDS
USA-NY-47-NY-HealthProfiles-output-65,Bronx Park Rehabilitation & Nursing Center,3845 Carpenter Ave,,Bronx,10467,NY,US,(718) 798-1100,http://www.bronxparkcenter.com/,https://profiles.health.ny.gov/nursing_home/view/150667,Residential Health Care
USA-NY-47-NY-HealthProfiles-output-66,"Brookhaven Health Care Facility, LLC",801 Gazzola Blvd,,Patchogue,11772,NY,US,(631) 447-8800,http://www.mcguiregroup.com/brookhaven%20page.html,https://profiles.health.ny.gov/nursing_home/view/150832,Residential Health Care
USA-NY-47-NY-HealthProfiles-output-67,Brookhaven Rehabilitation & Health Care Center LLC,250 Beach 17th Street,,Far Rockaway,11691,NY,US,(718) 471-7500,http://www.brookhavenrehab.com/,https://profiles.health.ny.gov/nursing_home/view/150759,Residential Health Care
USA-NY-47-NY-HealthProfiles-output-68,Brooklyn Center for Rehabilitation and Residential Health Care,1455 Coney Island Avenue,,Brooklyn,11230,NY,US,(718) 252-9800,http://brooklynrehab.net/,https://profiles.health.ny.gov/nursing_home/view/150702,Residential Health Care
USA-NY-47-NY-HealthProfiles-output-69,Brooklyn Gardens Nursing & Rehabilitation Center,835 Herkimer Street,,Brooklyn,11233,NY,US,(718) 221-2600,http://www.ehs.org/Bishop-Henry-B-Hucles-Episcopal-Nursing-Home.aspx,https://profiles.health.ny.gov/nursing_home/view/150919,Residential Health Care
USA-NY-47-NY-HealthProfiles-output-70,Brooklyn United Methodist Church Home,1485 Dumont Avenue,,Brooklyn,11208,NY,US,(718) 827-4500,http://www.bumch.org/,https://profiles.health.ny.gov/nursing_home/view/150686,Residential Health Care
USA-NY-47-NY-HealthProfiles-output-71,Brooklyn-Queens Nursing Home,2749 Linden Blvd,,Brooklyn,11208,NY,US,(718) 277-5100,,https://profiles.health.ny.gov/nursing_home/view/150370,Residential Health Care
USA-NY-47-NY-HealthProfiles-output-72,Brookside Multicare Nursing Center,7 Route 25a,,Smithtown,11787,NY,US,(631) 724-2200,http://www.brooksidenursing.org,https://profiles.health.ny.gov/nursing_home/view/150578,Residential Health Care; Pediatric Ventilator Dependent
USA-NY-47-NY-HealthProfiles-output-73,Brothers of Mercy Nursing & Rehabilitation Center,10570 Bergtold Road,,Clarence,14031,NY,US,(716) 759-6985,http://brothersofmercy.org/,https://profiles.health.ny.gov/nursing_home/view/150378,Residential Health Care
USA-NY-47-NY-HealthProfiles-output-74,Buena Vida Continuing Care & Rehab Center,48 Cedar Street,,Brooklyn,11221,NY,US,(718) 455-6200,http://buenavidacenter.org/,https://profiles.health.ny.gov/nursing_home/view/150901,Residential Health Care
USA-NY-47-NY-HealthProfiles-output-75,Buffalo Center for Rehabilitation and Nursing,1014 Delaware Ave,,Buffalo,14209,NY,US,(716) 883-6782,http://www.delnrc.com/,https://profiles.health.ny.gov/nursing_home/view/150794,Residential Health Care
USA-NY-47-NY-HealthProfiles-output-76,Bushwick Center for Rehabilitation and Health Care,50 Sheffield Avenue,,Brooklyn,11207,NY,US,(718) 345-2273,http://bushwickcenter.net/,https://profiles.health.ny.gov/nursing_home/view/150838,Residential Health Care
USA-NY-47-NY-HealthProfiles-output-77,Campbell Hall Rehabilitation Center Inc,23 Kiernan Rd,,Campbell Hall,10916,NY,US,(845) 294-8154,http://www.campbellhallrehab.com/,https://profiles.health.ny.gov/nursing_home/view/150785,Residential Health Care
USA-NY-47-NY-HealthProfiles-output-78,Canterbury Woods,725 Renaissance Drive,,Williamsville,14221,NY,US,(716) 929-5800,http://canterburywoods.org/,https://profiles.health.ny.gov/nursing_home/view/150932,Residential Health Care
USA-NY-47-NY-HealthProfiles-output-79,Capstone Center for Rehabilitation and Nursing,302 Swart Hill Road,,Amsterdam,12010,NY,US,(518) 842-6790,http://www.capstonecenterrehab.com/,https://profiles.health.ny.gov/nursing_home/view/150439,Residential Health Care
USA-NY-47-NY-HealthProfiles-output-80,Carillon Nursing and Rehabilitation Center,830 Park Avenue,,Huntington,11743,NY,US,(631) 271-5800,http://www.carillonnursing.com/,https://profiles.health.ny.gov/nursing_home/view/150572,Residential Health Care
USA-NY-47-NY-HealthProfiles-output-81,Carmel Richmond Healthcare and Rehabilitation Center,88 Old Town Road,,Staten Island,10304,NY,US,(718) 979-5000,http://www.archcare.org/carmel-richmond.html,https://profiles.health.ny.gov/nursing_home/view/150780,Residential Health Care
USA-NY-47-NY-HealthProfiles-output-82,Carthage Area Hospital,1001 West Street Road,,Carthage,13619,NY,US,(315) 493-1000,http://www.carthagehospital.com/,https://profiles.health.ny.gov/nursing_home/view/150400,Residential Health Care
USA-NY-47-NY-HealthProfiles-output-83,Casa Promesa,308 East 175 Street,,Bronx,10457,NY,US,(718) 960-7604,http://www.acacianetwork.org/long_term_care,https://profiles.health.ny.gov/nursing_home/view/150877,AIDS
USA-NY-47-NY-HealthProfiles-output-84,"Caton Park Rehabilitation and Nursing Center, LLC",1312 Caton Avenue,,Brooklyn,11226,NY,US,(718) 693-7000,,https://profiles.health.ny.gov/nursing_home/view/150696,Residential Health Care
USA-NY-47-NY-HealthProfiles-output-85,Catskill Regional Medical Center,68 Bushville Road,P.o. Box 515,Harris,12742,NY,US,(845) 794-3300,http://www.crmcny.org/,https://profiles.health.ny.gov/nursing_home/view/150547,Residential Health Care
USA-NY-47-NY-HealthProfiles-output-86,Cayuga Ridge Extened Care,1229 Trumansburg Road,,Ithaca,14850,NY,US,(607) 273-8072,http://www.cayugaridge.org/,https://profiles.health.ny.gov/nursing_home/view/150589,Residential Health Care
USA-NY-47-NY-HealthProfiles-output-87,Cedar Manor Nursing & Rehabilitation Center,Cedar Lane,P.o. Box 928,Ossining,10562,NY,US,(914) 762-1600,http://www.cedarmanornursing.com/home.php,https://profiles.health.ny.gov/nursing_home/view/150618,Residential Health Care
USA-NY-47-NY-HealthProfiles-output-88,Center for Nursing & Rehabilitation Inc,520 Prospect Place,,Brooklyn,11238,NY,US,(718) 636-1000,http://www.cnrny.org/,https://profiles.health.ny.gov/nursing_home/view/150712,Residential Health Care
USA-NY-47-NY-HealthProfiles-output-89,Central Island Healthcare,825 Old Country Rd,,Plainview,11803,NY,US,(516) 433-0600,http://www.centralislandhealthcare.com/,https://profiles.health.ny.gov/nursing_home/view/150466,Residential Health Care
USA-NY-47-NY-HealthProfiles-output-90,Central Park Rehabilitation and Nursing Center,116 East Castle Street,,Syracuse,13205,NY,US,(315) 475-1641,http://www.centralparkrehab.com/,https://profiles.health.ny.gov/nursing_home/view/150497,Residential Health Care
USA-NY-47-NY-HealthProfiles-output-91,Champlain Valley Physicians Hospital Medical Center SNF,75 Beekman Street,,Plattsburg,12901,NY,US,(518) 561-2000,http://www.cvph.org/services/skilled-nursing/,https://profiles.health.ny.gov/nursing_home/view/150337,Residential Health Care
USA-NY-47-NY-HealthProfiles-output-92,Chapin Home for the Aging,165-01 Chapin Parkway,,Jamaica,11432,NY,US,(718) 739-2523,http://www.chapinhome.org/,https://profiles.health.ny.gov/nursing_home/view/150769,Residential Health Care
USA-NY-47-NY-HealthProfiles-output-93,Charles T Sitrin Health Care Center Inc,2050 Tilden Avenue,,New Hartford,13413,NY,US,(315) 797-3114,http://www.sitrin.com/,https://profiles.health.ny.gov/nursing_home/view/150488,Residential Health Care
USA-NY-47-NY-HealthProfiles-output-94,Chasehealth Rehab and Residential Care,One Terrace Heights,P.o. Box 250,New Berlin,13411,NY,US,(607) 847-7000,,https://profiles.health.ny.gov/nursing_home/view/150333,Residential Health Care
USA-NY-47-NY-HealthProfiles-output-95,Chautauqua Nursing and Rehabilitation Center,10836 Temple Road,,Dunkirk,14048,NY,US,(716) 366-6400,http://www.co.chautauqua.ny.us/departments/CountyHome/,https://profiles.health.ny.gov/nursing_home/view/150324,Residential Health Care
USA-NY-47-NY-HealthProfiles-output-96,Chemung County Health Center-Nursing Facility,103 Washington Street,,Elmira,14901,NY,US,(607) 737-2001,http://www.chemungcounty.com/index.asp?pageId=530,https://profiles.health.ny.gov/nursing_home/view/150331,Residential Health Care
USA-NY-47-NY-HealthProfiles-output-97,Chenango Memorial Hospital Inc SNF,179 North Broad Street,,Norwich,13815,NY,US,(607) 337-4111,http://www.uhs.net/?id=188&sid=1,https://profiles.health.ny.gov/nursing_home/view/150334,Residential Health Care
USA-NY-47-NY-HealthProfiles-output-98,Chestnut Park Rehabilitation and Nursing Center,330 Chestnut Street,,Oneonta,13820,NY,US,(607) 432-8501,http://chestnutparkrehab.com/,https://profiles.health.ny.gov/nursing_home/view/150519,Residential Health Care
USA-NY-47-NY-HealthProfiles-output-99,Church Home of the Protestant Episcopal Church,505 Mt Hope Avenue,,Rochester,14620,NY,US,(585) 546-8400,http://episcopalseniorlife.org/church_home.asp,https://profiles.health.ny.gov/nursing_home/view/150414,Residential Health Care
USA-NY-47-NY-HealthProfiles-output-100,Cliffside Rehabilitation & Residential Health Care Center,119-19 Graham Court,,Flushing,11354,NY,US,(718) 886-0700,http://www.cliffsiderehab.com/,https://profiles.health.ny.gov/nursing_home/view/150739,Residential Health Care; Ventilator Dependent
USA-NY-47-NY-HealthProfiles-output-101,Clifton Springs Hospital and Clinic Extended Care,2 Coulter Road,,Clifton Springs,14432,NY,US,(315) 462-9561,http://www.cliftonspringshospital.org/,https://profiles.health.ny.gov/nursing_home/view/150502,Residential Health Care; Ventilator Dependent
USA-NY-47-NY-HealthProfiles-output-102,Clinton County Nursing Home,16 Flynn Avenue,,Plattsburgh,12901,NY,US,(518) 563-0950,http://www.clintoncountygov.com/Departments/NursingHome/NursingHomeHomePage.html,https://profiles.health.ny.gov/nursing_home/view/150340,Residential Health Care
USA-NY-47-NY-HealthProfiles-output-103,"Clove Lakes Health Care and Rehabilitation Center, Inc",25 Fanning Street,,Staten Island,10314,NY,US,(718) 289-7900,http://www.clovelakes.com/,https://profiles.health.ny.gov/nursing_home/view/150775,Residential Health Care
USA-NY-47-NY-HealthProfiles-output-104,"Cobble Hill Health Center, Inc",380 Henry Street,,Brooklyn,11201,NY,US,(718) 855-6789,http://www.cobblehill.org/,https://profiles.health.ny.gov/nursing_home/view/150697,Residential Health Care
USA-NY-47-NY-HealthProfiles-output-105,Cold Spring Hills Center for Nursing and Rehabilitation,378 Syosset-woodbury Road,,Woodbury,11797,NY,US,(516) 921-3900,http://www.coldspringhills.net/,https://profiles.health.ny.gov/nursing_home/view/150464,Residential Health Care; Ventilator Dependent
USA-NY-47-NY-HealthProfiles-output-106,Coler Rehabilitation and Nursing Care Center,900 Main Street,,Roosevelt Island,10044,NY,US,(212) 848-6300,http://www.nyc.gov/html/hhc/coler-goldwater/home.html,https://profiles.health.ny.gov/nursing_home/view/150292,Residential Health Care; Pediatric
USA-NY-47-NY-HealthProfiles-output-107,Colonial Park Rehabilitation and Nursing Center,950 Floyd Avenue,,Rome,13440,NY,US,(315) 336-5400,http://www.colonialparkrehab.com/,https://profiles.health.ny.gov/nursing_home/view/150477,Residential Health Care
USA-NY-47-NY-HealthProfiles-output-108,Comprehensive Rehabilitation and Nursing Center at Williamsville,147 Reist Street,,Williamsville,14221,NY,US,(716) 633-5400,http://www.chsbuffalo.org/Facilities/NursingHomes/StFrancis,https://profiles.health.ny.gov/nursing_home/view/150369,Residential Health Care
USA-NY-47-NY-HealthProfiles-output-109,Concord Nursing Home Inc,300 Madison Street,,Brooklyn,11216,NY,US,(718) 636-7500,http://www.concordcares.org/482209.ihtml,https://profiles.health.ny.gov/nursing_home/view/150708,Residential Health Care; Ventilator Dependent
USA-NY-47-NY-HealthProfiles-output-110,"Concourse Rehabilitation and Nursing Center, Inc",1072 Grand Concourse,,Bronx,10456,NY,US,(718) 681-4000,http://concourserehab.com/,https://profiles.health.ny.gov/nursing_home/view/150674,Residential Health Care; Ventilator Dependent
USA-NY-47-NY-HealthProfiles-output-111,Conesus Lake Nursing Home,6131 Big Tree Road,Box F,Livonia,14487,NY,US,(585) 346-3001,http://www.hurlbutcare.com/our-communities/conesus-lake-nursing-facility,https://profiles.health.ny.gov/nursing_home/view/150405,Residential Health Care
USA-NY-47-NY-HealthProfiles-output-112,Corning Center for Rehabilitation and Healthcare,205 East First Street,,Corning,14830,NY,US,(607) 654-2400,http://corningcenter.net/,https://profiles.health.ny.gov/nursing_home/view/150556,Residential Health Care
USA-NY-47-NY-HealthProfiles-output-113,Cortland Park Rehabilitation and Nursing Center,193 Clinton Avenue,,Cortland,13045,NY,US,(607) 756-9921,http://www.cortlandparkrehab.com/,https://profiles.health.ny.gov/nursing_home/view/150345,Residential Health Care
USA-NY-47-NY-HealthProfiles-output-114,Cortland Regional Nursing and Rehabilitation Center,134 Homer Avenue,,Cortland,13045,NY,US,(607) 756-3909,http://www.cortlandregional.org/medical-services/nursing-rehabilitation-center,https://profiles.health.ny.gov/nursing_home/view/150866,Residential Health Care
USA-NY-47-NY-HealthProfiles-output-115,Cortlandt Healthcare,110 Oregon Road,,Peekskill,10566,NY,US,(914) 739-9150,http://www.cortlandthealthcare.com/,https://profiles.health.ny.gov/nursing_home/view/150605,Residential Health Care
USA-NY-47-NY-HealthProfiles-output-116,Creekview Nursing and Rehab Center,525 Beahan Road,,Rochester,14624,NY,US,(585) 247-7880,http://www.westgatenursing.com/,https://profiles.health.ny.gov/nursing_home/view/150427,Residential Health Care
USA-NY-47-NY-HealthProfiles-output-117,Crest Manor Living and Rehabilitation Center,6745 Pittsford-palmyra Road,,Fairport,14450,NY,US,(585) 223-3633,http://www.crestmanorliving.com/,https://profiles.health.ny.gov/nursing_home/view/150436,Residential Health Care
USA-NY-47-NY-HealthProfiles-output-118,Crouse Community Center Inc,101 South Street,,Morrisville,13408,NY,US,(315) 684-9595,http://www.crousecommunity.com/,https://profiles.health.ny.gov/nursing_home/view/150854,Residential Health Care
USA-NY-47-NY-HealthProfiles-output-119,Crown Heights Center for Nursing and Rehabilitation,810-20 St Marks Avenue,,Brooklyn,11213,NY,US,(718) 467-7300,http://www.mgnh.com/,https://profiles.health.ny.gov/nursing_home/view/150711,Residential Health Care
USA-NY-47-NY-HealthProfiles-output-120,Crown Park Rehabilitation and Nursing Center,28 Kellogg Road,,Cortland,13045,NY,US,(607) 753-9631,http://crowncenterrehab.com/,https://profiles.health.ny.gov/nursing_home/view/150346,Residential Health Care
USA-NY-47-NY-HealthProfiles-output-121,Cuba Memorial Hospital Inc SNF,140 West Main Street,,Cuba,14727,NY,US,(585) 968-2000,http://www.cubamemorialhospital.com/longtermcare/,https://profiles.health.ny.gov/nursing_home/view/150307,Residential Health Care
USA-NY-47-NY-HealthProfiles-output-122,Cypress Garden Center for Nursing and Rehabilitation,139-62 35th Avenue,,Flushing,11354,NY,US,(718) 961-5300,http://www.flushingmanors.com/index.asp?pg=3,https://profiles.health.ny.gov/nursing_home/view/150764,Residential Health Care
USA-NY-47-NY-HealthProfiles-output-123,Daleview Care Center,574 Fulton Street,,Farmingdale,11735,NY,US,(516) 694-9800,http://www.daleviewcarecenter.com/home.php,https://profiles.health.ny.gov/nursing_home/view/150454,Residential Health Care
USA-NY-47-NY-HealthProfiles-output-124,Daughters of Sarah Nursing Center,180 Washington Ave Ext,,Albany,12203,NY,US,(518) 456-7831,http://www.daughtersofsarah.org/nursingcenter/overview.html,https://profiles.health.ny.gov/nursing_home/view/150300,Residential Health Care
USA-NY-47-NY-HealthProfiles-output-125,Degraff Memorial Hospital-Skilled Nursing Facility,445 Tremont Street,,North Tonawanda,14120,NY,US,(716) 694-4500,http://www.kaleidahealth.org/DeGraff/services/display.asp?s=651,https://profiles.health.ny.gov/nursing_home/view/150472,Residential Health Care
USA-NY-47-NY-HealthProfiles-output-126,Diamond Hill Nursing and Rehabilitation Center,100 New Turnpike Road,,Troy,12182,NY,US,(518) 235-1410,,https://profiles.health.ny.gov/nursing_home/view/150526,Residential Health Care
USA-NY-47-NY-HealthProfiles-output-127,Ditmas Park Care Center,2107 Ditmas Avenue,,Brooklyn,11226,NY,US,(718) 462-8100,http://ditmasparkrehabcare.com/index.html,https://profiles.health.ny.gov/nursing_home/view/150718,Residential Health Care
USA-NY-47-NY-HealthProfiles-output-128,DR Susan Smith Mckinney Nursing and Rehabilitation Center,594 Albany Avenue,,Brooklyn,11203,NY,US,(718) 245-7000,http://www.nyc.gov/html/hhc/dssm/,https://profiles.health.ny.gov/nursing_home/view/150922,Residential Health Care
USA-NY-47-NY-HealthProfiles-output-129,DRY Harbor Nursing Home,61-35 Dry Harbor Road,,Middle Village,11379,NY,US,(718) 565-4200,http://www.dryharbornursinghome.com/,https://profiles.health.ny.gov/nursing_home/view/150761,Residential Health Care
USA-NY-47-NY-HealthProfiles-output-130,Dumont Center for Rehabilitation and Nursing Care,676 Pelham Road,,New Rochelle,10805,NY,US,(914) 632-9600,http://dumontcenter.com/,https://profiles.health.ny.gov/nursing_home/view/150788,Residential Health Care; Ventilator Dependent
USA-NY-47-NY-HealthProfiles-output-131,East Haven Nursing & Rehabilitation Center,2323-27 Eastchester Road,,Bronx,10469,NY,US,(718) 655-2848,,https://profiles.health.ny.gov/nursing_home/view/150680,Residential Health Care
USA-NY-47-NY-HealthProfiles-output-132,East Neck Nursing & Rehabilitation Center,134 Great East Neck Road,,West Babylon,11704,NY,US,(631) 422-4800,http://www.eastneck.com/,https://profiles.health.ny.gov/nursing_home/view/150812,Residential Health Care
USA-NY-47-NY-HealthProfiles-output-133,East Side Nursing Home,62 Prospect St,,Warsaw,14569,NY,US,(585) 786-8151,http://www.eastsidenursing.com/,https://profiles.health.ny.gov/nursing_home/view/150640,Residential Health Care
USA-NY-47-NY-HealthProfiles-output-134,Eastchester Rehabilitation and Health Care Center,2700 Eastchester Road,,Bronx,10469,NY,US,(718) 231-5550,http://www.sentosacare.com/showfacilities.php?facilityid=4,https://profiles.health.ny.gov/nursing_home/view/150655,Residential Health Care; Ventilator Dependent
USA-NY-47-NY-HealthProfiles-output-135,Eddy Heritage House Nursing and Rehabilitation Center,2920 Tibbits Avenue,,Troy,12180,NY,US,(518) 274-4125,http://www.nehealth.com/Senior_Services/Nursing_Homes/Eddy_Heritage_House_Nursing_Center/,https://profiles.health.ny.gov/nursing_home/view/150859,Residential Health Care
USA-NY-47-NY-HealthProfiles-output-136,Eddy Village Green at Beverwyck,40 Autumn Drive,,Slingerlands,12159,NY,US,(518) 451-2107,http://www.nehealth.com/Senior_Services/Nursing_Homes/Eddy_Village_Green_at_Beverwyck/,https://profiles.health.ny.gov/nursing_home/view/208957,Residential Health Care
USA-NY-47-NY-HealthProfiles-output-137,Eddy Village Green,421 W Columbia Street,,Cohoes,12047,NY,US,(518) 237-5630,http://www.nehealth.com/Senior_Services/Nursing_Homes/Eddy_Village_Green_at_Beverwyck/,https://profiles.health.ny.gov/nursing_home/view/150837,Residential Health Care
USA-NY-47-NY-HealthProfiles-output-138,Edna Tina Wilson Living Center,700 Island Cottage Road,,Rochester,14612,NY,US,(585) 368-6100,,https://profiles.health.ny.gov/nursing_home/view/150868,Residential Health Care
USA-NY-47-NY-HealthProfiles-output-139,Eger Health Care and Rehabilitation Center,140 Meisner Avenue,,Staten Island,10306,NY,US,(718) 979-1800,http://www.eger.org/,https://profiles.health.ny.gov/nursing_home/view/150773,Residential Health Care
USA-NY-47-NY-HealthProfiles-output-140,"Elant at Goshen, Inc.",46 Harriman Drive,,Goshen,10924,NY,US,(845) 291-3700,http://elant.org/?page_id=132,https://profiles.health.ny.gov/nursing_home/view/150817,Residential Health Care
USA-NY-47-NY-HealthProfiles-output-141,Elant at Meadow Hill,172 Meadow Hill Road,,Newburgh,12550,NY,US,(845) 564-1700,http://elant.org/?page_id=134,https://profiles.health.ny.gov/nursing_home/view/150507,Residential Health Care
USA-NY-47-NY-HealthProfiles-output-142,Elcor Nursing and Rehabilitation Center,48 Colonial Drive,,Horseheads,14845,NY,US,(607) 739-0304,http://www.elcorhealthservices.com/,https://profiles.health.ny.gov/nursing_home/view/150332,Residential Health Care
USA-NY-47-NY-HealthProfiles-output-143,Elderwood at Amherst,4459 Bailey Ave,,Amherst,14226,NY,US,(716) 835-2543,http://www.elderwood.com/locations/wedgewood.php,https://profiles.health.ny.gov/nursing_home/view/150360,Residential Health Care
USA-NY-47-NY-HealthProfiles-output-144,Elderwood at Cheektowaga,225 Bennett Road,,Cheektowaga,14227,NY,US,(716) 681-9480,http://www.elderwood.com/maplewood/,https://profiles.health.ny.gov/nursing_home/view/150853,Residential Health Care
USA-NY-47-NY-HealthProfiles-output-145,Elderwood at Grand Island,2850 Grand Island Blvd,,Grand Island,14072,NY,US,(716) 773-5900,http://www.elderwood.com/riverwood/index.php,https://profiles.health.ny.gov/nursing_home/view/150379,Residential Health Care
USA-NY-47-NY-HealthProfiles-output-146,Elderwood at Hamburg,5775 Maelou Drive,,Hamburg,14075,NY,US,(716) 648-2820,http://www.elderwood.com/locations/lakewood.php,https://profiles.health.ny.gov/nursing_home/view/150811,Residential Health Care
USA-NY-47-NY-HealthProfiles-output-147,Elderwood at Hornell,One Bethesda Drive,,N Hornell,14843,NY,US,(607) 324-6900,http://www.stjamesmercy.org/mcauley-manor.shtml,https://profiles.health.ny.gov/nursing_home/view/150827,Residential Health Care
USA-NY-47-NY-HealthProfiles-output-148,Elderwood at Lancaster,1818 Como Park Blvd,,Lancaster,14086,NY,US,(716) 683-6165,http://www.elderwood.com/locations/linwood.php,https://profiles.health.ny.gov/nursing_home/view/150368,Residential Health Care
USA-NY-47-NY-HealthProfiles-output-149,Elderwood at Liverpool,4800 Bear Road,,Liverpool,13088,NY,US,(315) 457-9946,http://www.elderwood.com/locations/birchwood.php,https://profiles.health.ny.gov/nursing_home/view/150807,Residential Health Care
USA-NY-47-NY-HealthProfiles-output-150,Elderwood at Waverly,37 N Chemung St,,Waverly,14892,NY,US,(607) 565-2861,http://www.elderwood.com/locations/tioga-health-care.php,https://profiles.health.ny.gov/nursing_home/view/150585,Residential Health Care
USA-NY-47-NY-HealthProfiles-output-151,Elderwood at Wheatfield,2600 Niagara Falls Boulevard,,Niagara Falls,14304,NY,US,(716) 215-8000,http://www.elderwood.com/locations/crestwood.php,https://profiles.health.ny.gov/nursing_home/view/150886,Residential Health Care
USA-NY-47-NY-HealthProfiles-output-152,Elderwood at Williamsville,200 Bassett Road,,Williamsville,14221,NY,US,(716) 689-6681,http://www.elderwood.com/locations/oakwood.php,https://profiles.health.ny.gov/nursing_home/view/150791,Residential Health Care; Ventilator Dependent
USA-NY-47-NY-HealthProfiles-output-153,Elderwood of Uihlein at Lake Placid,185 Old Military Road,,Lake Placid,12946,NY,US,(518) 523-2464,http://www.elderwood.com/location/longtermcare-lake-placid/,https://profiles.health.ny.gov/nursing_home/view/150383,Residential Health Care
USA-NY-47-NY-HealthProfiles-output-154,Elizabeth Church Manor Nursing Home,863 Front Street,,Binghamton,13905,NY,US,(607) 722-3463,http://www.unitedmethodisthomes.org/facility/elizabeth-church-manor-nursing-home/,https://profiles.health.ny.gov/nursing_home/view/150309,Residential Health Care
USA-NY-47-NY-HealthProfiles-output-155,Elizabeth Seton Pediatric Center,300 Corporate Boulevard South,,Yonkers,10701,NY,US,(914) 294-6300,http://www.setonpediatric.org/elizabeth-seton-pediatric-center,https://profiles.health.ny.gov/nursing_home/view/150834,Residential Health Care; Pediatric
USA-NY-47-NY-HealthProfiles-output-156,Ellis Residential & Rehabilitation Center,600 Mcclellan Street,,Schenectady,12304,NY,US,(518) 243-4100,http://www.ellismedicine.org/nursing-home/,https://profiles.health.ny.gov/nursing_home/view/150843,Residential Health Care
USA-NY-47-NY-HealthProfiles-output-157,Elm Manor Nursing Home,210 N Main Street,,Canandaigua,14424,NY,US,(585) 394-3883,http://www.hurlbutcare.com/our-communities/elm-manor,https://profiles.health.ny.gov/nursing_home/view/150504,Residential Health Care
USA-NY-47-NY-HealthProfiles-output-158,"Elmhurst Care Center, Inc",100-17 23 Avenue,,East Elmhurst,11369,NY,US,(718) 205-8100,http://www.extendedcare.com/ElderCare/Facilities/NY/EastElmhurst/ElmhurstCC/,https://profiles.health.ny.gov/nursing_home/view/150929,Residential Health Care
USA-NY-47-NY-HealthProfiles-output-159,Emerald North Nursing and Rehabilitation Center,1205 Delaware Avenue,,Buffalo,14209,NY,US,(716) 885-3838,http://www.pscwny.org/harbour-hawthorn-home.html,https://profiles.health.ny.gov/nursing_home/view/150492,Residential Health Care
USA-NY-47-NY-HealthProfiles-output-160,Emerald South Nursing and Rehabilitation Center,1175 Delaware Ave,,Buffalo,14209,NY,US,(716) 885-6733,http://www.pscwny.org/harbour-hawthorn-home.html,https://profiles.health.ny.gov/nursing_home/view/150362,Residential Health Care
USA-NY-47-NY-HealthProfiles-output-161,Erie County Medical Center,462 Grider Street,,Buffalo,14215,NY,US,(716) 898-3000,,https://profiles.health.ny.gov/nursing_home/view/234610,
USA-NY-47-NY-HealthProfiles-output-162,Essex Center for Rehabilitation and Healthcare,81 Park Street,,Elizabethtown,12932,NY,US,(518) 873-3570,http://www.co.essex.ny.us/HNH.asp,https://profiles.health.ny.gov/nursing_home/view/150381,Residential Health Care
USA-NY-47-NY-HealthProfiles-output-163,Evergreen Commons Rehabilitation and Nursing Center,1070 Luther Road,,East Greenbush,12061,NY,US,(518) 479-4662,http://www.evergreen-commons.com/,https://profiles.health.ny.gov/nursing_home/view/150920,Residential Health Care
USA-NY-47-NY-HealthProfiles-output-164,"Excel at Woodbury for Rehabilitation and Nursing, LLC",8533 Jericho Tpke,,Woodbury,11797,NY,US,(516) 692-4100,,https://profiles.health.ny.gov/nursing_home/view/150465,Residential Health Care
USA-NY-47-NY-HealthProfiles-output-165,Fairport Baptist Homes,4646 Nine Mile Point Road,,Fairport,14450,NY,US,(585) 377-0350,http://fairportbaptisthomes.org/,https://profiles.health.ny.gov/nursing_home/view/150420,Residential Health Care
USA-NY-47-NY-HealthProfiles-output-166,Fairview Nursing Care Center Inc,69-70 Grand Central Parkway,,Forest Hills,11375,NY,US,(718) 263-4600,http://fairviewrehab.weebly.com/,https://profiles.health.ny.gov/nursing_home/view/150741,Residential Health Care
USA-NY-47-NY-HealthProfiles-output-167,Far Rockaway Center for Rehabilitation and Nursing,13-11 Virgina St,,Far Rockaway,11691,NY,US,(718) 327-2909,,https://profiles.health.ny.gov/nursing_home/view/150742,Residential Health Care
USA-NY-47-NY-HealthProfiles-output-168,Fasny Firemen's Home,125 Harry-howard Avenue,,Hudson,12534,NY,US,(518) 828-7695,http://www.firemenshome.com/,https://profiles.health.ny.gov/nursing_home/view/150341,Residential Health Care
USA-NY-47-NY-HealthProfiles-output-169,Father Baker Manor,6400 Powers Road,,Orchard Park,14127,NY,US,(716) 667-0001,http://www.chsbuffalo.org/Facilities/NursingHomes/FatherBaker,https://profiles.health.ny.gov/nursing_home/view/150874,Residential Health Care
USA-NY-47-NY-HealthProfiles-output-170,Ferncliff Nursing Home Co Inc,21 Ferncliff Dr,,Rhinebeck,12572,NY,US,(845) 876-2011,http://www.archcare.org/ferncliff-nursing-home.html,https://profiles.health.ny.gov/nursing_home/view/150354,Residential Health Care
USA-NY-47-NY-HealthProfiles-output-171,Fiddlers Green Manor Rehabilitation and Nursing Center,168 West Main Street,,Springville,14141,NY,US,(716) 592-4781,http://www.fiddlersgreenmanor.com/,https://profiles.health.ny.gov/nursing_home/view/150373,Residential Health Care
USA-NY-47-NY-HealthProfiles-output-172,Field Home-Holy Comforter,2300 Catherine Street,,Cortlandt Manor,10567,NY,US,(914) 739-2244,http://www.fieldhome.com/,https://profiles.health.ny.gov/nursing_home/view/150823,Residential Health Care
USA-NY-47-NY-HealthProfiles-output-173,Fieldston Lodge Care Center,666 Kappock Street,,Bronx,10463,NY,US,(718) 549-1203,http://www.fieldstonlodgecarecenter.com/,https://profiles.health.ny.gov/nursing_home/view/150657,Residential Health Care; Ventilator Dependent
USA-NY-47-NY-HealthProfiles-output-174,Finger Lakes Center for Living,20 Park Avenue,,Auburn,13021,NY,US,(315) 255-7188,http://www.auburnhospital.org/programs-services/fingerlakes-center-for-living.php,https://profiles.health.ny.gov/nursing_home/view/150882,Residential Health Care
USA-NY-47-NY-HealthProfiles-output-175,Fishkill Center for Rehabilitation and Nursing,22 Robert R. Kasin Way,,Beacon,12508,NY,US,(845) 831-8704,http://elant.org/?page_id=136,https://profiles.health.ny.gov/nursing_home/view/150356,Residential Health Care
USA-NY-47-NY-HealthProfiles-output-176,Flushing Hospital Medical Center,45th Avenue & Parsons Blvd,,Flushing,11355,NY,US,(718) 670-5918,,https://profiles.health.ny.gov/nursing_home/view/240872,Transitional Care Unit
USA-NY-47-NY-HealthProfiles-output-177,Focus Rehabilitation and Nursing Center at Otsego,128 Phoenix Mills Cross Road,,Cooperstown,13326,NY,US,(607) 544-2600,http://www.otsegomanor.com/,https://profiles.health.ny.gov/nursing_home/view/150520,Residential Health Care
USA-NY-47-NY-HealthProfiles-output-178,Focus Rehabilitation and Nursing Center at Utica,1445 Kemble Street,,Utica,13501,NY,US,(315) 732-0100,http://www.FocusUtica.com/,https://profiles.health.ny.gov/nursing_home/view/150887,Residential Health Care
USA-NY-47-NY-HealthProfiles-output-179,Folts Home,104 North Washington Street,,Herkimer,13350,NY,US,(315) 866-6964,http://www.foltshomes.com/,https://profiles.health.ny.gov/nursing_home/view/150395,Residential Health Care
USA-NY-47-NY-HealthProfiles-output-180,Fordham Nursing and Rehabilitation Center,2678 Kingsbridge Terrace,,Bronx,10463,NY,US,(718) 796-5800,http://www.terrace-healthcare.com/,https://profiles.health.ny.gov/nursing_home/view/150678,Residential Health Care
USA-NY-47-NY-HealthProfiles-output-181,Forest Hills Care Center,71-44 Yellowstone Blvd,,Forest Hills,11375,NY,US,(718) 544-4300,http://foresthillsnh.com/,https://profiles.health.ny.gov/nursing_home/view/150744,Residential Health Care
USA-NY-47-NY-HealthProfiles-output-182,Forest View Center for Rehabilitation & Nursing,71-20 110th Street,,Forest Hills,11375,NY,US,(718) 793-3200,http://www.fvrehab.com/,https://profiles.health.ny.gov/nursing_home/view/150745,Residential Health Care
USA-NY-47-NY-HealthProfiles-output-183,"Fort Hudson Nursing Center, Inc.",319 Upper Broadway,,Fort Edward,12828,NY,US,(518) 747-2811,http://www.forthudson.com/,https://profiles.health.ny.gov/nursing_home/view/150597,Residential Health Care
USA-NY-47-NY-HealthProfiles-output-184,Fort Tryon Center for Rehabilitation and Nursing,801 W 190th St,,New York,10040,NY,US,(212) 543-6400,,https://profiles.health.ny.gov/nursing_home/view/150723,Residential Health Care
USA-NY-47-NY-HealthProfiles-output-185,Four Seasons Nursing and Rehabilitation Center,1555 Rockaway Parkway,,Brooklyn,11236,NY,US,(718) 927-6300,http://www.fourseasonsnh.com/,https://profiles.health.ny.gov/nursing_home/view/150804,Residential Health Care; Ventilator Dependent
USA-NY-47-NY-HealthProfiles-output-186,Fox Run at Orchard Park,One Fox Run Lane,,Orchard Park,14127,NY,US,(716) 662-5001,http://www.foxrunorchardpark.com/,https://profiles.health.ny.gov/nursing_home/view/150491,Residential Health Care
USA-NY-47-NY-HealthProfiles-output-187,Franklin Center for Rehabilitation and Nursing,142-27 Franklin Avenue,,Flushing,11355,NY,US,(718) 670-3400,,https://profiles.health.ny.gov/nursing_home/view/150763,Residential Health Care; Ventilator Dependent
USA-NY-47-NY-HealthProfiles-output-188,"Friedwald Center for Rehabilitation and Nursing, LLC",475 New Hempstead Road,,New City,10956,NY,US,(845) 354-7000,http://www.friedwaldcenter.com/,https://profiles.health.ny.gov/nursing_home/view/150533,Residential Health Care; Ventilator Dependent
USA-NY-47-NY-HealthProfiles-output-189,Fulton Center for Rehabilitation and Healthcare,847 Cohwy 122,,Gloversville,12078,NY,US,(518) 773-3400,http://fultoncenter.net/,https://profiles.health.ny.gov/nursing_home/view/150389,Residential Health Care
USA-NY-47-NY-HealthProfiles-output-190,Fulton Commons Care Center Inc,60 Merrick Ave,,East Meadows,11554,NY,US,(516) 222-9300,http://www.fultoncommons.com/,https://profiles.health.ny.gov/nursing_home/view/150904,Residential Health Care
USA-NY-47-NY-HealthProfiles-output-191,Garden Care Center,135 Franklin Avenue,,Franklin Square,11010,NY,US,(516) 775-2100,http://www.gardencarerehab.com/,https://profiles.health.ny.gov/nursing_home/view/150458,Residential Health Care
USA-NY-47-NY-HealthProfiles-output-192,Garden Gate Health Care Facility,2365 Union Road,,Cheektowaga,14227,NY,US,(716) 668-8100,http://www.mcguiregroup.com/garden%20gate%20page.html,https://profiles.health.ny.gov/nursing_home/view/150377,Residential Health Care
USA-NY-47-NY-HealthProfiles-output-193,Glen Arden Inc,46 Harriman Drive,,Goshen,10924,NY,US,(845) 291-7800,http://www.glenardenny.com/,https://profiles.health.ny.gov/nursing_home/view/150917,Residential Health Care
USA-NY-47-NY-HealthProfiles-output-194,Glen Cove Center for Nursing and Rehabilitation,6 Medical Plaza,,Glen Cove,11542,NY,US,(516) 671-9010,http://www.glencoverehab.com/,https://profiles.health.ny.gov/nursing_home/view/150443,Residential Health Care
USA-NY-47-NY-HealthProfiles-output-195,Glen Island Center for Nursing and Rehabilitation,490 Pelham Road,,New Rochelle,10805,NY,US,(914) 636-2800,http://www.glenislandcarecenter.com/,https://profiles.health.ny.gov/nursing_home/view/150615,Residential Health Care
USA-NY-47-NY-HealthProfiles-output-196,Glendale Home-Schdy CNTY Dept Social Services,59 Hetcheltown Road,,Scotia,12302,NY,US,(518) 384-3601,http://www.schenectadycounty.com/FullStory.aspx?m=248&amid=804,https://profiles.health.ny.gov/nursing_home/view/150550,Residential Health Care
USA-NY-47-NY-HealthProfiles-output-197,Glengariff Health Care Center,141 Dosoris Lane,,Glen Cove,11542,NY,US,(516) 676-1100,http://glengariffcare.com/,https://profiles.health.ny.gov/nursing_home/view/150441,Residential Health Care
USA-NY-47-NY-HealthProfiles-output-198,Gold Crest Care Center,2316 Bruner Avenue,,Bronx,10469,NY,US,(718) 882-6400,http://www.goldcrestcc.com/,https://profiles.health.ny.gov/nursing_home/view/150653,Residential Health Care
USA-NY-47-NY-HealthProfiles-output-199,Golden Gate Rehabilitation & Health Care Center,191 Bradley Ave,,Staten Island,10314,NY,US,(718) 698-8800,http://goldengaterehab.com/contactus.php,https://profiles.health.ny.gov/nursing_home/view/150782,Residential Health Care
USA-NY-47-NY-HealthProfiles-output-200,Golden Hill Nursing and Rehabilitation Center,99 Golden Hill Drive,,Kingston,12401,NY,US,(845) 340-3390,http://www.co.ulster.ny.us/resources/goldenhill.html,https://profiles.health.ny.gov/nursing_home/view/150590,Residential Health Care
USA-NY-47-NY-HealthProfiles-output-201,Good Samaritan Nursing Home,101 Elm St,,Sayville,11782,NY,US,(631) 244-2400,http://goodsamaritan.chsli.org/index.php/good-samaritan-nursing-home-,https://profiles.health.ny.gov/nursing_home/view/150795,Residential Health Care
USA-NY-47-NY-HealthProfiles-output-202,Good Shepherd Village at Endwell,14 Village Drive,,Endwell,13760,NY,US,(607) 757-3102,http://www.gsvillage.com/,https://profiles.health.ny.gov/nursing_home/view/208956,Residential Health Care
USA-NY-47-NY-HealthProfiles-output-203,Good Shepherd-Fairview Home Inc,80 Fairview Avenue,,Binghamton,13904,NY,US,(607) 724-2477,http://www.gsfhome.com/,https://profiles.health.ny.gov/nursing_home/view/150310,Residential Health Care
USA-NY-47-NY-HealthProfiles-output-204,Gowanda Rehabilitation and Nursing Center,100 Miller Street,,Gowanda,14070,NY,US,(716) 532-5700,http://gowandarehab.com/,https://profiles.health.ny.gov/nursing_home/view/150602,Residential Health Care
USA-NY-47-NY-HealthProfiles-output-205,Grace Plaza Nursing and Rehabilitation Center,15 St Pauls Place,,Great Neck,11021,NY,US,(516) 466-3001,http://www.graceplaza.com/,https://profiles.health.ny.gov/nursing_home/view/150453,Residential Health Care
USA-NY-47-NY-HealthProfiles-output-206,Grand Manor Nursing & Rehabilitation Center,700 White Plains Road,,Bronx,10473,NY,US,(718) 518-8892,http://www.grandmanor.org/,https://profiles.health.ny.gov/nursing_home/view/150553,Residential Health Care
USA-NY-47-NY-HealthProfiles-output-207,Grandell Rehabilitation and Nursing Center,645 W Broadway,,Long Beach,11561,NY,US,(516) 889-1100,http://www.grandellrehab.com/,https://profiles.health.ny.gov/nursing_home/view/150445,Residential Health Care
USA-NY-47-NY-HealthProfiles-output-208,Greene Meadows Nursing and Rehabilitation Center,161 Jefferson Heights,,Catskill,12414,NY,US,(518) 943-9380,http://www.columbiamemorial.com/kaaterskill/,https://profiles.health.ny.gov/nursing_home/view/150393,Residential Health Care
USA-NY-47-NY-HealthProfiles-output-209,Greenfield Health & Rehab Center,5949 Broadway,,Lancaster,14086,NY,US,(716) 684-3000,http://www.niagaralutheran.org/content/pages/greenfield-rehab,https://profiles.health.ny.gov/nursing_home/view/150927,Residential Health Care
USA-NY-47-NY-HealthProfiles-output-210,Groton Community Health Care Center Residential Care Facility,120 Sykes Street,,Groton,13073,NY,US,(607) 898-5876,,https://profiles.health.ny.gov/nursing_home/view/150786,Residential Health Care
USA-NY-47-NY-HealthProfiles-output-211,Gurwin Jewish Nursing and Rehabilitation Center,68 Hauppauge Road,,Commack,11725,NY,US,(631) 499-6500,http://www.gurwin.org/,https://profiles.health.ny.gov/nursing_home/view/150835,Residential Health Care; Ventilator Dependent
USA-NY-47-NY-HealthProfiles-output-212,Hamilton Manor Nursing Home,1172 Long Pond Road,,Rochester,14626,NY,US,(585) 225-0450,http://www.lattaroadnh.com/about.htm,https://profiles.health.ny.gov/nursing_home/view/150428,Residential Health Care
USA-NY-47-NY-HealthProfiles-output-213,Hamilton Park Nursing and Rehabilitation Center,691 92 Street,,Brooklyn,11228,NY,US,(718) 567-1820,http://www.hamiltonparkrehab.com/,https://profiles.health.ny.gov/nursing_home/view/150847,Residential Health Care
USA-NY-47-NY-HealthProfiles-output-214,"Harlem Center for Nursing and Rehabilitation, LLC",30 West 138th Street,,New York,10037,NY,US,(212) 690-7400,http://www.ghnh.org/greater-harlem/index.php,https://profiles.health.ny.gov/nursing_home/view/150726,Residential Health Care
USA-NY-47-NY-HealthProfiles-output-215,"Harris Hill Nursing Facility, LLC",2699 Wehrle Drive,,Williamsville,14221,NY,US,(716) 632-3700,http://www.mcguiregroup.com/harris%20hill%20page.html,https://profiles.health.ny.gov/nursing_home/view/150822,Residential Health Care
USA-NY-47-NY-HealthProfiles-output-216,"Haven Manor Health Care Center,llc",1441 Gateway Boulevard,,Far Rockaway,11691,NY,US,(718) 471-1500,,https://profiles.health.ny.gov/nursing_home/view/150808,Residential Health Care
USA-NY-47-NY-HealthProfiles-output-217,Haym Solomon Home for the Aged,2340 Cropsey Avenue,,Brooklyn,11214,NY,US,(718) 373-1700,http://www.haymsalomonhome.com/,https://profiles.health.ny.gov/nursing_home/view/150682,Residential Health Care
USA-NY-47-NY-HealthProfiles-output-218,Hebrew Home for the Aged at Riverdale,5901 Palisade Avenue,,Bronx,10471,NY,US,(718) 581-1000,http://www.hebrewhome.org/,https://profiles.health.ny.gov/nursing_home/view/150643,Residential Health Care
USA-NY-47-NY-HealthProfiles-output-219,Helen Hayes Hospital RHCF,51 N Route 9w,,West Haverstraw,10993,NY,US,(845) 786-4000,http://www.helenhayeshospital.org/,https://profiles.health.ny.gov/nursing_home/view/150896,Residential Health Care
USA-NY-47-NY-HealthProfiles-output-220,Helen Hayes Hospital,51 N Route 9w,,West Haverstraw,10993,NY,US,(845) 786-4000,,https://profiles.health.ny.gov/nursing_home/view/1253376,Transitional Care Unit
USA-NY-47-NY-HealthProfiles-output-221,Hempstead Park Nursing Home,800 Front Street,,Hempstead,11550,NY,US,(516) 705-9700,,https://profiles.health.ny.gov/nursing_home/view/150448,Residential Health Care
USA-NY-47-NY-HealthProfiles-output-222,Henry J. Carter Skilled Nursing Facility,1752 Park Avenue,,New York,10035,NY,US,(646) 686-0057,http://www.nyc.gov/html/hhc/coler-goldwater/,https://profiles.health.ny.gov/nursing_home/view/150293,Residential Health Care; Ventilator Dependent
USA-NY-47-NY-HealthProfiles-output-223,Heritage Commons Residential Health Care,1019 Wicker Street,,Ticonderoga,12883,NY,US,(518) 585-6771,http://www.interlakeshealth.com/getpage.php?name=heritage_commons,https://profiles.health.ny.gov/nursing_home/view/150382,Residential Health Care
USA-NY-47-NY-HealthProfiles-output-224,Heritage Green Nursing Home,P.o. Box 400,Route 430,Greenhurst,14742,NY,US,(716) 483-5000,http://www.heritage1886.org/new/index.php?option=com_content&view=article&id=38&Itemid=45,https://profiles.health.ny.gov/nursing_home/view/150787,Residential Health Care
USA-NY-47-NY-HealthProfiles-output-225,Heritage Health Care Center,1657 Sunset Ave,,Utica,13502,NY,US,(315) 797-7392,http://hhcc.net/,https://profiles.health.ny.gov/nursing_home/view/150485,Residential Health Care
USA-NY-47-NY-HealthProfiles-output-226,Heritage Park Health Care Center,150 Prather Avenue,,Jamestown,14701,NY,US,(716) 488-1921,http://www.heritage1886.org/new/index.php?option=com_content&view=article&id=36&Itemid=47,https://profiles.health.ny.gov/nursing_home/view/150325,Residential Health Care
USA-NY-47-NY-HealthProfiles-output-227,"Heritage Village Rehab and Skilled Nursing, Inc.",4570 Route 60,,Gerry,14740,NY,US,(716) 985-4612,http://www.heritage1886.org/new/index.php?option=com_content&view=article&id=33&Itemid=207,https://profiles.health.ny.gov/nursing_home/view/150327,Residential Health Care
USA-NY-47-NY-HealthProfiles-output-228,Highfield Gardens Care Center of Great Neck,199 Community Drive,,Great Neck,11021,NY,US,(516) 365-9229,http://www.highfieldgardens.com/,https://profiles.health.ny.gov/nursing_home/view/150461,Residential Health Care
USA-NY-47-NY-HealthProfiles-output-229,Highland Care Center,91-31 175th Street,,Jamaica,11432,NY,US,(718) 657-6363,http://www.extendedcare.com/ElderCare/Facilities/NY/Jamaica/HighlandCC/,https://profiles.health.ny.gov/nursing_home/view/150766,Residential Health Care
USA-NY-47-NY-HealthProfiles-output-230,Highland Nursing Home Inc,182 Highland Road,,Massena,13662,NY,US,(315) 769-9956,http://highlandnursinghome.com/,https://profiles.health.ny.gov/nursing_home/view/150539,Residential Health Care
USA-NY-47-NY-HealthProfiles-output-231,Highland Park Rehabilitation and Nursing Center,160 Seneca St,,Wellsville,14895,NY,US,(585) 593-3750,http://www.highlandparkrehab.com/,https://profiles.health.ny.gov/nursing_home/view/150308,Residential Health Care
USA-NY-47-NY-HealthProfiles-output-232,Highland Rehabilitation and Nursing Center,120 Highland Avenue,,Middletown,10940,NY,US,(845) 342-1033,,https://profiles.health.ny.gov/nursing_home/view/150506,Residential Health Care
USA-NY-47-NY-HealthProfiles-output-233,Highlands Living Center,500 Hahnemann Trail,,Pittsford,14534,NY,US,(585) 383-1700,http://www.highlandsatpittsford.org/the-living-center/,https://profiles.health.ny.gov/nursing_home/view/150883,Residential Health Care
USA-NY-47-NY-HealthProfiles-output-234,Highpointe On Michigan Health Care Facility,1031 Michigan Avenue,,Buffalo,14203,NY,US,(716) 748-3101,http://www.highpointeonmichigan.org/,https://profiles.health.ny.gov/nursing_home/view/150802,Residential Health Care; Pediatric; Pediatric Ventilator Dependent; Ventilator Dependent
USA-NY-47-NY-HealthProfiles-output-235,Hilaire Rehab & Nursing,9 Hilaire Drive,,Huntington,11743,NY,US,(631) 427-0254,http://www.hilairerehabandnursing.com/AboutUs.php,https://profiles.health.ny.gov/nursing_home/view/150570,Residential Health Care
USA-NY-47-NY-HealthProfiles-output-236,Hill Haven Nursing Home,1550 Empire Blvd,,Webster,14580,NY,US,(585) 671-4300,http://www.rochestergeneral.org/centers-and-services/senior-services/hill-haven/,https://profiles.health.ny.gov/nursing_home/view/150435,Residential Health Care
USA-NY-47-NY-HealthProfiles-output-237,Hillside Manor Rehab & Extended Care Center,182-15 Hillside Avenue,,Jamaica Estates,11432,NY,US,(718) 291-8200,http://www.hillsidehealthcare.com/,https://profiles.health.ny.gov/nursing_home/view/150768,Residential Health Care
USA-NY-47-NY-HealthProfiles-output-238,Hollis Park Manor Nursing Home,191-06 Hillside Avenue,,Hollis,11423,NY,US,(718) 479-1010,,https://profiles.health.ny.gov/nursing_home/view/150809,Residential Health Care
USA-NY-47-NY-HealthProfiles-output-239,Holliswood Center for Rehabilitation and Healthcare,195-44 Woodhull Avenue,,Hollis,11423,NY,US,(718) 740-3500,http://www.holliswood.net/,https://profiles.health.ny.gov/nursing_home/view/150767,Residential Health Care
USA-NY-47-NY-HealthProfiles-output-240,Hope Center for Hiv and Nursing Care,1401 University Avenue,,Bronx,10452,NY,US,(718) 681-8700,http://www.projectsamaritan.org/,https://profiles.health.ny.gov/nursing_home/view/150850,AIDS
USA-NY-47-NY-HealthProfiles-output-241,Hopkins Center for Rehabilitation and Healthcare,155 Dean Street,,Brooklyn,11217,NY,US,(718) 694-6700,http://www.hopkinscenter.com/,https://profiles.health.ny.gov/nursing_home/view/150876,Residential Health Care
USA-NY-47-NY-HealthProfiles-output-242,Horizon Care Center,64-11 Beach Channel Drive,,Arverne,11692,NY,US,(718) 945-0700,,https://profiles.health.ny.gov/nursing_home/view/150771,Residential Health Care
USA-NY-47-NY-HealthProfiles-output-243,"Hornell Gardens, LLC",434 Monroe Avenue,,Hornell,14843,NY,US,(607) 324-7740,http://www.hurlbutcare.com/our-communities/hornell-gardens,https://profiles.health.ny.gov/nursing_home/view/150557,Residential Health Care
USA-NY-47-NY-HealthProfiles-output-244,Hudson Park Rehabilitation and Nursing Center,325 Northern Boulevard,,Albany,12204,NY,US,(518) 449-1100,http://www.hudsonparkrehab.com/,https://profiles.health.ny.gov/nursing_home/view/150299,Residential Health Care
USA-NY-47-NY-HealthProfiles-output-245,Hudson Pointe at Riverdale Center for Nursing and Rehabilitation,3220 Henry Hudson Parkway,,Bronx,10463,NY,US,(718) 514-2000,http://www.hudsonpointerehab.com/,https://profiles.health.ny.gov/nursing_home/view/150656,Residential Health Care
USA-NY-47-NY-HealthProfiles-output-246,Hudson Valley Rehabilitation & Extended Care Center,260 Vineyard Ave,,Highland,12528,NY,US,(845) 691-7201,http://www.hudsonvalleyrehab.com/,https://profiles.health.ny.gov/nursing_home/view/150592,Residential Health Care
USA-NY-47-NY-HealthProfiles-output-247,Humboldt House Rehabilitation and Nursing Center,64 Hager Street,,Buffalo,14208,NY,US,(716) 886-4377,http://www.niagaralutheran.org/content/pages/nl-rehabilitation-center,https://profiles.health.ny.gov/nursing_home/view/150361,Residential Health Care
USA-NY-47-NY-HealthProfiles-output-248,Huntington Hills Center for Health and Rehabilitation,400 South Service Road,,Melville,11747,NY,US,(631) 439-3000,http://www.huntingtonhillscenter.com/,https://profiles.health.ny.gov/nursing_home/view/150931,Residential Health Care
USA-NY-47-NY-HealthProfiles-output-249,Huntington Living Center,369 East Main Street,,Waterloo,13165,NY,US,(315) 787-4920,http://www.flhealth.org/hlc,https://profiles.health.ny.gov/nursing_home/view/150296,Residential Health Care
USA-NY-47-NY-HealthProfiles-output-250,Ideal Senior Living Center,601 High Avenue,,Endicott,13760,NY,US,(607) 786-7308,http://www.uhs.net/?id=185&sid=1,https://profiles.health.ny.gov/nursing_home/view/150313,Residential Health Care
USA-NY-47-NY-HealthProfiles-output-251,Incarnation Childrens Center Inc,142 Audubon Ave,,New York,10032,NY,US,(212) 928-2590,http://incarnationchildrenscenter.org/,https://profiles.health.ny.gov/nursing_home/view/150897,AIDS
USA-NY-47-NY-HealthProfiles-output-252,Indian River Rehabilitation and Nursing Center,17 Madison Street,,Granville,12832,NY,US,(518) 642-2710,,https://profiles.health.ny.gov/nursing_home/view/150598,Residential Health Care
USA-NY-47-NY-HealthProfiles-output-253,Ira Davenport Memorial Hospital SNF HRF,7571 State Route 54,,Bath,14810,NY,US,(607) 776-8500,http://www.arnothealth.org/ira-davenport-memorial-hospital,https://profiles.health.ny.gov/nursing_home/view/150844,Residential Health Care
USA-NY-47-NY-HealthProfiles-output-254,Iroquois Nursing Home Inc,4600 Southwood Heights Drive,,Jamesville,13078,NY,US,(315) 469-1300,http://www.iroquoisnursing.com/,https://profiles.health.ny.gov/nursing_home/view/150862,Residential Health Care
USA-NY-47-NY-HealthProfiles-output-255,Isabella Geriatric Center Inc,515 Audubon Avenue,,New York,10040,NY,US,(212) 781-9800,http://www.isabella.org/,https://profiles.health.ny.gov/nursing_home/view/150715,Residential Health Care; Ventilator Dependent
USA-NY-47-NY-HealthProfiles-output-256,Island Nursing and Rehab Center,5537 Expressway Drive North,,Holtsville,11742,NY,US,(631) 758-3336,http://www.islandnursing.org/,https://profiles.health.ny.gov/nursing_home/view/150906,Residential Health Care
USA-NY-47-NY-HealthProfiles-output-257,Jamaica Hospital Medical Center,89th Avenue & Van Wyck Expressway,,Jamaica,11418,NY,US,(718) 206-6000,http://jamaicahospital.org/pages/clinical_services/rehab/TheTransitionalCareUnit.html,https://profiles.health.ny.gov/nursing_home/view/153983,Transitional Care Unit
USA-NY-47-NY-HealthProfiles-output-258,Jamaica Hospital Nursing Home Co Inc,89-40 135th Street,,Jamaica,11418,NY,US,(718) 206-5000,http://www.trumppavilion.org/,https://profiles.health.ny.gov/nursing_home/view/150765,Residential Health Care
USA-NY-47-NY-HealthProfiles-output-259,James A Eddy Memorial Geriatric Center,2256 Burdett Avenue,,Troy,12180,NY,US,(518) 274-9890,http://www.nehealth.com/Senior_Services/Nursing_Homes/Eddy_Memorial_Geriatric_Center/,https://profiles.health.ny.gov/nursing_home/view/150810,Residential Health Care
USA-NY-47-NY-HealthProfiles-output-260,James G. Johnston Memorial Nursing Home,285 Deyo Hill Road,,Johnson City,13790,NY,US,(607) 798-7818,http://www.unitedmethodisthomes.org/facility/james-g-johnston-memorial-nursing-home/,https://profiles.health.ny.gov/nursing_home/view/150806,Residential Health Care
USA-NY-47-NY-HealthProfiles-output-261,James Square Nursing and Rehabilitation Centre,918 James Street,,Syracuse,13203,NY,US,(315) 474-1561,http://www.jamessquare.com/,https://profiles.health.ny.gov/nursing_home/view/150499,Residential Health Care; Ventilator Dependent
USA-NY-47-NY-HealthProfiles-output-262,Jeanne Jugan Residence,2999 Schurz Avenue,,Bronx,10465,NY,US,(347) 329-1800,http://www.littlesistersofthepoorbronx.org/,https://profiles.health.ny.gov/nursing_home/view/150649,Residential Health Care
USA-NY-47-NY-HealthProfiles-output-263,Jefferson's Ferry,500 Mather Drive,,So Setauket,11720,NY,US,(631) 650-2600,http://www.jeffersonsferry.org/,https://profiles.health.ny.gov/nursing_home/view/150905,Residential Health Care
USA-NY-47-NY-HealthProfiles-output-264,Jennie B Richmond Chaffee Nursing Home Company Inc,222 East Main Street,,Springville,14141,NY,US,(716) 592-2871,http://www.bertrandchaffee.com/longtermcare,https://profiles.health.ny.gov/nursing_home/view/150372,Residential Health Care
USA-NY-47-NY-HealthProfiles-output-265,Jewish Home of Central New York,4101 E Genesee St,,Syracuse,13214,NY,US,(315) 446-9111,http://menorahparkofcny.com/continuum-of-care/jewish-health-rehabilitation/,https://profiles.health.ny.gov/nursing_home/view/150493,Residential Health Care
USA-NY-47-NY-HealthProfiles-output-266,Jewish Home of Rochester,2021 Winton Road S,,Rochester,14618,NY,US,(585) 427-7760,http://www.jewishseniorlife.org/our-campus/skilled-nursing/,https://profiles.health.ny.gov/nursing_home/view/150814,Residential Health Care
USA-NY-47-NY-HealthProfiles-output-267,John T Mather Memorial Hospital of Port Jefferson New York Inc,75 North Country Road,,Port Jefferson,11777,NY,US,(631) 473-1320,http://www.matherhospital.org/transitional-care-unit.php,https://profiles.health.ny.gov/nursing_home/view/153981,Transitional Care Unit
USA-NY-47-NY-HealthProfiles-output-268,Katherine Luther Residential Health Care and Rehabilitation Center,110 Utica Road,,Clinton,13323,NY,US,(315) 853-5515,http://www.lutherancare.org/services/facilities-1/skilled-nursing-1,https://profiles.health.ny.gov/nursing_home/view/150481,Residential Health Care
USA-NY-47-NY-HealthProfiles-output-269,Kendal at Ithaca,2230 North Triphammer Road,,Ithaca,14850,NY,US,(607) 266-5310,http://kai.kendal.org/,https://profiles.health.ny.gov/nursing_home/view/150889,Residential Health Care
USA-NY-47-NY-HealthProfiles-output-270,Kendal On Hudson,One Kendal Way,,Sleepy Hollow,10591,NY,US,(914) 922-1000,http://kohud.kendal.org/Default.aspx,https://profiles.health.ny.gov/nursing_home/view/150915,Residential Health Care
USA-NY-47-NY-HealthProfiles-output-271,King David Center for Nursing and Rehabilitation,2266 Cropsey Avenue,,Brooklyn,11214,NY,US,(718) 266-6100,http://www.sephardichome.org/,https://profiles.health.ny.gov/nursing_home/view/150683,Residential Health Care
USA-NY-47-NY-HealthProfiles-output-272,King Street Home Inc,787 King Street,,Port Chester,10573,NY,US,(914) 937-5800,http://www.kingstreetnursinghome.com/home.html,https://profiles.health.ny.gov/nursing_home/view/150621,Residential Health Care
USA-NY-47-NY-HealthProfiles-output-273,Kings Harbor Multicare Center,2000 E Gunhill Road,,Bronx,10469,NY,US,(718) 320-0400,http://www.kingsharbor.com/,https://profiles.health.ny.gov/nursing_home/view/150671,Residential Health Care
USA-NY-47-NY-HealthProfiles-output-274,Kingsway Arms Nursing Center Inc,323 Kings Road,,Schenectady,12304,NY,US,(518) 393-4117,http://www.kingswaycommunity.com/kingsway-arms.cfm,https://profiles.health.ny.gov/nursing_home/view/150548,Residential Health Care
USA-NY-47-NY-HealthProfiles-output-275,Kirkhaven,254 Alexander Street,,Rochester,14607,NY,US,(585) 461-1991,http://www.seniorsfirst.com/kirkhaven/,https://profiles.health.ny.gov/nursing_home/view/150800,Residential Health Care
USA-NY-47-NY-HealthProfiles-output-276,Laconia Nursing Home,1050 East 230th Street,,Bronx,10466,NY,US,(718) 654-5875,http://www.laconianursinghome.com/,https://profiles.health.ny.gov/nursing_home/view/150669,Residential Health Care
USA-NY-47-NY-HealthProfiles-output-277,"Lakeside - Beikirch Care Center, Inc",170 West Avenue,,Brockport,14420,NY,US,(585) 395-6052,http://www.lakesidehealth.com/,https://profiles.health.ny.gov/nursing_home/view/150426,Residential Health Care
USA-NY-47-NY-HealthProfiles-output-278,Latta Road Nursing Home East,2102 Latta Road,,Rochester,14612,NY,US,(585) 225-0920,http://www.lattaroadnh.com/about.htm,https://profiles.health.ny.gov/nursing_home/view/150431,Residential Health Care
USA-NY-47-NY-HealthProfiles-output-279,Latta Road Nursing Home West,2100 Latta Road,,Rochester,14612,NY,US,(585) 225-0910,http://www.lattaroadnh.com/about.htm,https://profiles.health.ny.gov/nursing_home/view/150429,Residential Health Care
USA-NY-47-NY-HealthProfiles-output-280,"Lawrence Nursing Care Center, Inc",350 Beach 54th Street,,Arverne,11692,NY,US,(718) 945-0400,,https://profiles.health.ny.gov/nursing_home/view/150762,Residential Health Care
USA-NY-47-NY-HealthProfiles-output-281,"Leroy Village Green Residential Health Care Facility, Inc",10 Munson Street,,Leroy,14482,NY,US,(585) 768-2561,http://www.leroyvillagegreen.com/,https://profiles.health.ny.gov/nursing_home/view/150793,Residential Health Care
USA-NY-47-NY-HealthProfiles-output-282,Lewis County General Hospital-Nursing Home Unit,7785 North State Street,,Lowville,13367,NY,US,(315) 376-5200,http://www.lcgh.net/,https://profiles.health.ny.gov/nursing_home/view/150402,Residential Health Care
USA-NY-47-NY-HealthProfiles-output-283,Linden Center for Nursing and Rehabilitation,2237 Linden Boulevard,,Brooklyn,11207,NY,US,(718) 649-7000,http://lindengardensrehab.com/,https://profiles.health.ny.gov/nursing_home/view/150926,Residential Health Care
USA-NY-47-NY-HealthProfiles-output-284,Little Neck Care Center,260-19 Nassau Blvd,,Little Neck,11362,NY,US,(718) 423-6400,,https://profiles.health.ny.gov/nursing_home/view/150757,Residential Health Care
USA-NY-47-NY-HealthProfiles-output-285,Living Center at Geneva - North,196-198 North Street,,Geneva,14456,NY,US,(585) 787-4730,http://www.flhealth.org/body.cfm?id=296,https://profiles.health.ny.gov/nursing_home/view/150294,Residential Health Care
USA-NY-47-NY-HealthProfiles-output-286,Living Center at Geneva - South,196-198 North Street,,Geneva,14456,NY,US,(315) 787-4730,http://www.flhealth.org/body.cfm?id=297,https://profiles.health.ny.gov/nursing_home/view/150295,Residential Health Care
USA-NY-47-NY-HealthProfiles-output-287,Livingston County Center for Nursing and Rehabilitation,11 Murray Hill Drive,,Mt Morris,14510,NY,US,(585) 243-7200,http://www.co.livingston.state.ny.us/cnr.htm,https://profiles.health.ny.gov/nursing_home/view/150404,Residential Health Care
USA-NY-47-NY-HealthProfiles-output-288,Livingston Hills Nursing and Rehabilitation Center,2781 Route 9,,Livingston,12541,NY,US,(518) 851-3041,http://livingstonhills.com/,https://profiles.health.ny.gov/nursing_home/view/150344,Residential Health Care
USA-NY-47-NY-HealthProfiles-output-289,Long Beach Nursing and Rehabilitation Center,375 East Bay Drive,,Long Beach,11561,NY,US,(516) 897-1110,http://www.lbmc.org/services/komanoff.htm,https://profiles.health.ny.gov/nursing_home/view/150446,Residential Health Care
USA-NY-47-NY-HealthProfiles-output-290,Long Island Care Center Inc,144-61 38th Ave,,Flushing,11354,NY,US,(718) 939-7500,http://longislandcarecenter.com/,https://profiles.health.ny.gov/nursing_home/view/150746,Residential Health Care; Ventilator Dependent
USA-NY-47-NY-HealthProfiles-output-291,Long Island State Veterans Home,Suny At Stonybrook 100 Patriots Road,,Stonybrook,11790,NY,US,(631) 444-8606,http://www.listateveteranshome.org/,https://profiles.health.ny.gov/nursing_home/view/150818,Residential Health Care
USA-NY-47-NY-HealthProfiles-output-292,Loretto Health and Rehabilitation Center,700 East Brighton Avenue,,Syracuse,13205,NY,US,(315) 469-5570,http://www.loretto-cny.org/,https://profiles.health.ny.gov/nursing_home/view/150494,Residential Health Care
USA-NY-47-NY-HealthProfiles-output-293,"Lutheran Augustana Center for Extended Care & Rehabilitation, Inc",5434 Second Avenue,,Brooklyn,11204,NY,US,(718) 630-6000,http://www.lutheranaugustanacenter.com/pages/main.html,https://profiles.health.ny.gov/nursing_home/view/150690,Residential Health Care; Ventilator Dependent
USA-NY-47-NY-HealthProfiles-output-294,"Lutheran Center at Poughkeepsie, Inc",965 Duthcess Turnpike,,Poughkeepsie,12603,NY,US,(845) 486-9494,http://www.lutherancarecenter.org/,https://profiles.health.ny.gov/nursing_home/view/150925,Residential Health Care
USA-NY-47-NY-HealthProfiles-output-295,Lutheran Retirement Home,715 Falconer Street,,Jamestown,14701,NY,US,(716) 665-4905,http://www.lutheran-jamestown.org/,https://profiles.health.ny.gov/nursing_home/view/150326,Residential Health Care
USA-NY-47-NY-HealthProfiles-output-296,Lynbrook Restorative Therapy and Nursing,243 Atlantic Avenue,,Lynbrook,11563,NY,US,(516) 599-2744,http://www.lynbrookrehab.com/,https://profiles.health.ny.gov/nursing_home/view/150452,Residential Health Care
USA-NY-47-NY-HealthProfiles-output-297,M.M. Ewing Continuing Care Center,350 Parrish Street,,Canandaigua,14424,NY,US,(585) 396-6020,http://www.thompsonhealth.com/SeniorbrLiving/SeniorLiving/MMEwingContinuingCareCenter.aspx,https://profiles.health.ny.gov/nursing_home/view/150503,Residential Health Care
USA-NY-47-NY-HealthProfiles-output-298,Manhattanville Health Care Center,311 W 231st Street,,Bronx,10463,NY,US,(718) 601-8400,,https://profiles.health.ny.gov/nursing_home/view/150836,Residential Health Care
USA-NY-47-NY-HealthProfiles-output-299,Maplewood Health Care and Rehabilitation Center,205 State Street Road,,Canton,13617,NY,US,(315) 386-4541,,https://profiles.health.ny.gov/nursing_home/view/150541,Residential Health Care
USA-NY-47-NY-HealthProfiles-output-300,Maplewood Nursing Home Inc,100 Daniel Drive,,Webster,14580,NY,US,(585) 872-1800,http://www.visitmaplewood.com/,https://profiles.health.ny.gov/nursing_home/view/150421,Residential Health Care
USA-NY-47-NY-HealthProfiles-output-301,Margaret Tietz Center for Nursing Care Inc,164-11 Chapin Parkway,,Jamaica,11432,NY,US,(718) 298-7800,http://www.margarettietz.org/,https://profiles.health.ny.gov/nursing_home/view/150733,Residential Health Care
USA-NY-47-NY-HealthProfiles-output-302,Maria Regina Residence Inc,1725 Brentwood Rd - Bldg 1,,Brentwood,11717,NY,US,(631) 273-4500,http://www.mariareginaresidence.org/,https://profiles.health.ny.gov/nursing_home/view/150907,Residential Health Care
USA-NY-47-NY-HealthProfiles-output-303,Marquis Rehabilitation & Nursing Center,2 Medical Plaza,,Glen Cove,11542,NY,US,(516) 671-0858,http://www.marquisrehabandnursing.com/,https://profiles.health.ny.gov/nursing_home/view/150442,Residential Health Care
USA-NY-47-NY-HealthProfiles-output-304,Martine Center for Rehabilitation and Nursing,12 Tibbits Avenue,,White Plains,10606,NY,US,(914) 428-0910,http://www.schnurmacher.org/,https://profiles.health.ny.gov/nursing_home/view/150610,Residential Health Care
USA-NY-47-NY-HealthProfiles-output-305,Mary Manning Walsh Nursing Home Co Inc,1339 York Avenue,,New York,10021,NY,US,(212) 628-2800,http://www.archcare.org/mary-manning-walsh.html,https://profiles.health.ny.gov/nursing_home/view/150716,Residential Health Care
USA-NY-47-NY-HealthProfiles-output-306,Masonic Care Community of New York,2150 Bleecker Street,,Utica,13501,NY,US,(315) 798-4800,http://www.masonichomeny.org/,https://profiles.health.ny.gov/nursing_home/view/150482,Residential Health Care
USA-NY-47-NY-HealthProfiles-output-307,Mayfair Care Center,100 Baldwin Road,,Hempstead,11550,NY,US,(516) 538-7171,,https://profiles.health.ny.gov/nursing_home/view/150449,Residential Health Care
USA-NY-47-NY-HealthProfiles-output-308,Mcauley Residence,1503 Military Road,,Kenmore,14217,NY,US,(716) 447-6600,http://www.chsbuffalo.org/Facilities/NursingHomes/McAuley,https://profiles.health.ny.gov/nursing_home/view/150366,Residential Health Care
USA-NY-47-NY-HealthProfiles-output-309,Meadow Park Rehabilitation and Health Care Center LLC,78-10 164th Street,,Flushing,11366,NY,US,(718) 591-8300,http://www.meadowparkrehab.com/,https://profiles.health.ny.gov/nursing_home/view/150747,Residential Health Care
USA-NY-47-NY-HealthProfiles-output-310,"Meadowbrook Care Center, Inc",320 West Merrick Road,,Freeport,11520,NY,US,(516) 377-8200,http://meadowbrooklongisland.com/,https://profiles.health.ny.gov/nursing_home/view/150891,Residential Health Care; Ventilator Dependent
USA-NY-47-NY-HealthProfiles-output-311,Meadowbrook Healthcare,154 Prospect Avenue,,Plattsburgh,12901,NY,US,(518) 563-5440,http://www.meadowbrookhealth.com/,https://profiles.health.ny.gov/nursing_home/view/150339,Residential Health Care
USA-NY-47-NY-HealthProfiles-output-312,Medford Multicare Center for Living,3115 Horseblock Road,,Medford,11763,NY,US,(631) 730-3000,http://www.medfordmulticare.org/,https://profiles.health.ny.gov/nursing_home/view/150911,Residential Health Care; Ventilator Dependent
USA-NY-47-NY-HealthProfiles-output-313,Medina Memorial Hospital SNF,200 Ohio Street,,Medina,14103,NY,US,(585) 798-2000,http://medinamemorial.org/residential-care-unit/,https://profiles.health.ny.gov/nursing_home/view/150511,Residential Health Care
USA-NY-47-NY-HealthProfiles-output-314,Menorah Home & Hospital for Aged & Infirm,1516 Oriental Blvd,,Brooklyn,11235,NY,US,(718) 646-4441,http://www.mjhs.org/rehab-and-nursing-centers/menorah/,https://profiles.health.ny.gov/nursing_home/view/150784,Residential Health Care
USA-NY-47-NY-HealthProfiles-output-315,Mercy Hospital Skilled Nursing Facility,55 Melroy Avenue,,Lackawanna,14218,NY,US,(716) 828-2300,http://www.chsbuffalo.org/Facilities/NursingHomes/MercySNF,https://profiles.health.ny.gov/nursing_home/view/150359,Residential Health Care
USA-NY-47-NY-HealthProfiles-output-316,Mercy Living Center,114 Wawbeek Ave,,Tupper Lake,12986,NY,US,(518) 359-3355,http://www.amccares.org/about-us/living-centers/history.html,https://profiles.health.ny.gov/nursing_home/view/150384,Residential Health Care
USA-NY-47-NY-HealthProfiles-output-317,Methodist Home for Nursing and Rehabilitation,4499 Manhattan College Parkway,,Bronx,10471,NY,US,(718) 548-5100,http://www.methodisthome.org/,https://profiles.health.ny.gov/nursing_home/view/150648,Residential Health Care
USA-NY-47-NY-HealthProfiles-output-318,"Michaud Residential Health Services, Inc.",453 Park Street,,Fulton,13069,NY,US,(315) 592-2009,http://www.stlukehs.com/michaud.php,https://profiles.health.ny.gov/nursing_home/view/150513,Residential Health Care
USA-NY-47-NY-HealthProfiles-output-319,Middletown Park Rehabilitation & Health Care Center,121 Dunning Road,,Middletown,10940,NY,US,(845) 343-0801,http://middletownparkrehab.com/,https://profiles.health.ny.gov/nursing_home/view/150783,Residential Health Care
USA-NY-47-NY-HealthProfiles-output-320,Midway Nursing Home,69-95 Queens Midtown Expressway,,Maspeth,11378,NY,US,(718) 429-2200,http://midwaynursinghome.com/,https://profiles.health.ny.gov/nursing_home/view/150760,Residential Health Care
USA-NY-47-NY-HealthProfiles-output-321,Mills Pond Nursing and Rehabilitation Center,273 Moriches Road,,St James,11780,NY,US,(631) 862-8990,http://www.mpnrc.com/,https://profiles.health.ny.gov/nursing_home/view/150581,Residential Health Care
USA-NY-47-NY-HealthProfiles-output-322,Mohawk Valley Health Care Center,99 Sixth Avenue,,Ilion,13357,NY,US,(315) 895-4050,http://mohawkvalleyhcc.com/,https://profiles.health.ny.gov/nursing_home/view/150394,Residential Health Care
USA-NY-47-NY-HealthProfiles-output-323,Momentum at South Bay for Rehabilitation and Nursing,340 East Montauk Highway,,East Islip,11730,NY,US,(631) 581-6400,http://www.rehabmomentum.com/,https://profiles.health.ny.gov/nursing_home/view/150575,Residential Health Care
USA-NY-47-NY-HealthProfiles-output-324,Monroe Community Hospital,435 East Henrietta Road,,Rochester,14620,NY,US,(585) 760-6500,http://www.monroehosp.org/,https://profiles.health.ny.gov/nursing_home/view/150412,Residential Health Care; Pediatric; Pediatric Ventilator Dependent
USA-NY-47-NY-HealthProfiles-output-325,Montgomery Nursing and Rehabilitation Center,2817 Albany Post Road,Box 158,Montgomery,12549,NY,US,(845) 457-3155,http://www.montgomeryrehab.com/,https://profiles.health.ny.gov/nursing_home/view/150509,Residential Health Care
USA-NY-47-NY-HealthProfiles-output-326,Morningside Nursing and Rehabilitation Center,1000 Pelham Parkway South,,Bronx,10461,NY,US,(718) 409-8200,http://www.aiamsh.org/,https://profiles.health.ny.gov/nursing_home/view/150673,Residential Health Care
USA-NY-47-NY-HealthProfiles-output-327,Morningstar Residential Care Center,17 Sunrise Drive,,Oswego,13126,NY,US,(315) 342-4790,http://www.morningstarcares.com/,https://profiles.health.ny.gov/nursing_home/view/150514,Residential Health Care
USA-NY-47-NY-HealthProfiles-output-328,Morris Park Nursing Home,1235 Pelham Parkway North,,Bronx,10469,NY,US,(718) 231-4300,,https://profiles.health.ny.gov/nursing_home/view/150659,Residential Health Care
USA-NY-47-NY-HealthProfiles-output-329,Mosholu Parkway Nursing & Rehabilitation Center,3356 Perry Avenue,,Bronx,10467,NY,US,(718) 655-3568,,https://profiles.health.ny.gov/nursing_home/view/150660,Residential Health Care
USA-NY-47-NY-HealthProfiles-output-330,Mountainside Residential Care Center,42158 State Highway #28,,Margaretville,12455,NY,US,(845) 586-1800,http://www.hahv.org/mountainside/,https://profiles.health.ny.gov/nursing_home/view/150348,Residential Health Care
USA-NY-47-NY-HealthProfiles-output-331,Nassau Rehabilitation & Nursing Center,One Greenwich Street,,Hempstead,11550,NY,US,(516) 565-4800,,https://profiles.health.ny.gov/nursing_home/view/150881,Residential Health Care
USA-NY-47-NY-HealthProfiles-output-332,Nathan Littauer Hospital Nursing Home,99 East State Street,,Gloversville,12078,NY,US,(518) 773-5611,http://www.nlh.org/nursing-home,https://profiles.health.ny.gov/nursing_home/view/150387,Residential Health Care
USA-NY-47-NY-HealthProfiles-output-333,Nesconset Center for Nursing and Rehabilitation,100 Southern Boulevard,,Nesconset,11767,NY,US,(631) 361-8800,http://www.ncnrehab.com/,https://profiles.health.ny.gov/nursing_home/view/150805,Residential Health Care
USA-NY-47-NY-HealthProfiles-output-334,"New Carlton Rehab and Nursing Center, LLC",405 Carlton Ave,,Brooklyn,11238,NY,US,(718) 789-6262,http://carltonnh.com/,https://profiles.health.ny.gov/nursing_home/view/150695,Residential Health Care
USA-NY-47-NY-HealthProfiles-output-335,New East Side Nursing Home,25 Bialystoker Place,,New York,10002,NY,US,(212) 673-8500,,https://profiles.health.ny.gov/nursing_home/view/150719,Residential Health Care
USA-NY-47-NY-HealthProfiles-output-336,"New Glen Oaks Nursing Home, Inc",260-01 79th Avenue,,Glen Oaks,11004,NY,US,(718) 343-0770,,https://profiles.health.ny.gov/nursing_home/view/150753,Residential Health Care
USA-NY-47-NY-HealthProfiles-output-337,New Gouverneur Hospital SNF,227 Madison Street,,New York,10002,NY,US,(212) 238-7000,http://www.nyc.gov/html/hhc/gouverneur/html/services/nursing.shtml,https://profiles.health.ny.gov/nursing_home/view/150728,Residential Health Care
USA-NY-47-NY-HealthProfiles-output-338,New Roc Nursing and Rehabilitation Center,1335 Portland Ave,,Rochester,14621,NY,US,(585) 544-4000,http://blossomnorth.com/,https://profiles.health.ny.gov/nursing_home/view/150417,Residential Health Care
USA-NY-47-NY-HealthProfiles-output-339,"New Surfside Nursing Home, LLC",22-41 New Haven Avenue,,Far Rockaway,11691,NY,US,(718) 471-3400,,https://profiles.health.ny.gov/nursing_home/view/150833,Residential Health Care
USA-NY-47-NY-HealthProfiles-output-340,"New Vanderbilt Rehabilitation and Care Center, Inc",135 Vanderbilt Ave,,Staten Island,10304,NY,US,(718) 447-0701,http://www.newvanderbiltrehab.com/,https://profiles.health.ny.gov/nursing_home/view/150777,Residential Health Care; Ventilator Dependent
USA-NY-47-NY-HealthProfiles-output-341,New York Center for Rehabilitation & Nursing,26-13 21st Street,,Astoria,11102,NY,US,(718) 626-4800,,https://profiles.health.ny.gov/nursing_home/view/150908,Residential Health Care
USA-NY-47-NY-HealthProfiles-output-342,New York State Veterans Home at Montrose,2090 Albany Post Rd,,Montrose,10548,NY,US,(914) 788-6000,http://www.nysvets.org/homes/montrose/default.aspx,https://profiles.health.ny.gov/nursing_home/view/150903,Residential Health Care
USA-NY-47-NY-HealthProfiles-output-343,Newark Manor Nursing Home Inc,222 West Pearl Street,,Newark,14513,NY,US,(315) 331-4690,http://www.hurlbutcare.com/our-communities/newark-manor,https://profiles.health.ny.gov/nursing_home/view/150601,Residential Health Care
USA-NY-47-NY-HealthProfiles-output-344,Newfane Rehab & Health Care Center,2709 Transit Rd,,Newfane,14108,NY,US,(716) 778-7111,http://www.enhs.org/newfane/the-newfane-rehabilitation-and-health-care-center/,https://profiles.health.ny.gov/nursing_home/view/150474,Residential Health Care
USA-NY-47-NY-HealthProfiles-output-345,Newyork-Presbyterian Queens,56-45 Main Street,,Flushing,11355,NY,US,(718) 670-1021,,https://profiles.health.ny.gov/nursing_home/view/234608,Transitional Care Unit
USA-NY-47-NY-HealthProfiles-output-346,Niagara Rehabilitation and Nursing Center,822 Cedar Avenue,,Niagara Falls,14301,NY,US,(716) 282-1207,http://www.niagararehab.org/,https://profiles.health.ny.gov/nursing_home/view/150471,Residential Health Care
USA-NY-47-NY-HealthProfiles-output-347,North Gate Health Care Facility,7264 Nash Road,,North Tonawanda,14120,NY,US,(716) 694-7700,http://www.mcguiregroup.com/northgate%20page.html,https://profiles.health.ny.gov/nursing_home/view/150722,Residential Health Care
USA-NY-47-NY-HealthProfiles-output-348,North Shore-Lij Orzac Center for Rehabilitation,900 Franklin Avenue,,Valley Stream,11580,NY,US,(516) 256-6700,http://www.northshorelij.com/hospitals/location/orzac-center-for-extended-care-and-rehabilitation,https://profiles.health.ny.gov/nursing_home/view/150839,Residential Health Care
USA-NY-47-NY-HealthProfiles-output-349,North Westchester Restorative Therapy and Nursing Center,3550 Lexington Avenue,,Mohegan Lake,10547,NY,US,(914) 528-2000,http://www.nwestchester.com/,https://profiles.health.ny.gov/nursing_home/view/150638,Residential Health Care
USA-NY-47-NY-HealthProfiles-output-350,Northeast Center for Rehabilitation and Brain Injury,300 Grant Ave,,Lake Katrine,12449,NY,US,(845) 336-3500,http://www.northeastcenter.com/,https://profiles.health.ny.gov/nursing_home/view/150930,Residential Health Care; Behavioral Intervention; Traumatic Brain Injury; Ventilator Dependent
USA-NY-47-NY-HealthProfiles-output-351,"Northern Dutchess Res Health Care Facility, Inc",6525 Springbrook Avenue,P.o. Box 514,Rhinebeck,12572,NY,US,(845) 871-3760,,https://profiles.health.ny.gov/nursing_home/view/150353,Residential Health Care
USA-NY-47-NY-HealthProfiles-output-352,Northern Manhattan Rehabilitation and Nursing Center,116 East 125th St,,New York,10035,NY,US,(212) 426-1284,http://www.nmrehab.org/,https://profiles.health.ny.gov/nursing_home/view/150890,Residential Health Care
USA-NY-47-NY-HealthProfiles-output-353,Northern Manor Geriatric Center Inc,199 N Middletown Road,,Nanuet,10954,NY,US,(845) 623-3904,http://northernmanor.com/,https://profiles.health.ny.gov/nursing_home/view/150530,Residential Health Care; Ventilator Dependent
USA-NY-47-NY-HealthProfiles-output-354,Northern Metropolitan Residential Health Care Facility Inc,225 Maple Avenue,,Monsey,10952,NY,US,(845) 352-9000,http://northernmet.com/,https://profiles.health.ny.gov/nursing_home/view/150535,Residential Health Care
USA-NY-47-NY-HealthProfiles-output-355,"Northern Riverview Health Care Center, Inc",87 South Route 9w,,Haverstraw,10927,NY,US,(845) 429-5381,http://northernriverview.com/,https://profiles.health.ny.gov/nursing_home/view/150527,Residential Health Care
USA-NY-47-NY-HealthProfiles-output-356,Northern Westchester Hospital,400 East Main Street,,Mount Kisco,10549,NY,US,(914) 666-1303,,https://profiles.health.ny.gov/nursing_home/view/254385,Transitional Care Unit
USA-NY-47-NY-HealthProfiles-output-357,Northwell Health Stern Family Center for Rehabilitation,300 Community Drive,,Manhasset,11030,NY,US,(516) 562-8000,http://www.northshorelij.com/hospitals/location/stern-family-center-for-rehabilitation,https://profiles.health.ny.gov/nursing_home/view/150840,Residential Health Care; AIDS
USA-NY-47-NY-HealthProfiles-output-358,Northwoods Rehabilitation and Nursing Center at Moravia,7 Keeler Avenue,,Moravia,13118,NY,US,(315) 497-0440,,https://profiles.health.ny.gov/nursing_home/view/150323,Residential Health Care
USA-NY-47-NY-HealthProfiles-output-359,Norwegian Christian Home and Health Center,1270-67th Street,,Brooklyn,11219,NY,US,(718) 232-2322,http://www.nchhc.org/,https://profiles.health.ny.gov/nursing_home/view/150692,Residential Health Care
USA-NY-47-NY-HealthProfiles-output-360,Norwich Rehabilitation & Nursing Center,88 Calvary Drive,,Norwich,13815,NY,US,(607) 336-3915,http://www.norwichrehab.com/,https://profiles.health.ny.gov/nursing_home/view/150856,Residential Health Care
USA-NY-47-NY-HealthProfiles-output-361,Nottingham RCHF,1305 Nottingham Road,,Jamesville,13078,NY,US,(315) 446-0123,,https://profiles.health.ny.gov/nursing_home/view/150895,Residential Health Care
USA-NY-47-NY-HealthProfiles-output-362,"NY Congregational Nursing Center, Inc",135 Linden Boulevard,,Brooklyn,11226,NY,US,(718) 284-0039,http://www.nycnc.org/nursing.htm,https://profiles.health.ny.gov/nursing_home/view/150687,Residential Health Care
USA-NY-47-NY-HealthProfiles-output-363,Nyack Manor Nursing Home,476 Christian Herald Road,,Valley Cottage,10989,NY,US,(845) 268-6861,http://www.nyackmanorhealth.net/,https://profiles.health.ny.gov/nursing_home/view/150532,Residential Health Care
USA-NY-47-NY-HealthProfiles-output-364,NYS Veterans Home in NYC,178-50 Linden Blvd,,Jamaica,11434,NY,US,(718) 990-0329,http://www.nysvets.org/homes/stalbans/default.aspx,https://profiles.health.ny.gov/nursing_home/view/150870,Residential Health Care
USA-NY-47-NY-HealthProfiles-output-365,NYS Veterans Home,4211 State Highway 220,,Oxford,13830,NY,US,(607) 843-3100,http://www.nysvets.org/homes/oxford/,https://profiles.health.ny.gov/nursing_home/view/150336,Residential Health Care
USA-NY-47-NY-HealthProfiles-output-366,Oak Hill Manor Nursing Home,602 Hudson St,,Ithaca,14850,NY,US,(607) 272-8282,,https://profiles.health.ny.gov/nursing_home/view/150587,Residential Health Care
USA-NY-47-NY-HealthProfiles-output-367,"Oasis Rehabilitation and Nursing, LLC",6 Frowein Road,,Center Moriches,11934,NY,US,(631) 878-4400,http://www.suffolkassistedliving.com/cedar_lodge.php,https://profiles.health.ny.gov/nursing_home/view/150568,Residential Health Care
USA-NY-47-NY-HealthProfiles-output-368,Oceanside Care Center Inc,2914 Lincoln Avenue,,Oceanside,11572,NY,US,(516) 536-2300,http://www.oceansidecarecenter.com/,https://profiles.health.ny.gov/nursing_home/view/150457,Residential Health Care
USA-NY-47-NY-HealthProfiles-output-369,"Oceanview Nursing & Rehabilitation Center, LLC",315 Beach 9th Street,,Far Rockaway,11691,NY,US,(718) 471-6000,http://www.oceanviewnh.com/,https://profiles.health.ny.gov/nursing_home/view/150748,Residential Health Care
USA-NY-47-NY-HealthProfiles-output-370,Odd Fellow & Rebekah Rehabilitation & Health Care Center Inc.,104 Old Niagara Road,,Lockport,14094,NY,US,(716) 434-6324,http://www.oddfellowhcclkpt.org/,https://profiles.health.ny.gov/nursing_home/view/150469,Residential Health Care
USA-NY-47-NY-HealthProfiles-output-371,Oneida Healthcare,323 Genesee Street,,Oneida,13421,NY,US,(315) 363-6000,http://www.oneidahealthcare.org/patient-care-services/nursing-home,https://profiles.health.ny.gov/nursing_home/view/150406,Residential Health Care; Ventilator Dependent
USA-NY-47-NY-HealthProfiles-output-372,Ontario Center for Rehabilitation and Healthcare,3062 County Complex Drive,,Canandaigua,14424,NY,US,(585) 396-4340,http://www.co.ontario.ny.us/healthfacility,https://profiles.health.ny.gov/nursing_home/view/150505,Residential Health Care
USA-NY-47-NY-HealthProfiles-output-373,Orchard Manor Rehabilitation and Nursing Center,600 Bates Road,,Medina,14103,NY,US,(585) 798-4100,,https://profiles.health.ny.gov/nursing_home/view/150512,Residential Health Care
USA-NY-47-NY-HealthProfiles-output-374,Our Lady of Consolation Nursing and Rehabilitative Care Center,111 Beach Drive,,West Islip,11795,NY,US,(631) 587-1600,http://olc.chsli.org/,https://profiles.health.ny.gov/nursing_home/view/150576,Residential Health Care
USA-NY-47-NY-HealthProfiles-output-375,Our Lady of Mercy Life Center,2 Mercycare Lane,,Guilderland,12084,NY,US,(518) 464-8100,http://www.sphcs.org/OurLadyofMercyLifeCenter,https://profiles.health.ny.gov/nursing_home/view/150864,Residential Health Care
USA-NY-47-NY-HealthProfiles-output-376,Our Lady of Peace Nursing Care Residence,5285 Lewiston Road,,Lewiston,14092,NY,US,(716) 298-2900,http://www.ladyofpeace.org/,https://profiles.health.ny.gov/nursing_home/view/150914,Residential Health Care
USA-NY-47-NY-HealthProfiles-output-377,Oxford Nursing Home,144 So Oxford St,,Brooklyn,11217,NY,US,(718) 638-0360,,https://profiles.health.ny.gov/nursing_home/view/150699,Residential Health Care
USA-NY-47-NY-HealthProfiles-output-378,Ozanam Hall of Queens Nursing Home Inc,42-41 201st Street,,Bayside,11361,NY,US,(718) 423-2000,http://www.ozanamhall.org/,https://profiles.health.ny.gov/nursing_home/view/150734,Residential Health Care
USA-NY-47-NY-HealthProfiles-output-379,Palatine Nursing Home,154 Lafayette Street,,Palatine Bridge,13428,NY,US,(518) 673-5212,http://www.palatinenh.com/,https://profiles.health.ny.gov/nursing_home/view/150440,Residential Health Care
USA-NY-47-NY-HealthProfiles-output-380,Palisade Nursing Home Company Inc,5901 Palisade Avenue,,Bronx,10471,NY,US,(718) 549-8700,,https://profiles.health.ny.gov/nursing_home/view/150675,
USA-NY-47-NY-HealthProfiles-output-381,Palm Gardens Center for Nursing and Rehabilitation,615 Avenue C,,Brooklyn,11218,NY,US,(718) 633-3300,http://www.palmgardenscenter.com/,https://profiles.health.ny.gov/nursing_home/view/150700,Residential Health Care; Ventilator Dependent
USA-NY-47-NY-HealthProfiles-output-382,Park Avenue Extended Care Facility,425 National Boulevard,,Long Beach,11561,NY,US,(516) 431-2600,http://www.sentosacare.com/showfacilities.php?facilityid=22,https://profiles.health.ny.gov/nursing_home/view/150933,Residential Health Care
USA-NY-47-NY-HealthProfiles-output-383,Park Gardens Rehabilitation & Nursing Center LLC,6585 Broadway,,Riverdale,10471,NY,US,(718) 549-2200,http://www.parkgardensrnc.com/,https://profiles.health.ny.gov/nursing_home/view/150661,Residential Health Care
USA-NY-47-NY-HealthProfiles-output-384,Park Nursing Home,128 Beach 115th Street,,Rockaway Park,11694,NY,US,(718) 474-6400,,https://profiles.health.ny.gov/nursing_home/view/150749,Residential Health Care
USA-NY-47-NY-HealthProfiles-output-385,Park Ridge Nursing Home,1555 Long Pond Road,,Rochester,14626,NY,US,(585) 723-7205,http://www.unityhealth.org/senior_services/skilled_nursing/seniors_nursing_parkridge.aspx,https://profiles.health.ny.gov/nursing_home/view/150430,Residential Health Care
USA-NY-47-NY-HealthProfiles-output-386,Park Terrace Care Center,59-20 Van Doren Street,,Rego Park,11368,NY,US,(718) 592-9200,http://www.park-terrace.com/,https://profiles.health.ny.gov/nursing_home/view/150754,Residential Health Care; Traumatic Brain Injury
USA-NY-47-NY-HealthProfiles-output-387,Parker Jewish Institute for Health Care & Rehab,271-11 76th Avenue,,New Hyde Park,11040,NY,US,(718) 289-2350,http://www.parkerinstitute.org/,https://profiles.health.ny.gov/nursing_home/view/150735,Residential Health Care
USA-NY-47-NY-HealthProfiles-output-388,"Parkview Care and Rehabilitation Center, Inc.",5353 Merrick Road,,Massapequa,11758,NY,US,(516) 798-1800,http://www.parkviewcareandrehabcenter.com/,https://profiles.health.ny.gov/nursing_home/view/150463,Residential Health Care
USA-NY-47-NY-HealthProfiles-output-389,Pathways Nursing and Rehabilitation Center,1805 Providence Avenue,,Niskayuna,12309,NY,US,(518) 374-2212,http://www.pathways-rehab.com/,https://profiles.health.ny.gov/nursing_home/view/150841,Residential Health Care; Pediatric; Traumatic Brain Injury; Ventilator Dependent
USA-NY-47-NY-HealthProfiles-output-390,Peconic Bay Skilled Nursing Facility,1300 Roanoke Avenue,,Riverhead,11901,NY,US,(631) 548-6260,http://www.pbmchealth.org/medical-centers-and-services/skilled-nursing/,https://profiles.health.ny.gov/nursing_home/view/150825,Residential Health Care
USA-NY-47-NY-HealthProfiles-output-391,Peconic Landing at Southold,1500 Brecknock Road,,Greenport,11944,NY,US,(631) 477-3800,http://www.peconiclanding.com/,https://profiles.health.ny.gov/nursing_home/view/150912,Residential Health Care
USA-NY-47-NY-HealthProfiles-output-392,Pelham Parkway Nursing Care and Rehabilitation Facility LLC,2401 Laconia Ave,,Bronx,10469,NY,US,(718) 798-8600,http://www.pelhamparkwaynursing.com/,https://profiles.health.ny.gov/nursing_home/view/150666,Residential Health Care
USA-NY-47-NY-HealthProfiles-output-393,Penfield Place,1700 Penfield Rd,,Penfield,14526,NY,US,(585) 586-7433,http://www.hurlbutcare.com/our-communities/penfield-place,https://profiles.health.ny.gov/nursing_home/view/150434,Residential Health Care
USA-NY-47-NY-HealthProfiles-output-394,Peninsula Nursing and Rehabilitation Center,50-15 Beach Channel Drive,,Far Rockaway,11691,NY,US,(718) 734-2750,http://www.extendedcare.com/eldercare/facilities/ny/rockaway/peninsula/default.asp,https://profiles.health.ny.gov/nursing_home/view/150736,Residential Health Care
USA-NY-47-NY-HealthProfiles-output-395,Penn Yan Manor Nursing Home Inc,655 N Liberty Street,,Penn Yan,14527,NY,US,(315) 536-2311,http://www.pennyanmanor.com/,https://profiles.health.ny.gov/nursing_home/view/150642,Residential Health Care
USA-NY-47-NY-HealthProfiles-output-396,Pine Haven Home,Ny Route 217,,Philmont,12565,NY,US,(518) 672-4021,http://www.columbiacountyny.com/depts/pinehaven/,https://profiles.health.ny.gov/nursing_home/view/150342,Residential Health Care
USA-NY-47-NY-HealthProfiles-output-397,Pine Valley Center for Rehabilitation and Nursing,661 N Main St,,Spring Valley,10977,NY,US,(845) 356-0567,http://www.pinevalleyrehab.com/,https://profiles.health.ny.gov/nursing_home/view/150528,Residential Health Care
USA-NY-47-NY-HealthProfiles-output-398,Plattsburgh Rehabilitation and Nursing Center,8 Bushey Boulevard,,Plattsburgh,12901,NY,US,(518) 563-3261,http://www.evergreenvalleynh.com/,https://profiles.health.ny.gov/nursing_home/view/150338,Residential Health Care
USA-NY-47-NY-HealthProfiles-output-399,Pontiac Nursing Home,303 East River Road,,Oswego,13126,NY,US,(315) 343-1800,,https://profiles.health.ny.gov/nursing_home/view/150515,Residential Health Care
USA-NY-47-NY-HealthProfiles-output-400,Premier Genesee Center for Nursing and Rehabilitation,278 Bank Street,,Batavia,14020,NY,US,(585) 344-0584,http://www.co.genesee.ny.us/departments/nursinghome/,https://profiles.health.ny.gov/nursing_home/view/150391,Residential Health Care
USA-NY-47-NY-HealthProfiles-output-401,Presbyterian Home for Central New York Inc,4290 Middle Settlement Road,,New Hartford,13413,NY,US,(315) 797-7500,http://www.presbyterianhome.com/,https://profiles.health.ny.gov/nursing_home/view/150489,Residential Health Care
USA-NY-47-NY-HealthProfiles-output-402,Promenade Rehabilitation and Health Care Center,140 Beach 114th Street,,Rockaway Park,11694,NY,US,(718) 945-4600,http://www.digitizedrefreshment.com/promenade/index.html,https://profiles.health.ny.gov/nursing_home/view/150750,Residential Health Care; Ventilator Dependent
USA-NY-47-NY-HealthProfiles-output-403,"Providence Rest, Inc.",3304 Waterbury Avenue,,Bronx,10465,NY,US,(718) 931-3000,http://https://www.providencerest.org/,https://profiles.health.ny.gov/nursing_home/view/150644,Residential Health Care
USA-NY-47-NY-HealthProfiles-output-404,Putnam Nursing & Rehabilitation Center,404 Ludingtonville Road,,Holmes,12531,NY,US,(845) 878-3241,,https://profiles.health.ny.gov/nursing_home/view/150521,Residential Health Care
USA-NY-47-NY-HealthProfiles-output-405,Putnam Ridge,46 Mt Ebo Road North,,Brewster,10509,NY,US,(845) 278-3636,http://www.putnamridge.com/,https://profiles.health.ny.gov/nursing_home/view/150898,Residential Health Care
USA-NY-47-NY-HealthProfiles-output-406,Quantum Rehabilitation and Nursing LLC,63 Oakcrest Ave,,Middle Island,11953,NY,US,(631) 924-8830,http://www.lakeviewrehabilitation.com/,https://profiles.health.ny.gov/nursing_home/view/150569,Residential Health Care
USA-NY-47-NY-HealthProfiles-output-407,Queen of Peace Residence,110-30 221st St,,Queens Village,11429,NY,US,(718) 464-1800,http://www.littlesistersofthepoorqueens.org/,https://profiles.health.ny.gov/nursing_home/view/150732,Residential Health Care
USA-NY-47-NY-HealthProfiles-output-408,Queens Boulevard Extended Care Facility,61-11 Queens Boulevard,,Woodside,11377,NY,US,(718) 205-0287,http://www.qbecf.com/,https://profiles.health.ny.gov/nursing_home/view/150888,Residential Health Care
USA-NY-47-NY-HealthProfiles-output-409,Queens Nassau Rehabilitation and Nursing Center,520 Beach 19th Street,,Far Rockaway,11691,NY,US,(718) 471-7400,http://www.queensnassaurehab.com/,https://profiles.health.ny.gov/nursing_home/view/150758,Residential Health Care; Traumatic Brain Injury
USA-NY-47-NY-HealthProfiles-output-410,Rebekah Rehab and Extended Care Center,1072 Havemeyer Avenue,,Bronx,10462,NY,US,(718) 863-6200,http://www.rebekahrehab.org/,https://profiles.health.ny.gov/nursing_home/view/150650,Residential Health Care
USA-NY-47-NY-HealthProfiles-output-411,Regal Heights Rehabilitation and Health Care Center,70-05 35th Ave,,Jackson Heights,11372,NY,US,(718) 662-5100,http://www.regalheightsrehab.com/,https://profiles.health.ny.gov/nursing_home/view/150934,Residential Health Care
USA-NY-47-NY-HealthProfiles-output-412,Regeis Care Center,3200 Baychester Ave,,Bronx,10475,NY,US,(718) 320-3700,http://www.regeiscarecenter.com/,https://profiles.health.ny.gov/nursing_home/view/150663,Residential Health Care
USA-NY-47-NY-HealthProfiles-output-413,Regency Extended Care Center,65 Ashburton Avenue,,Yonkers,10701,NY,US,(914) 963-4000,http://regencyextendedcare.com/,https://profiles.health.ny.gov/nursing_home/view/150623,Residential Health Care
USA-NY-47-NY-HealthProfiles-output-414,Rego Park Nursing Home,111-26 Corona Avenue,,Flushing,11368,NY,US,(718) 592-6400,http://www.regoparkhealthcare.com/,https://profiles.health.ny.gov/nursing_home/view/150751,Residential Health Care
USA-NY-47-NY-HealthProfiles-output-415,Renaissance Rehabilitation and Nursing Care Center,4975 Albany Post Road,,Staatsburg,12580,NY,US,(845) 889-4500,,https://profiles.health.ny.gov/nursing_home/view/150358,Residential Health Care
USA-NY-47-NY-HealthProfiles-output-416,Resort Nursing Home,430 Beach 68th Street,,Arverne,11692,NY,US,(718) 474-5200,,https://profiles.health.ny.gov/nursing_home/view/150752,Residential Health Care; Ventilator Dependent
USA-NY-47-NY-HealthProfiles-output-417,Richmond Center for Rehabilitation and Specialty Healthcare,91 Tompkins Avenue,,Staten Island,10304,NY,US,(718) 876-4331,http://richmondrehab.net/,https://profiles.health.ny.gov/nursing_home/view/150871,Residential Health Care; AIDS; Behavioral Intervention; Ventilator Dependent
USA-NY-47-NY-HealthProfiles-output-418,River Ridge Living Center,100 Sandy Drive,,Amsterdam,12010,NY,US,(518) 843-3503,http://riverridgelc.com/,https://profiles.health.ny.gov/nursing_home/view/150438,Residential Health Care
USA-NY-47-NY-HealthProfiles-output-419,Riverdale Nursing Home,641 West 230th St,,Bronx,10463,NY,US,(718) 796-4800,http://www.riverdalenursinghome.com/,https://profiles.health.ny.gov/nursing_home/view/150662,Residential Health Care
USA-NY-47-NY-HealthProfiles-output-420,Riverledge Health Care and Rehabilitation Center,8101 State Highway 68,,Ogdensburg,13669,NY,US,(315) 393-0730,,https://profiles.health.ny.gov/nursing_home/view/150538,Residential Health Care
USA-NY-47-NY-HealthProfiles-output-421,Riverside Center for Rehabilitation and Nursing,90 No Main Street,,Castleton-on-hudson,12033,NY,US,(518) 732-7617,http://www.riversidecenterrehab.com/,https://profiles.health.ny.gov/nursing_home/view/150525,Residential Health Care
USA-NY-47-NY-HealthProfiles-output-422,Riverview Manor Health Care Center,510 Fifth Avenue,,Owego,13827,NY,US,(607) 687-2594,,https://profiles.health.ny.gov/nursing_home/view/150586,Residential Health Care
USA-NY-47-NY-HealthProfiles-output-423,Robinson Terrace,28652 State Highway 23,,Stamford,12167,NY,US,(607) 652-7521,http://www.robinsonterrace.com/longterm,https://profiles.health.ny.gov/nursing_home/view/150347,Residential Health Care
USA-NY-47-NY-HealthProfiles-output-424,Rockaway Care Center,353 Beach 48th Street,,Edgemere,11691,NY,US,(718) 471-5000,,https://profiles.health.ny.gov/nursing_home/view/150731,Residential Health Care; Ventilator Dependent
USA-NY-47-NY-HealthProfiles-output-425,"Rockville Skilled Nursing & Rehabilitation Center, LLC",50 Maine Avenue,,Rockville Centre,11570,NY,US,(516) 536-8000,,https://profiles.health.ny.gov/nursing_home/view/150451,Residential Health Care
USA-NY-47-NY-HealthProfiles-output-426,"Rome Memorial Hospital, Inc - RHCF",1500 North James Street,,Rome,13440,NY,US,(315) 338-7000,http://www.romehospital.org/Residential_Health_Care.aspx,https://profiles.health.ny.gov/nursing_home/view/150476,Residential Health Care
USA-NY-47-NY-HealthProfiles-output-427,Rosa Coplon Jewish Home and Infirmary,2700 North Forest Road,,Getzville,14068,NY,US,(716) 639-3330,http://www.weinbergcampus.org/WhatWeDo/Programs/RosaCoplonLivingCenter/tabid/108/Default.aspx,https://profiles.health.ny.gov/nursing_home/view/150865,Residential Health Care
USA-NY-47-NY-HealthProfiles-output-428,Rosary Hill Home,600 Linda Ave,,Hawthorne,10532,NY,US,(914) 769-0114,http://www.rosaryhillhome.org/about.htm,https://profiles.health.ny.gov/nursing_home/view/150634,Residential Health Care
USA-NY-47-NY-HealthProfiles-output-429,Roscoe Regional Rehabilitation & Residential Health Care Facility,420 Rockland Road,,Roscoe,12776,NY,US,(607) 498-4121,http://roscoecommunitynh.com/,https://profiles.health.ny.gov/nursing_home/view/150584,Residential Health Care
USA-NY-47-NY-HealthProfiles-output-430,Rosewood Rehabilitation and Nursing Center,284 Troy Road,,Rensselaer,12144,NY,US,(518) 286-1621,http://www.rosewoodrehabilitation.com/,https://profiles.health.ny.gov/nursing_home/view/150831,Residential Health Care
USA-NY-47-NY-HealthProfiles-output-431,Ross Center for Nursing and Rehabilitation,839 Suffolk Avenue,,Brentwood,11717,NY,US,(631) 273-4700,http://www.rosshealthcare.com/,https://profiles.health.ny.gov/nursing_home/view/150574,Residential Health Care
USA-NY-47-NY-HealthProfiles-output-432,Rutland Nursing Home Co Inc,585 Schenectady Ave,,Brooklyn,11203,NY,US,(718) 604-5000,http://www.kingsbrook.org/Healthcare_Services_Medical_Education/Centers_of_Excellence/Rutland_Nursing_Home.aspx,https://profiles.health.ny.gov/nursing_home/view/150681,Residential Health Care; Pediatric; Ventilator Dependent
USA-NY-47-NY-HealthProfiles-output-433,"Safire Rehabilitation of Northtowns, LLC",2799 Sheridan Drive,,Tonawanda,14150,NY,US,(716) 837-4466,,https://profiles.health.ny.gov/nursing_home/view/150365,Residential Health Care
USA-NY-47-NY-HealthProfiles-output-434,"Safire Rehabilitation of Southtowns, LLC",300 Dorrance Avenue,,Buffalo,14220,NY,US,(716) 566-5252,,https://profiles.health.ny.gov/nursing_home/view/150797,Residential Health Care
USA-NY-47-NY-HealthProfiles-output-435,Saints Joachim & Anne Nursing and Rehabilitation Center,2720 Surf Avenue,,Brooklyn,11224,NY,US,(718) 714-4800,http://www.ssjoachim.org/,https://profiles.health.ny.gov/nursing_home/view/150852,Residential Health Care
USA-NY-47-NY-HealthProfiles-output-436,Salem Hills Rehabilitation and Nursing Center,539 Route 22,P.o. Box 360,Purdys,10578,NY,US,(914) 277-3691,http://waterviewhills.com/,https://profiles.health.ny.gov/nursing_home/view/150824,Residential Health Care
USA-NY-47-NY-HealthProfiles-output-437,Samaritan Keep Nursing Home Inc,133 Pratt St,,Watertown,13601,NY,US,(315) 785-4400,http://www.samaritanhealth.com/our-services/long-term-care/samaritan-keep-home,https://profiles.health.ny.gov/nursing_home/view/150397,Residential Health Care
USA-NY-47-NY-HealthProfiles-output-438,"Samaritan Senior Village, Inc.",22691 Campus Drive,,Watertown,13601,NY,US,(315) 782-6800,http://www.samaritanhealth.com/our-services/long-term-care/samaritan-summit-village,https://profiles.health.ny.gov/nursing_home/view/240871,Residential Health Care
USA-NY-47-NY-HealthProfiles-output-439,San Simeon by the Sound Center for Nursing & Rehabilitation,61700 Route 48,Po Box 2122,Greenport,11944,NY,US,(631) 477-2110,http://www.sansimeonbythesound.org/,https://profiles.health.ny.gov/nursing_home/view/150563,Residential Health Care
USA-NY-47-NY-HealthProfiles-output-440,Sands Point Center for Health and Rehabilitation,1440 Port Washington Blvd,,Port Washington,11050,NY,US,(516) 719-9400,http://www.sandspointcenter.com/,https://profiles.health.ny.gov/nursing_home/view/150460,Residential Health Care
USA-NY-47-NY-HealthProfiles-output-441,Sans Souci Rehabilitation and Nursing Center,115 Park Avenue,,Yonkers,10703,NY,US,(914) 423-9800,http://sanssoucirehab.com/,https://profiles.health.ny.gov/nursing_home/view/150624,Residential Health Care
USA-NY-47-NY-HealthProfiles-output-442,"Sapphire Center for Rehabilitation and Nursing of Central Queens, LLC",35-15 Parsons Blvd,,Flushing,11354,NY,US,(718) 961-3500,http://www.flushingmanors.com/index.asp?pg=2,https://profiles.health.ny.gov/nursing_home/view/150743,Residential Health Care
USA-NY-47-NY-HealthProfiles-output-443,Sapphire Nursing at Wappingers,37 Mesier Avenue,,Wappingers Falls,12590,NY,US,(845) 297-3793,http://elant.org/?page_id=139,https://profiles.health.ny.gov/nursing_home/view/150352,Residential Health Care
USA-NY-47-NY-HealthProfiles-output-444,Saratoga Center for Rehab and Skilled Nursing Care,149 Ballston Avenue,,Ballston Spa,12020,NY,US,(518) 885-2288,http://www.saratoganursingcenter.com/,https://profiles.health.ny.gov/nursing_home/view/150545,Residential Health Care
USA-NY-47-NY-HealthProfiles-output-445,Sayville Nursing and Rehabilitation Center,300 Broadway Avenue,,Sayville,11782,NY,US,(631) 567-9300,http://www.petitefleurnursinghome.com/,https://profiles.health.ny.gov/nursing_home/view/150861,Residential Health Care
USA-NY-47-NY-HealthProfiles-output-446,Schaffer Extended Care Center,16 Guion Place,,New Rochelle,10802,NY,US,(914) 365-3702,http://www.ssmc.org/homepagesch.cfm?id=46,https://profiles.health.ny.gov/nursing_home/view/150617,Residential Health Care
USA-NY-47-NY-HealthProfiles-output-447,Schervier Nursing Care Center,2975 Independence Ave,,Bronx,10463,NY,US,(718) 548-1700,http://www.scherviercares.org/our-services-schervier-nursing-care-center.html,https://profiles.health.ny.gov/nursing_home/view/150651,Residential Health Care
USA-NY-47-NY-HealthProfiles-output-448,Schervier Pavilion,22 Van Duzer Place,,Warwick,10990,NY,US,(845) 987-5656,http://www.bschs.org/our-services-long-term-care-schervier-pavilion.html,https://profiles.health.ny.gov/nursing_home/view/150880,Residential Health Care
USA-NY-47-NY-HealthProfiles-output-449,Schoellkopf Health Center,621 Tenth Street,,Niagara Falls,14302,NY,US,(716) 278-4578,http://www.nfmmc.org/About/Nursing_Home,https://profiles.health.ny.gov/nursing_home/view/150470,Residential Health Care
USA-NY-47-NY-HealthProfiles-output-450,Schofield Residence,3333 Elmwood Avenue,,Kenmore,14217,NY,US,(716) 874-1566,http://www.schofieldcare.org/,https://profiles.health.ny.gov/nursing_home/view/150367,Residential Health Care
USA-NY-47-NY-HealthProfiles-output-451,Schulman and Schachne Institute for Nursing and Rehabilitation,555 Rockaway Parkway,,Brooklyn,11212,NY,US,(718) 240-5775,http://www.brookdalehospital.org/facilities/schulman-and-schachne-institute.html,https://profiles.health.ny.gov/nursing_home/view/150693,Residential Health Care; AIDS; Ventilator Dependent
USA-NY-47-NY-HealthProfiles-output-452,Schuyler Hospital Inc and Long Term Care Unit,220 Steuben Street,,Montour Falls,14865,NY,US,(607) 535-8611,http://www.schuylerhospital.org/index.php/aboutschuyler/seneca-view-skilled,https://profiles.health.ny.gov/nursing_home/view/150554,Residential Health Care
USA-NY-47-NY-HealthProfiles-output-453,Sea Crest Nursing and Rehabilitation Center,3035 West 24th St,,Brooklyn,11224,NY,US,(718) 372-4500,http://www.seacresthcc.com/,https://profiles.health.ny.gov/nursing_home/view/150706,Residential Health Care
USA-NY-47-NY-HealthProfiles-output-454,"Sea View Hospital, Rehabilitation Center and Home",460 Brielle Ave,,Staten Island,10314,NY,US,(718) 317-3000,http://www.nyc.gov/html/hhc/seaview/home.html,https://profiles.health.ny.gov/nursing_home/view/150774,Residential Health Care; Traumatic Brain Injury
USA-NY-47-NY-HealthProfiles-output-455,Seagate Rehabilitation and Nursing Center,3015 W 29 St,,Brooklyn,11224,NY,US,(718) 266-5700,http://www.mjhs.org/rehab-and-nursing-centers/shorefront/,https://profiles.health.ny.gov/nursing_home/view/150691,Residential Health Care
USA-NY-47-NY-HealthProfiles-output-456,Seneca Health Care Center,2987 Seneca Street,,West Seneca,14224,NY,US,(716) 828-0500,http://www.mcguiregroup.com/seneca%20page.html,https://profiles.health.ny.gov/nursing_home/view/150380,Residential Health Care
USA-NY-47-NY-HealthProfiles-output-457,Seneca Hill Manor Inc,20 Manor Drive,,Oswego,13126,NY,US,(315) 349-5300,http://www.oswegohealth.org/the-manor/index.cfm,https://profiles.health.ny.gov/nursing_home/view/150928,Residential Health Care
USA-NY-47-NY-HealthProfiles-output-458,"Seneca Nursing & Rehabilitation Center, LLC",200 Douglas Drive,,Waterloo,13165,NY,US,(315) 539-9202,http://www.hurlbutcare.com/our-communities/seneca-nursing-and-rehabilitation-center,https://profiles.health.ny.gov/nursing_home/view/150555,Residential Health Care
USA-NY-47-NY-HealthProfiles-output-459,Seton Health at Schuyler Ridge Residential Healthcare,1 Abele Boulevard,,Clifton Park,12065,NY,US,(518) 371-1400,http://www.schuylerridge.org/,https://profiles.health.ny.gov/nursing_home/view/150872,Residential Health Care
USA-NY-47-NY-HealthProfiles-output-460,Sheepshead Nursing & Rehabilitation Center,2840 Knapp St,,Brooklyn,11235,NY,US,(718) 646-5700,http://www.snrhc.com/,https://profiles.health.ny.gov/nursing_home/view/150703,Residential Health Care
USA-NY-47-NY-HealthProfiles-output-461,Shore View Nursing & Rehabilitation Center,2865 Brighton 3rd Street,,Brooklyn,11235,NY,US,(718) 891-4400,http://www.shoreviewrehab.com/,https://profiles.health.ny.gov/nursing_home/view/150704,Residential Health Care
USA-NY-47-NY-HealthProfiles-output-462,Silver Lake Specialized Rehabilitation and Care Center,275 Castleton Avenue,,Staten Island,10301,NY,US,(718) 447-7800,http://www.silverlakesc.com/,https://profiles.health.ny.gov/nursing_home/view/150778,Residential Health Care; Ventilator Dependent
USA-NY-47-NY-HealthProfiles-output-463,Silvercrest,144-45 87th Avenue,,Jamaica,11435,NY,US,(718) 480-4026,http://www.silvercrest.org/,https://profiles.health.ny.gov/nursing_home/view/150851,Residential Health Care; Ventilator Dependent
USA-NY-47-NY-HealthProfiles-output-464,"SKY View Rehabilitation and Health Care Center, LLC",1280 Albany Post Road,,Croton On Hudson,10520,NY,US,(914) 271-5151,http://www.skyviewrehab.com/home.html,https://profiles.health.ny.gov/nursing_home/view/150629,Residential Health Care
USA-NY-47-NY-HealthProfiles-output-465,Smithtown Center for Rehabilitation & Nursing Care,391 North Country Road,,Smithtown,11787,NY,US,(631) 361-2020,http://www.smithtowncenter.com/,https://profiles.health.ny.gov/nursing_home/view/150821,Residential Health Care
USA-NY-47-NY-HealthProfiles-output-466,Sodus Rehabilitation & Nursing Center,6884 Maple Ave,,Sodus,14551,NY,US,(315) 483-9118,http://www.blossomview.com/,https://profiles.health.ny.gov/nursing_home/view/150604,Residential Health Care
USA-NY-47-NY-HealthProfiles-output-467,Soldiers and Sailors Memorial Hospital Extended Care Unit,418 North Main Street,,Penn Yan,14527,NY,US,(315) 531-2700,http://www.flhealth.org/body.cfm?id=318,https://profiles.health.ny.gov/nursing_home/view/150641,Residential Health Care
USA-NY-47-NY-HealthProfiles-output-468,Somers Manor Rehabilitation & Nursing Center,Route 100,,Somers,10589,NY,US,(914) 232-5101,http://www.somersmanor.com/,https://profiles.health.ny.gov/nursing_home/view/150637,Residential Health Care
USA-NY-47-NY-HealthProfiles-output-469,South Nassau Communities Hospital,One Healthy Way,,Oceanside,11572,NY,US,(516) 632-3000,,https://profiles.health.ny.gov/nursing_home/view/1160394,Transitional Care Unit
USA-NY-47-NY-HealthProfiles-output-470,South Point Plaza Nursing and Rehabilitation Center,One Long Beach Road,,Island Park,11558,NY,US,(516) 432-0300,http://southpointplazarehab.com/index.html,https://profiles.health.ny.gov/nursing_home/view/150467,Residential Health Care
USA-NY-47-NY-HealthProfiles-output-471,South Shore Rehabilitation and Nursing Center,275 W Merrick Road,,Freeport,11520,NY,US,(516) 623-4000,http://www.extendedcare.com/ElderCare/Facilities/NY/Freeport/SouthShore/,https://profiles.health.ny.gov/nursing_home/view/150447,Residential Health Care; Ventilator Dependent
USA-NY-47-NY-HealthProfiles-output-472,Split Rock Rehabilitation and Health Care Center,3525 Baychester Ave,,Bronx,10466,NY,US,(718) 798-8900,,https://profiles.health.ny.gov/nursing_home/view/150664,Residential Health Care; Ventilator Dependent
USA-NY-47-NY-HealthProfiles-output-473,Sprain Brook Manor Rehab,77 Jackson Ave,,Scarsdale,10583,NY,US,(914) 472-3200,http://sprainbrookmanor.com/,https://profiles.health.ny.gov/nursing_home/view/150627,Residential Health Care
USA-NY-47-NY-HealthProfiles-output-474,Spring Creek Rehabilitation & Nursing Care Center,660 Louisiana Avenue,,Brooklyn,11239,NY,US,(718) 669-7100,,https://profiles.health.ny.gov/nursing_home/view/150705,Residential Health Care
USA-NY-47-NY-HealthProfiles-output-475,St Anns Community,1500 Portland Avenue,,Rochester,14621,NY,US,(585) 697-6000,http://www.stannscommunity.com/communities/st-anns-home/,https://profiles.health.ny.gov/nursing_home/view/150432,Residential Health Care
USA-NY-47-NY-HealthProfiles-output-476,St Anns Community,920 Cherry Ridge Boulevard,,Webster,14580,NY,US,(585) 697-6999,http://www.cherryridgecommunity.com/,https://profiles.health.ny.gov/nursing_home/view/150433,Residential Health Care
USA-NY-47-NY-HealthProfiles-output-477,St Cabrini Nursing Home,115 Broadway,,Dobbs Ferry,10522,NY,US,(914) 693-6800,http://www.cabrini-eldercare.org/services/skilled-nursing/st-cabrini-nursing,https://profiles.health.ny.gov/nursing_home/view/150630,Residential Health Care
USA-NY-47-NY-HealthProfiles-output-478,St Camillus Residential Health Care Facility,813 Fay Road,,Syracuse,13219,NY,US,(315) 488-2951,http://www.st-camillus.org/,https://profiles.health.ny.gov/nursing_home/view/150498,Residential Health Care; Traumatic Brain Injury
USA-NY-47-NY-HealthProfiles-output-479,St Catherine Laboure Health Care Center,2157 Main Street,,Buffalo,14214,NY,US,(716) 862-1450,http://www.chsbuffalo.org/Facilities/SSFacilities/SCL,https://profiles.health.ny.gov/nursing_home/view/150363,Residential Health Care
USA-NY-47-NY-HealthProfiles-output-480,St Catherine of Siena Nursing and Rehabilitation Care Center,52 Route 25a,,Smithtown,11787,NY,US,(631) 862-3900,http://www.stcatherinenursingandrehab.org/,https://profiles.health.ny.gov/nursing_home/view/150819,Residential Health Care
USA-NY-47-NY-HealthProfiles-output-481,"St Johnland Nursing Center, Inc",395 Sunken Meadow Road,,Kings Park,11754,NY,US,(631) 269-5800,http://www.stjohnland.org/home.php,https://profiles.health.ny.gov/nursing_home/view/150580,Residential Health Care; Traumatic Brain Injury
USA-NY-47-NY-HealthProfiles-output-482,St Johns Health Care Corporation,150 Highland Avenue,,Rochester,14620,NY,US,(585) 271-5413,http://stjohnsliving.org/st-johns-home/home,https://profiles.health.ny.gov/nursing_home/view/150413,Residential Health Care
USA-NY-47-NY-HealthProfiles-output-483,St Johnsville Rehabilitation and Nursing Center,7 Timmerman Avenue,,St Johnsville,13452,NY,US,(518) 568-5037,http://www.stjrnc.com/,https://profiles.health.ny.gov/nursing_home/view/150842,Residential Health Care
USA-NY-47-NY-HealthProfiles-output-484,St Josephs Home,950 Linden Street,,Ogdensburg,13669,NY,US,(315) 393-3780,http://www.stjh.org/,https://profiles.health.ny.gov/nursing_home/view/150537,Residential Health Care
USA-NY-47-NY-HealthProfiles-output-485,St Josephs Hosp Nursing Home of Yonkers N Y Inc,127 South Broadway,,Yonkers,10701,NY,US,(914) 378-7358,http://www.saintjosephs.org/,https://profiles.health.ny.gov/nursing_home/view/150625,Residential Health Care
USA-NY-47-NY-HealthProfiles-output-486,St Josephs Hospital - Skilled Nursing Facility,555 St. Joseph's Boulevard,,Elmira,14902,NY,US,(607) 733-6541,http://www.arnothealth.org/long-term-care-st-josephs-hospital,https://profiles.health.ny.gov/nursing_home/view/150330,Residential Health Care
USA-NY-47-NY-HealthProfiles-output-487,St Josephs Hospital,555 St. Joseph's Boulevard,,Elmira,14901,NY,US,(607) 733-6541,http://www.stjosephs.org/getpage.php?name=skilled_nursing,https://profiles.health.ny.gov/nursing_home/view/241169,Transitional Care Unit
USA-NY-47-NY-HealthProfiles-output-488,St Luke Residential Health Care Facility Inc,299 East River Road,,Oswego,13126,NY,US,(315) 342-3166,http://www.stlukehs.com/,https://profiles.health.ny.gov/nursing_home/view/150517,Residential Health Care
USA-NY-47-NY-HealthProfiles-output-489,St Luke's Home,1650 Champlin Avenue,,Utica,13502,NY,US,(315) 624-8600,http://www.faxtonstlukes.com/st-lukes-home,https://profiles.health.ny.gov/nursing_home/view/150894,Residential Health Care
USA-NY-47-NY-HealthProfiles-output-490,St Margarets Center,27 Hackett Blvd,,Albany,12208,NY,US,(518) 591-3300,http://www.stmargaretscenter.org/htmlweb/homepage.html,https://profiles.health.ny.gov/nursing_home/view/150298,Residential Health Care; Pediatric; Pediatric Ventilator Dependent
USA-NY-47-NY-HealthProfiles-output-491,St Marys Center Inc,516 West 126th Street,,New York,10027,NY,US,(212) 662-1826,http://stmarysharlem.com/,https://profiles.health.ny.gov/nursing_home/view/150857,AIDS
USA-NY-47-NY-HealthProfiles-output-492,St Marys Hospital for Children Inc,29-01 216 Street,,Bayside,11360,NY,US,(718) 281-8800,http://stmaryskids.org/,https://profiles.health.ny.gov/nursing_home/view/150730,Residential Health Care; Coma Recovery; Pediatric; Traumatic Brain Injury
USA-NY-47-NY-HealthProfiles-output-493,St Patricks Home,66 Van Cortlandt Park South,,Bronx,10463,NY,US,(718) 519-2800,http://www.stpatrickshome.org/,https://profiles.health.ny.gov/nursing_home/view/150645,Residential Health Care
USA-NY-47-NY-HealthProfiles-output-494,"St Regis Nursing Home, Inc.",89 Grove Street,,Massena,13662,NY,US,(315) 769-2494,http://www.stregisnh.com/,https://profiles.health.ny.gov/nursing_home/view/150540,Residential Health Care
USA-NY-47-NY-HealthProfiles-output-495,St Vincent Depaul Residence,900 Intervale Avenue,,Bronx,10459,NY,US,(917) 645-9225,http://www.archcare.org/san-vicente-de-paul.html,https://profiles.health.ny.gov/nursing_home/view/150858,Residential Health Care
USA-NY-47-NY-HealthProfiles-output-496,St. James Rehabilitation & Healthcare Center,275 Moriches Road,,St James,11780,NY,US,(631) 862-8000,http://stjameshealthcarecenter.com/,https://profiles.health.ny.gov/nursing_home/view/150579,Residential Health Care
USA-NY-47-NY-HealthProfiles-output-497,St. John's Penfield Homes,65 Sonoma Drive,,Fairport,14450,NY,US,(585) 292-5250,,https://profiles.health.ny.gov/nursing_home/view/234609,Residential Health Care
USA-NY-47-NY-HealthProfiles-output-498,St. Josephs Place,160 East Main Street,,Port Jervis,12771,NY,US,(845) 856-5351,http://bschs.bonsecours.com/our-services-long-term-care-st-josephs-place.html,https://profiles.health.ny.gov/nursing_home/view/150830,Residential Health Care
USA-NY-47-NY-HealthProfiles-output-499,St. Peter's Nursing and Rehabilitation Center,301 Hackett Blvd,,Albany,12208,NY,US,(518) 525-7600,http://www.sphcs.org/StPetersNursingRehabilitationCenter,https://profiles.health.ny.gov/nursing_home/view/150297,Residential Health Care
USA-NY-47-NY-HealthProfiles-output-500,Staten Island Care Center,200 Lafayette Avenue,,Staten Island,10301,NY,US,(718) 448-9000,,https://profiles.health.ny.gov/nursing_home/view/150781,Residential Health Care
USA-NY-47-NY-HealthProfiles-output-501,Steuben Center for Rehabilitation and Healthcare,7009 Rumsey Street Extension,,Bath,14810,NY,US,(607) 776-7651,http://www.schcf.org/,https://profiles.health.ny.gov/nursing_home/view/150558,Residential Health Care
USA-NY-47-NY-HealthProfiles-output-502,Suffolk Center for Rehabilitation and Nursing,25 Schoenfeld Blvd,,Patchogue,11772,NY,US,(631) 289-7700,http://www.suffolkrehab.com/,https://profiles.health.ny.gov/nursing_home/view/150562,Residential Health Care
USA-NY-47-NY-HealthProfiles-output-503,Sullivan County Adult Care Center,256 Sunset Lake Road,P.o. Box 671,Liberty,12754,NY,US,(845) 292-8640,http://www.co.sullivan.ny.us/Default.aspx?TabId=3122,https://profiles.health.ny.gov/nursing_home/view/150583,Residential Health Care
USA-NY-47-NY-HealthProfiles-output-504,Sunharbor Manor,255 Warner Avenue,,Roslyn Heights,11577,NY,US,(516) 621-5400,http://www.sunharbormanor.com/,https://profiles.health.ny.gov/nursing_home/view/150462,Residential Health Care
USA-NY-47-NY-HealthProfiles-output-505,Sunnyside Care Center,7000 Collamer Rd,,East Syracuse,13057,NY,US,(315) 656-7218,,https://profiles.health.ny.gov/nursing_home/view/150501,Residential Health Care
USA-NY-47-NY-HealthProfiles-output-506,Sunrise Manor Center for Nursing and Rehabilitation,1325 Brentwood Road,,Bay Shore,11706,NY,US,(631) 665-4960,,https://profiles.health.ny.gov/nursing_home/view/150573,Residential Health Care
USA-NY-47-NY-HealthProfiles-output-507,"Sunset Nursing and Rehabilitation Center, Inc.",232 Academy Street,,Boonville,13309,NY,US,(315) 942-4301,http://www.sunsetnrc.com/,https://profiles.health.ny.gov/nursing_home/view/150486,Residential Health Care
USA-NY-47-NY-HealthProfiles-output-508,Sunshine Children's Home and Rehab Center,15 Spring Valley Road,,Ossining,10562,NY,US,(914) 333-7061,http://sunshinechildrenshome.org/,https://profiles.health.ny.gov/nursing_home/view/150636,Residential Health Care; Pediatric
USA-NY-47-NY-HealthProfiles-output-509,Surge Rehabilitation and Nursing LLC,49 Oakcrest Avenue,,Middle Island,11953,NY,US,(631) 924-8820,http://www.oakcares.com/,https://profiles.health.ny.gov/nursing_home/view/150567,Residential Health Care
USA-NY-47-NY-HealthProfiles-output-510,"Susquehanna Nursing & Rehabilitation Center, LLC",282 Riverside Dr,,Johnson City,13790,NY,US,(607) 729-9206,http://www.susnursing.com/programs/susquehanna-nursing-rehabilitation-center/,https://profiles.health.ny.gov/nursing_home/view/150314,Residential Health Care
USA-NY-47-NY-HealthProfiles-output-511,Sutton Park Center for Nursing and Rehabilitation,31 Lockwood Avenue,,New Rochelle,10801,NY,US,(914) 576-0600,http://www.suttonpark.net/,https://profiles.health.ny.gov/nursing_home/view/150616,Residential Health Care
USA-NY-47-NY-HealthProfiles-output-512,Syracuse Home Association,7740 Meigs Road,,Baldwinsville,13027,NY,US,(315) 638-2521,http://www.mcharrielife.org/,https://profiles.health.ny.gov/nursing_home/view/150848,Residential Health Care
USA-NY-47-NY-HealthProfiles-output-513,Tarrytown Hall Care Center,20 Wood Court,,Tarrytown,10591,NY,US,(914) 631-2600,http://www.tarryhallcc.com/,https://profiles.health.ny.gov/nursing_home/view/150628,Residential Health Care
USA-NY-47-NY-HealthProfiles-output-514,Ten Broeck Commons,One Commons Drive,,Lake Katrine,12449,NY,US,(845) 336-6666,http://www.tenbroeckcommons.com/,https://profiles.health.ny.gov/nursing_home/view/150863,Residential Health Care
USA-NY-47-NY-HealthProfiles-output-515,Terence Cardinal Cooke Health Care Center,1249 Fifth Avenue,,New York,10029,NY,US,(212) 360-3600,http://www.archcare.org/terence-cardinal-cooke.html,https://profiles.health.ny.gov/nursing_home/view/150798,Residential Health Care; AIDS
USA-NY-47-NY-HealthProfiles-output-516,Teresian House Nursing Home Co Inc,200 Washington Ave Ext,,Albany,12203,NY,US,(518) 456-2000,http://www.teresianhouse.com/,https://profiles.health.ny.gov/nursing_home/view/150301,Residential Health Care
USA-NY-47-NY-HealthProfiles-output-517,Terrace View Long Term Care Facility,462 Grider Street,,Buffalo,14215,NY,US,(716) 551-7100,http://www.ecmc.edu/progress/terrace/,https://profiles.health.ny.gov/nursing_home/view/150291,Residential Health Care; Behavioral Intervention; Ventilator Dependent
USA-NY-47-NY-HealthProfiles-output-518,The Amsterdam at Harborside,300 East Overlook,,Port Washington,11050,NY,US,(516) 472-6632,http://www.theamsterdamatharborside.com/,https://profiles.health.ny.gov/nursing_home/view/208958,Residential Health Care
USA-NY-47-NY-HealthProfiles-output-519,The Baptist Home at Brookmeade,46 Brookmeade Drive,,Rhinebeck,12572,NY,US,(845) 876-2071,http://communityatbrookmeade.com/the-baptist-home/,https://profiles.health.ny.gov/nursing_home/view/150355,Residential Health Care
USA-NY-47-NY-HealthProfiles-output-520,"The Brightonian, Inc",1919 Elmwood Avenue,,Rochester,14620,NY,US,(585) 271-8700,http://www.hurlbutcare.com/our-communities/the-brightonian,https://profiles.health.ny.gov/nursing_home/view/150422,Residential Health Care
USA-NY-47-NY-HealthProfiles-output-521,The Bronx-Lebanon Highbridge Woodycrest Center,936 Woodycrest Avenue,,Bronx,10452,NY,US,(718) 293-3200,,https://profiles.health.ny.gov/nursing_home/view/150849,AIDS
USA-NY-47-NY-HealthProfiles-output-522,The Capital Living Nursing and Rehabilitation Centre,526 Altamont Ave,,Schenectady,12303,NY,US,(518) 346-6121,http://www.clrchealth.com/facilities/?id=11,https://profiles.health.ny.gov/nursing_home/view/150546,Residential Health Care
USA-NY-47-NY-HealthProfiles-output-523,The Center for Nursing and Rehabilitation at Hoosick Falls,21 Danforth Street,,Hoosick Falls,12090,NY,US,(518) 686-4371,http://nursingandrehab.org/,https://profiles.health.ny.gov/nursing_home/view/150524,Residential Health Care
USA-NY-47-NY-HealthProfiles-output-524,The Chateau at Brooklyn Rehabilitation and Nursing Center,3457 Nostrand Avenue,,Brooklyn,11229,NY,US,(718) 615-1100,http://crowncares.com/,https://profiles.health.ny.gov/nursing_home/view/150698,Residential Health Care
USA-NY-47-NY-HealthProfiles-output-525,The Citadel Rehab and Nursing Center at Kingsbridge,3400 Cannon Place,,Bronx,10463,NY,US,(718) 796-8100,http://khrcc.com/,https://profiles.health.ny.gov/nursing_home/view/150658,Residential Health Care
USA-NY-47-NY-HealthProfiles-output-526,"The Commons On St. Anthony Street, A Loretto Skilled Nursing Community",3 St Anthony Street,,Auburn,13021,NY,US,(315) 253-0351,http://www.mercyrehab.net/,https://profiles.health.ny.gov/nursing_home/view/150322,Residential Health Care
USA-NY-47-NY-HealthProfiles-output-527,"The Cottages at Garden Grove, A Skilled Nursing Community",5460 Meltzer Court,,Cicero,13039,NY,US,(315) 474-4431,http://www.rosewoodheights.org/,https://profiles.health.ny.gov/nursing_home/view/150500,Residential Health Care
USA-NY-47-NY-HealthProfiles-output-528,The Country Manor Nursing and Rehabilitation Centre,1045 West Street,,Carthage,13619,NY,US,(315) 493-3220,http://www.countrymanorcaring.com,https://profiles.health.ny.gov/nursing_home/view/150401,Residential Health Care
USA-NY-47-NY-HealthProfiles-output-529,The Crossings Nursing and Rehabilitation Centre,217 East Avenue,,Minoa,13116,NY,US,(315) 656-7277,http://crossingscaring.com/,https://profiles.health.ny.gov/nursing_home/view/150796,Residential Health Care
USA-NY-47-NY-HealthProfiles-output-530,The Eleanor Nursing Care Center,419 North Quaker Lane,,Hyde Park,12538,NY,US,(845) 229-9177,http://www.qhmllc.net/,https://profiles.health.ny.gov/nursing_home/view/150357,Residential Health Care
USA-NY-47-NY-HealthProfiles-output-531,The Emerald Peek Rehabilitation and Nursing Center,2000 E Main Street,,Peekskill,10566,NY,US,(914) 737-8400,,https://profiles.health.ny.gov/nursing_home/view/150606,Residential Health Care
USA-NY-47-NY-HealthProfiles-output-532,The Enclave at Port Chester Rehabilitation and Nursing Center,1000 High St,,Port Chester,10573,NY,US,(914) 937-1200,http://www.portchesternursing.com/,https://profiles.health.ny.gov/nursing_home/view/150622,Residential Health Care
USA-NY-47-NY-HealthProfiles-output-533,The Friendly Home,3156 East Avenue,,Rochester,14618,NY,US,(585) 381-1600,http://friendlyseniorliving.org/friendly-home,https://profiles.health.ny.gov/nursing_home/view/150423,Residential Health Care
USA-NY-47-NY-HealthProfiles-output-534,The Grand Pavilion for Rehab & Nursing at Rockville Centre,41 Maine Avenue,,Rockville Centre,11570,NY,US,(516) 536-7730,http://www.extendedcare.com/ElderCare/Facilities/NY/RockvilleCentre/RockvilleNursing/,https://profiles.health.ny.gov/nursing_home/view/150450,Residential Health Care
USA-NY-47-NY-HealthProfiles-output-535,The Grand Rehabilitation and Nursing at Chittenango,331 Russell Street,,Chittenango,13037,NY,US,(315) 687-9169,http://chittenangocenter.net/,https://profiles.health.ny.gov/nursing_home/view/150408,Residential Health Care
USA-NY-47-NY-HealthProfiles-output-536,The Grand Rehabilitation and Nursing at Guilderland,428 State Route 146,,Altamont,12009,NY,US,(518) 861-5141,,https://profiles.health.ny.gov/nursing_home/view/150306,Residential Health Care
USA-NY-47-NY-HealthProfiles-output-537,The Grand Rehabilitation and Nursing at Pawling,9 Reservoir Road,,Pawling,12564,NY,US,(845) 855-5700,http://dutchesscenter.net/about-us/,https://profiles.health.ny.gov/nursing_home/view/150351,Residential Health Care
USA-NY-47-NY-HealthProfiles-output-538,The Grand Rehabilitation and Nursing at Queens,157-15 19th Avenue,,Whitestone,11357,NY,US,(718) 746-0400,http://queenscenter.net/,https://profiles.health.ny.gov/nursing_home/view/150738,Residential Health Care
USA-NY-47-NY-HealthProfiles-output-539,The Grand Rehabilitation and Nursing at River Valley,140 Main St,,Poughkeepsie,12601,NY,US,(845) 454-7600,,https://profiles.health.ny.gov/nursing_home/view/150899,Residential Health Care
USA-NY-47-NY-HealthProfiles-output-540,The Grand Rehabilitation and Nursing at Rome,801 North James Street,,Rome,13440,NY,US,(315) 337-0550,http://romerehab.net/,https://profiles.health.ny.gov/nursing_home/view/150478,Residential Health Care
USA-NY-47-NY-HealthProfiles-output-541,The Grove at Valhalla Rehabilitation and Nursing Center,61 Grasslands Road,,Valhalla,10595,NY,US,(914) 681-8400,http://hebrewhospitalhome.org/,https://profiles.health.ny.gov/nursing_home/view/150924,Residential Health Care
USA-NY-47-NY-HealthProfiles-output-542,The Hamptons Center for Rehabilitation and Nursing,64 County Road 39,,Southampton,11968,NY,US,(631) 702-1000,,https://profiles.health.ny.gov/nursing_home/view/150916,Residential Health Care
USA-NY-47-NY-HealthProfiles-output-543,The Heritage Rehabilitation and Health Care Center,5606 15th Ave,,Brooklyn,11219,NY,US,(718) 851-1000,http://theheritagecenter.com/,https://profiles.health.ny.gov/nursing_home/view/150701,Residential Health Care
USA-NY-47-NY-HealthProfiles-output-544,The Highlands at Brighton,5901 Lac De Ville Blvd,,Rochester,14618,NY,US,(585) 442-7960,http://www.urmc.rochester.edu/highlands-at-brighton/,https://profiles.health.ny.gov/nursing_home/view/150875,Residential Health Care; Behavioral Intervention; Ventilator Dependent
USA-NY-47-NY-HealthProfiles-output-545,The Hurlbut,1177 East Henrietta Rd,,Rochester,14623,NY,US,(585) 424-4770,http://www.hurlbutcare.com/our-communities/the-hurlbut,https://profiles.health.ny.gov/nursing_home/view/150424,Residential Health Care
USA-NY-47-NY-HealthProfiles-output-546,The Knolls,55 Grasslands Road,,Valhalla,10595,NY,US,(914) 739-6700,http://www.westchestermeadows.org/,https://profiles.health.ny.gov/nursing_home/view/150913,Residential Health Care
USA-NY-47-NY-HealthProfiles-output-547,The Mountain View Nursing and Rehabilitation Centre,1 Jansen Road,P.o. Box 909,New Paltz,12561,NY,US,(845) 255-0830,http://mountainviewcaring.com/,https://profiles.health.ny.gov/nursing_home/view/150591,Residential Health Care
USA-NY-47-NY-HealthProfiles-output-548,"The New Jewish Home, Manhattan",120 West 106th Street,,New York,10025,NY,US,(212) 870-5000,http://www.jewishhome.org/our-services/our-campuses/manhattan,https://profiles.health.ny.gov/nursing_home/view/150725,Residential Health Care
USA-NY-47-NY-HealthProfiles-output-549,"The New Jewish Home, Sarah Neuman",845 Palmer Avenue,,Mamaroneck,10543,NY,US,(914) 698-6005,http://www.jewishhome.org/our-services/our-campuses/sarah-neuman,https://profiles.health.ny.gov/nursing_home/view/150626,Residential Health Care
USA-NY-47-NY-HealthProfiles-output-550,The Orchard Nursing and Rehabilitation Centre,10421 State Route 40,,Granville,12832,NY,US,(518) 642-2346,http://orchardcaring.com/,https://profiles.health.ny.gov/nursing_home/view/150846,Residential Health Care
USA-NY-47-NY-HealthProfiles-output-551,The Osborn,101 Theall Road,,Rye,10580,NY,US,(914) 967-4100,http://www.theosborn.org/,https://profiles.health.ny.gov/nursing_home/view/150633,Residential Health Care
USA-NY-47-NY-HealthProfiles-output-552,The Pavilion at Queens for Rehabilitation & Nursing,36-17 Parsons Boulevard,,Flushing,11354,NY,US,(718) 961-4300,http://www.flushingmanors.com/,https://profiles.health.ny.gov/nursing_home/view/150923,Residential Health Care; Ventilator Dependent
USA-NY-47-NY-HealthProfiles-output-553,The Phoenix Rehabilitation and Nursing Center,140 St Edwards Street,,Brooklyn,11201,NY,US,(718) 858-6400,http://atlantisrehab.net/,https://profiles.health.ny.gov/nursing_home/view/150709,Residential Health Care
USA-NY-47-NY-HealthProfiles-output-554,The Pines at Catskill Center for Nursing & Rehabilitation,154 Jefferson Heights,,Catskill,12414,NY,US,(518) 943-5151,http://www.pinescatskill.com/,https://profiles.health.ny.gov/nursing_home/view/150392,Residential Health Care
USA-NY-47-NY-HealthProfiles-output-555,The Pines at Glens Falls Center for Nursing & Rehabilitation,170 Warren Street,,Glens Falls,12801,NY,US,(518) 793-5163,http://www.pinesglensfalls.com/,https://profiles.health.ny.gov/nursing_home/view/150595,Residential Health Care
USA-NY-47-NY-HealthProfiles-output-556,The Pines at Poughkeepsie Center for Nursing & Rehabilitation,100 Franklin Street,,Poughkeepsie,12601,NY,US,(845) 454-4100,http://www.pinesatpoughkeepsie.com/,https://profiles.health.ny.gov/nursing_home/view/150350,Residential Health Care
USA-NY-47-NY-HealthProfiles-output-557,The Pines at Utica Center for Nursing & Rehabilitation,1800 Butterfield Ave,,Utica,13501,NY,US,(315) 797-3570,http://www.pinesutica.com/,https://profiles.health.ny.gov/nursing_home/view/150484,Residential Health Care
USA-NY-47-NY-HealthProfiles-output-558,The Pines Healthcare & Rehabilitation Centers Machias Campus,9822 Route 16,,Machias,14101,NY,US,(716) 353-8516,,https://profiles.health.ny.gov/nursing_home/view/150320,Residential Health Care
USA-NY-47-NY-HealthProfiles-output-559,The Pines Healthcare & Rehabilitation Centers Olean Campus,2245 West State Street,,Olean,14760,NY,US,(716) 373-1910,,https://profiles.health.ny.gov/nursing_home/view/150317,Residential Health Care
USA-NY-47-NY-HealthProfiles-output-560,The Plaza Rehab and Nursing Center,100 West Kingsbridge Road,,Bronx,10468,NY,US,(718) 410-1500,http://www.jewishhome.org/our-services/our-campuses/bronx,https://profiles.health.ny.gov/nursing_home/view/150652,Residential Health Care
USA-NY-47-NY-HealthProfiles-output-561,The Riverside,150 Riverside Drive,,New York,10024,NY,US,(646) 505-3500,http://www.archcare.org/kateri-residence.html,https://profiles.health.ny.gov/nursing_home/view/150688,Residential Health Care
USA-NY-47-NY-HealthProfiles-output-562,"The Shore Winds, LLC",425 Beach Avenue,,Rochester,14612,NY,US,(585) 663-0930,http://www.hurlbutcare.com/our-communities/the-shore-winds,https://profiles.health.ny.gov/nursing_home/view/150411,Residential Health Care
USA-NY-47-NY-HealthProfiles-output-563,The Springs Nursing and Rehabilitation Centre,49 Marvin Avenue,,Troy,12180,NY,US,(518) 273-6646,http://springscaring.com/,https://profiles.health.ny.gov/nursing_home/view/150523,Residential Health Care
USA-NY-47-NY-HealthProfiles-output-564,The Stanton Nursing and Rehabilitation Centre,152 Sherman Avenue,,Glens Falls,12801,NY,US,(518) 793-2575,http://stantoncaring.com/,https://profiles.health.ny.gov/nursing_home/view/150594,Residential Health Care
USA-NY-47-NY-HealthProfiles-output-565,The Steven and Alexandra Cohen Pediatric Long Term Care Pavilion,95 Bradhurst Avenue,,Valhalla,10595,NY,US,(914) 831-2582,,https://profiles.health.ny.gov/nursing_home/view/1253510,Pediatric Ventilator Dependent
USA-NY-47-NY-HealthProfiles-output-566,The Valley View Center for Nursing Care and Rehabilitation,Glenmere Cove Road,P.o. Box 59,Goshen,10924,NY,US,(845) 291-4740,http://www.co.orange.ny.us/content/124/1380/default.aspx,https://profiles.health.ny.gov/nursing_home/view/150508,Residential Health Care
USA-NY-47-NY-HealthProfiles-output-567,The Villages of Orleans Health and Rehabilitation Center,14012 Route 31,,Albion,14411,NY,US,(585) 589-3225,http://thevillagesoforleans.com/,https://profiles.health.ny.gov/nursing_home/view/150510,Residential Health Care
USA-NY-47-NY-HealthProfiles-output-568,The Wartburg Home,Bradley Avenue,,Mount Vernon,10552,NY,US,(914) 699-0800,http://www.wartburg.org/live-at-wartburg/nursing-home/,https://profiles.health.ny.gov/nursing_home/view/150611,Residential Health Care
USA-NY-47-NY-HealthProfiles-output-569,The Willows at Ramapo Rehabilitation and Nursing Center,30 Cragmere Road,,Suffern,10901,NY,US,(845) 357-1230,http://www.ramapomanor.com/,https://profiles.health.ny.gov/nursing_home/view/150529,Residential Health Care
USA-NY-47-NY-HealthProfiles-output-570,Throgs Neck Rehabilitation & Nursing Center,707 Throgs Neck Expressway,,Bronx,10465,NY,US,(718) 430-0003,http://www.sentosacare.com/showfacilities.php?facilityid=21,https://profiles.health.ny.gov/nursing_home/view/150869,Residential Health Care
USA-NY-47-NY-HealthProfiles-output-571,TLC Health Network Lake Shore Hosp Nursing Facility,845 Routes 5 & 20,,Irving,14081,NY,US,(716) 951-7200,http://www.tlchealth.org/,https://profiles.health.ny.gov/nursing_home/view/150607,Residential Health Care
USA-NY-47-NY-HealthProfiles-output-572,Tolstoy Foundation Rehabilitation and Nursing Center,100 Lake Road,,Valley Cottage,10989,NY,US,(845) 268-9339,http://www.tfrnc.org/,https://profiles.health.ny.gov/nursing_home/view/150531,Residential Health Care
USA-NY-47-NY-HealthProfiles-output-573,Townhouse Center for Rehabilitation & Nursing,755 Hempstead Turnpike,,Uniondale,11553,NY,US,(516) 565-1900,http://townhouseecf.com/,https://profiles.health.ny.gov/nursing_home/view/150893,Residential Health Care; Ventilator Dependent
USA-NY-47-NY-HealthProfiles-output-574,Triboro Center for Rehabilitation and Nursing,1160 Teller Ave,,Bronx,10456,NY,US,(718) 293-1500,,https://profiles.health.ny.gov/nursing_home/view/150670,Residential Health Care; Ventilator Dependent
USA-NY-47-NY-HealthProfiles-output-575,Trustees of the Eastern Star Hall and Home of the State of New York,8290 State Rt 69 (po Box S),,Oriskany,13424,NY,US,(315) 736-9311,http://www.eshomeny.org/,https://profiles.health.ny.gov/nursing_home/view/150490,Residential Health Care
USA-NY-47-NY-HealthProfiles-output-576,Union Plaza Care Center,33-23 Union Street,,Flushing,11354,NY,US,(718) 670-0700,http://unionplazacares.com/,https://profiles.health.ny.gov/nursing_home/view/150892,Residential Health Care
USA-NY-47-NY-HealthProfiles-output-577,United Health Services Hospitals Inc. - Binghamton General Hospital,10-42 Mitchell Avenue,,Binghamton,13903,NY,US,(607) 762-2200,http://www.uhs.net/transitional-care-unit,https://profiles.health.ny.gov/nursing_home/view/153979,Transitional Care Unit
USA-NY-47-NY-HealthProfiles-output-578,United Hebrew Geriatric Center,391 Pelham Road,,New Rochelle,10805,NY,US,(914) 632-2804,http://www.unitedhebrewgeriatric.org/about.asp,https://profiles.health.ny.gov/nursing_home/view/150614,Residential Health Care
USA-NY-47-NY-HealthProfiles-output-579,Unity Living Center,89 Genesee St,,Rochester,14611,NY,US,(585) 368-3881,http://www.unityhealth.org/senior_services/skilled_nursing/seniors_nursing_unity.aspx,https://profiles.health.ny.gov/nursing_home/view/150815,Residential Health Care; Ventilator Dependent
USA-NY-47-NY-HealthProfiles-output-580,University Nursing Home,2505 Grand Ave,,Bronx,10468,NY,US,(718) 295-1400,http://universitynh.com/,https://profiles.health.ny.gov/nursing_home/view/150665,Residential Health Care
USA-NY-47-NY-HealthProfiles-output-581,Upper East Side Rehabilitation and Nursing Center,211 East 79 St,,New York,10021,NY,US,(212) 879-1600,http://www.dewittnh.com/,https://profiles.health.ny.gov/nursing_home/view/150721,Residential Health Care
USA-NY-47-NY-HealthProfiles-output-582,Upstate University Hospital at Community General,4900 Broad Road,,Syracuse,13215,NY,US,(315) 492-5953,,https://profiles.health.ny.gov/nursing_home/view/254528,Transitional Care Unit
USA-NY-47-NY-HealthProfiles-output-583,Utica Rehabilitation & Nursing Center,2535 Genesee Street,,Utica,13501,NY,US,(315) 797-1230,http://stjosephnh.org/,https://profiles.health.ny.gov/nursing_home/view/150483,Residential Health Care
USA-NY-47-NY-HealthProfiles-output-584,Valley Health Services Inc,690 West German Street,,Herkimer,13350,NY,US,(315) 866-3330,http://www.valleyhealthservices.org/,https://profiles.health.ny.gov/nursing_home/view/150801,Residential Health Care
USA-NY-47-NY-HealthProfiles-output-585,Valley View Manor Nursing Home,40 Park Street,,Norwich,13815,NY,US,(607) 334-9931,http://www.valleyviewmanor.net/,https://profiles.health.ny.gov/nursing_home/view/150335,Residential Health Care
USA-NY-47-NY-HealthProfiles-output-586,Van Duyn Center for Rehabilitation and Nursing,5075 West Seneca Turnpike,,Syracuse,13215,NY,US,(315) 449-6000,http://www.ongov.net/vanduyn/,https://profiles.health.ny.gov/nursing_home/view/150495,Residential Health Care
USA-NY-47-NY-HealthProfiles-output-587,Van Rensselaer Manor,85 Bloomingrove Drive,,Troy,12180,NY,US,(518) 283-2000,http://www.rensco.com/departments_renesselaermanor.asp,https://profiles.health.ny.gov/nursing_home/view/150522,Residential Health Care
USA-NY-47-NY-HealthProfiles-output-588,Verrazano Nursing Home,100 Castleton Avenue,,Staten Island,10301,NY,US,(718) 273-1300,,https://profiles.health.ny.gov/nursing_home/view/150779,Residential Health Care
USA-NY-47-NY-HealthProfiles-output-589,Vestal Park Rehabilitation and Nursing Center,105 West Sheedy Road,,Vestal,13850,NY,US,(607) 754-4105,,https://profiles.health.ny.gov/nursing_home/view/241577,Residential Health Care
USA-NY-47-NY-HealthProfiles-output-590,Victoria Home,25 N Malcolm Street,,Ossining,10562,NY,US,(914) 941-2450,http://www.victoriahome.org/,https://profiles.health.ny.gov/nursing_home/view/150620,Residential Health Care
USA-NY-47-NY-HealthProfiles-output-591,Villagecare Rehabilitation and Nursing Center,214 West Houston Street,,New York,10014,NY,US,(212) 206-1493,http://www.villagecare.org/residentialcare/vcrnc/,https://profiles.health.ny.gov/nursing_home/view/150724,Residential Health Care
USA-NY-47-NY-HealthProfiles-output-592,Warren Center for Rehabilitation and Nursing,42 Gurney Lane,,Queensbury,12804,NY,US,(518) 761-6540,http://warrencountyny.gov/westmount/,https://profiles.health.ny.gov/nursing_home/view/150593,Residential Health Care
USA-NY-47-NY-HealthProfiles-output-593,Washington Center for Rehabilitation and Healthcare,Route 40,,Argyle,12809,NY,US,(518) 638-8274,http://centershealthcare.com/washington_center/,https://profiles.health.ny.gov/nursing_home/view/150599,Residential Health Care
USA-NY-47-NY-HealthProfiles-output-594,Waterfront Center for Rehabilitation and Healthcare,200 Seventh Street,,Buffalo,14201,NY,US,(716) 847-2500,http://waterfrontrehab.net/about-us/,https://profiles.health.ny.gov/nursing_home/view/150364,Residential Health Care
USA-NY-47-NY-HealthProfiles-output-595,Waters Edge at Port Jefferson for Rehabilitation and Nursing,150 Dark Hollow Road,,Port Jefferson,11777,NY,US,(631) 473-5400,http://watersedgeatportjeff.com/,https://profiles.health.ny.gov/nursing_home/view/150564,Residential Health Care
USA-NY-47-NY-HealthProfiles-output-596,Waterview Hills Rehabilitation and Nursing Center,537 Route 22,P.o. Box 257,Purdys,10578,NY,US,(914) 277-3691,http://WaterviewNursingandRehab.com,https://profiles.health.ny.gov/nursing_home/view/150635,Residential Health Care
USA-NY-47-NY-HealthProfiles-output-597,Waterview Nursing Care Center,119-15 27th Avenue,,Flushing,11354,NY,US,(718) 461-5000,http://www.waterviewnursing.com/,https://profiles.health.ny.gov/nursing_home/view/150740,Residential Health Care
USA-NY-47-NY-HealthProfiles-output-598,Waterville Residential Care Center,220 Tower Street,,Waterville,13480,NY,US,(315) 841-4156,http://www.hardingnh.com/,https://profiles.health.ny.gov/nursing_home/view/150487,Residential Health Care
USA-NY-47-NY-HealthProfiles-output-599,Wayne Center for Nursing & Rehabilitation,3530 Wayne Avenue,,Bronx,10467,NY,US,(718) 655-1700,,https://profiles.health.ny.gov/nursing_home/view/150677,Residential Health Care; Ventilator Dependent
USA-NY-47-NY-HealthProfiles-output-600,Wayne County Nursing Home,1529 Nye Road,,Lyons,14489,NY,US,(315) 946-5673,http://www.waynecountynursinghome.org/,https://profiles.health.ny.gov/nursing_home/view/150603,Residential Health Care
USA-NY-47-NY-HealthProfiles-output-601,Wayne Health Care,100 Sunset Drive,,Newark,14513,NY,US,(315) 332-2700,http://www.rochestergeneral.org/centers-and-services/senior-services/demay-living-center/,https://profiles.health.ny.gov/nursing_home/view/150600,Residential Health Care; Behavioral Intervention; Ventilator Dependent
USA-NY-47-NY-HealthProfiles-output-602,Wedgewood Nursing Home,5 Church Street,,Spencerport,14559,NY,US,(585) 352-4810,http://www.hurlbutcare.com/our-communities/wedgewood-nursing-facility,https://profiles.health.ny.gov/nursing_home/view/150419,Residential Health Care
USA-NY-47-NY-HealthProfiles-output-603,Wells Nursing Home Inc,201 W Madison Avenue,,Johnstown,12095,NY,US,(518) 762-4546,http://wellsnursinghome.org/,https://profiles.health.ny.gov/nursing_home/view/150388,Residential Health Care
USA-NY-47-NY-HealthProfiles-output-604,Wellsville Manor Care Center,4192a Bolivar Road,,Wellsville,14895,NY,US,(585) 593-4400,http://www.wellsvillemanor.net/,https://profiles.health.ny.gov/nursing_home/view/150790,Residential Health Care
USA-NY-47-NY-HealthProfiles-output-605,Wesley Gardens Corporation,3 Upton Park,,Rochester,14607,NY,US,(585) 241-2100,http://www.wesleygardens.com/,https://profiles.health.ny.gov/nursing_home/view/150418,Residential Health Care
USA-NY-47-NY-HealthProfiles-output-606,Wesley Health Care Center Inc,131 Lawrence Street,,Saratoga Springs,12866,NY,US,(518) 587-3600,http://www.thewesleycommunity.org/,https://profiles.health.ny.gov/nursing_home/view/150544,Residential Health Care
USA-NY-47-NY-HealthProfiles-output-607,"West Lawrence Care Center, LLC",1410 Seagirt Blvd,,Far Rockaway,11691,NY,US,(718) 471-7000,,https://profiles.health.ny.gov/nursing_home/view/150770,Residential Health Care
USA-NY-47-NY-HealthProfiles-output-608,Westchester Center for Rehabilitation & Nursing,10 Claremont Ave,,Mount Vernon,10550,NY,US,(914) 699-1600,,https://profiles.health.ny.gov/nursing_home/view/150612,Residential Health Care
USA-NY-47-NY-HealthProfiles-output-609,Western New York State Veterans Home,220 Richmond Avenue,,Batavia,14020,NY,US,(585) 345-2000,http://www.nysvets.org/homes/batavia/default.aspx,https://profiles.health.ny.gov/nursing_home/view/150884,Residential Health Care
USA-NY-47-NY-HealthProfiles-output-610,Westhampton Care Center,78 Old Country Road,,Westhampton,11977,NY,US,(631) 288-0101,http://www.westhamptoncarecenter.com/,https://profiles.health.ny.gov/nursing_home/view/150879,Residential Health Care
USA-NY-47-NY-HealthProfiles-output-611,White Oaks Rehabilitation and Nursing Center,8565 Jericho Turnpike,,Woodbury,11797,NY,US,(516) 367-3400,http://whiteoaksnursinghome.com/,https://profiles.health.ny.gov/nursing_home/view/150826,Residential Health Care
USA-NY-47-NY-HealthProfiles-output-612,"White Plains Center for Nursing Care, LLC",220 West Post Road,,White Plains,10606,NY,US,(914) 686-8880,http://whiteplainsnursing.com/,https://profiles.health.ny.gov/nursing_home/view/150609,Residential Health Care
USA-NY-47-NY-HealthProfiles-output-613,Whittier Rehabilitation & Skilled Nursing Center,1 Whittier Way,,Ghent,12075,NY,US,(518) 828-0800,http://www.whittierhealth.com/nursing_homes/whittier_rehab.html,https://profiles.health.ny.gov/nursing_home/view/150860,Residential Health Care
USA-NY-47-NY-HealthProfiles-output-614,Wilkinson Residential Health Care Facility,4988 Sthwy 30,,Amsterdam,12010,NY,US,(518) 842-3100,http://www.smha.org/patient-care/wilkinson-nursing-home,https://profiles.health.ny.gov/nursing_home/view/150437,Residential Health Care
USA-NY-47-NY-HealthProfiles-output-615,Wilkinson Residential Health Care Facility,4988 Sthwy 30,,Amsterdam,12010,NY,US,(518) 842-3100,http://www.smha.org/patient-care/wilkinson-nursing-home,https://profiles.health.ny.gov/nursing_home/view/241654,Residential Health Care
USA-NY-47-NY-HealthProfiles-output-616,Williamsbridge Manor Nursing Home,1540 Tomlinson Avenue,,Bronx,10461,NY,US,(718) 892-6600,http://williamsbridgemanor.com/,https://profiles.health.ny.gov/nursing_home/view/150668,Residential Health Care
USA-NY-47-NY-HealthProfiles-output-617,Williamsville Suburban LLC,163 South Union Road,,Williamsville,14221,NY,US,(716) 632-6152,,https://profiles.health.ny.gov/nursing_home/view/150694,Residential Health Care
USA-NY-47-NY-HealthProfiles-output-618,Willow Point Rehabilitation and Nursing Center,3700 Old Vestal Road,,Vestal,13850,NY,US,(607) 763-4400,http://www.gobroomecounty.com/wpnf/,https://profiles.health.ny.gov/nursing_home/view/150316,Residential Health Care
USA-NY-47-NY-HealthProfiles-output-619,Windsor Park Nursing Home,212-40 Hillside Avenue,,Queens Village,11427,NY,US,(718) 468-0800,,https://profiles.health.ny.gov/nursing_home/view/150755,Residential Health Care
USA-NY-47-NY-HealthProfiles-output-620,Wingate at Beacon,10 Hastings Dr,,Beacon,12508,NY,US,(845) 440-1600,http://wingatehealthcare.com/locations/wingate-beacon/,https://profiles.health.ny.gov/nursing_home/view/150900,Residential Health Care; Ventilator Dependent
USA-NY-47-NY-HealthProfiles-output-621,Wingate of Dutchess,3 Summit Court,,Fishkill,12524,NY,US,(845) 896-1500,http://wingatehealthcare.com/locations/wingate-at-fishkill-dutchess/,https://profiles.health.ny.gov/nursing_home/view/150885,Residential Health Care; Ventilator Dependent
USA-NY-47-NY-HealthProfiles-output-622,Wingate of Ulster,One Wingate Way,,Highland,12528,NY,US,(845) 691-6800,http://wingatehealthcare.com/locations/wingate-highland-ulster/,https://profiles.health.ny.gov/nursing_home/view/150918,Residential Health Care; Ventilator Dependent
USA-NY-47-NY-HealthProfiles-output-623,"Woodcrest Rehabilitation & Residential Health Care Center., LLC",119-09 26th Avenue,,College Point,11354,NY,US,(718) 762-6100,http://www.woodcrestrehab.com/,https://profiles.health.ny.gov/nursing_home/view/150756,Residential Health Care
USA-NY-47-NY-HealthProfiles-output-624,Woodhaven Nursing Home,1360 Route 112,,Port Jefferson Station,11776,NY,US,(631) 473-7100,http://www.suffolkassistedliving.com/woodhaven_nursing.php,https://profiles.health.ny.gov/nursing_home/view/150566,Residential Health Care
USA-NY-47-NY-HealthProfiles-output-625,Woodland Pond at New Paltz,100 Woodland Pond Circle,,New Paltz,12561,NY,US,(845) 256-5910,http://wpatnp.org/,https://profiles.health.ny.gov/nursing_home/view/208955,Residential Health Care
USA-NY-47-NY-HealthProfiles-output-626,"Woodmere Rehab & Health Care Center, Inc",121 Franklin Place,,Woodmere,11598,NY,US,(516) 374-9300,http://www.extendedcare.com/eldercare/facilities/ny/woodmere/woodmere/,https://profiles.health.ny.gov/nursing_home/view/150459,Residential Health Care; Ventilator Dependent
USA-NY-47-NY-HealthProfiles-output-627,Woodside Manor Nursing Home Inc,2425 Clinton Avenue South,,Rochester,14618,NY,US,(585) 461-0370,http://www.hurlbutcare.com/our-communities/woodside-manor,https://profiles.health.ny.gov/nursing_home/view/150425,Residential Health Care
USA-NY-47-NY-HealthProfiles-output-628,Workmen's Circle Multicare Center,3155 Grace Avenue,,Bronx,10469,NY,US,(718) 379-8100,http://wcmcc.org/,https://profiles.health.ny.gov/nursing_home/view/150647,Residential Health Care
USA-NY-47-NY-HealthProfiles-output-629,Wyoming County Community Hospital SNF,400 North Main Street,,Warsaw,14569,NY,US,(585) 786-2233,http://www.wcchs.net/,https://profiles.health.ny.gov/nursing_home/view/150639,Residential Health Care
