row_id,Facility Name,State ID,Facility Type,Address,City,County,State,Zipcode,Administrator Name,Phone,Country
USA-KS-91-KS-All-output-1,ABERDEEN VILLAGE,N046057,Nursing Facility; Assisted Living Facility,17500 W 119TH STREET,OLATHE,JOHNSON,KS,66061,JOHN T ALLIN,913-599-6100,US
USA-KS-91-KS-All-output-2,ABILENE PLACE NORTH,N021007,Assisted Living Facility,1100 N. VINE STREET,ABILENE,DICKINSON,KS,67410-4009,TODD MOORE,785-263-7400,US
USA-KS-91-KS-All-output-3,ABILENE PLACE SOUTH,N021008,Assisted Living Facility,1102 N. VINE STREET,ABILENE,DICKINSON,KS,67410-4015,TODD MOORE,785-263-7800,US
USA-KS-91-KS-All-output-4,ADDINGTON PLACE OF PRAIRIE VILLAGE,N046086,Assisted Living Facility; Residential Health Care Facility,2700 SOMERSET DRIVE,PRAIRIE VILLAGE,JOHNSON,KS,66206,RYAN ENDSLEY,913-648-3333,US
USA-KS-91-KS-All-output-5,ALDERBROOK VILLAGE LLC,N018010,Assisted Living Facility,402 E WINDSOR ROAD,ARKANSAS CITY,COWLEY,KS,67005-3866,STEPHEN DALE MITCHELL,620-442-4400,US
USA-KS-91-KS-All-output-6,ALDERSGATE VILLAGE,N089021,Nursing Facility; Assisted Living Facility,3220 SW ALBRIGHT DRIVE,TOPEKA,SHAWNEE,KS,66614-4707,LEMAPU LEMANUA,785-478-9440,US
USA-KS-91-KS-All-output-7,ANDOVER COURT ASSISTED LIVING,N008010,Assisted Living Facility,721 W. 21ST STREET,ANDOVER,BUTLER,KS,67002-8491,ANGELA CORNELL,316-733-2662,US
USA-KS-91-KS-All-output-8,APOSTOLIC CHRISTIAN HOME,N066001,Nursing Facility; Assisted Living Facility,511 PARAMOUNT,SABETHA,NEMAHA,KS,66534,EDWIN J STRAHM,785-284-3471,US
USA-KS-91-KS-All-output-9,ARKANSAS CITY PRESBYTERIAN MANOR,N018008,Nursing Facility; Assisted Living Facility,1711 N. 4TH STREET,ARKANSAS CITY,COWLEY,KS,67005-1607,SARAH GRIGGS,620-442-8700,US
USA-KS-91-KS-All-output-10,ASBURY PARK,N040002,Nursing Facility; Assisted Living Facility; Residential Health Care Facility,200 SW 14TH STREET,NEWTON,HARVEY,KS,67114,THOMAS WILLIAMS,316-283-4770,US
USA-KS-91-KS-All-output-11,ASSISTED LIVING AT WINDSOR PLACE,N063016,Assisted Living Facility,2904 W 8TH,COFFEYVILLE,MONTGOMERY,KS,67337-,SONIA LARIMORE,620-251-0214,US
USA-KS-91-KS-All-output-12,ASSISTED LIVING AT WINDSOR PLACE LLC,N063015,Assisted Living Facility,106 TYLER,COFFEYVILLE,MONTGOMERY,KS,67337-2441,MONTE COFFMAN,620-251-0214,US
USA-KS-91-KS-All-output-13,ATRIA HEARTHSTONE EAST,N089063,Assisted Living Facility,3415 SW 6TH AVENUE,TOPEKA,SHAWNEE,KS,66606-1900,WILLIAM PETERSON,785-234-6806,US
USA-KS-91-KS-All-output-14,ATRIA HEARTHSTONE WEST,N089030,Assisted Living Facility,3515 SW 6TH AVE,TOPEKA,SHAWNEE,KS,66606-1900,THADDEUS STUDEBAKER,785-234-6225,US
USA-KS-91-KS-All-output-15,AVITA SENIOR LIVING AT DERBY,N087066,Assisted Living Facility,719 N KLEIN CIRCLE,DERBY,SEDGWICK,KS,67037-,ALBERT COCCETELLA,316-260-4447,US
USA-KS-91-KS-All-output-16,AVITA SENIOR LIVING AT ROLLING HILLS,N087067,Assisted Living Facility,629 S MAIZE CT,WICHITA,SEDGWICK,KS,67209-,MARK SCHULTE,316-361-2500,US
USA-KS-91-KS-All-output-17,AVONLEA COTTAGE OF OLATHE,N046035,Assisted Living Facility,625 LINCOLN AVE,OLATHE,JOHNSON,KS,66061-2594,VALERIE CARTER,913-829-6920,US
USA-KS-91-KS-All-output-18,BENTON HOUSE OF LENEXA,N046098,Assisted Living Facility,22000 PRAIRIE STAR PARKWAY,LENEXA,JOHNSON,KS,66220,PETER CRANE,678-297-0388,US
USA-KS-91-KS-All-output-19,BETHANY HOME ASSOCIATION DBA VARDSHUS,N059018,Assisted Living Facility,821 E. SWENSSON DRIVE,LINDSBORG,MCPHERSON,KS,67456,KAREN CARLSON,785-227-8331,US
USA-KS-91-KS-All-output-20,BETHEL HEALTH CARE CENTER,N040001,Nursing Facility; Assisted Living Facility,3001 IVY DRIVE,NORTH NEWTON,HARVEY,KS,67117-8005,LINDA PETERS,316-284-2900,US
USA-KS-91-KS-All-output-21,BETHESDA HOME,N057006,Nursing Facility; Assisted Living Facility,408 E MAIN PO BOX 37,GOESSEL,MARION,KS,67053-37,MELISSA L DINSMORE,620-367-2291,US
USA-KS-91-KS-All-output-22,BICKFORD AT MISSION SPRINGS I,N046042,Assisted Living Facility; Residential Health Care Facility,5300 W 61ST PLACE,MISSION,JOHNSON,KS,66205-,RICHARD TURLEY,913-831-7700,US
USA-KS-91-KS-All-output-23,BICKFORD AT MISSION SPRINGS II,N046044,Assisted Living Facility; Residential Health Care Facility,5350 WEST 61ST PLACE,MISSION,JOHNSON,KS,66205-,MEREDITH BRENNAN,913-831-7700,US
USA-KS-91-KS-All-output-24,BIG BLUE HEALTHCARE INC,N105006,Nursing Facility; Assisted Living Facility,7850 FREEMAN AVENUE,KANSAS CITY,WYANDOTTE,KS,66112-2133,TRACY BOHRER,913-334-3666,US
USA-KS-91-KS-All-output-25,BLACKHAWK ASSISTED LIVING,N046066,Assisted Living Facility,22550 S FRANKLIN,SPRING HILL,MIAMI,KS,66083,TAMERA BENEDICT,913-592-5101,US
USA-KS-91-KS-All-output-26,BRANDON WOODS AT ALVAMAR,N023009,Nursing Facility; Assisted Living Facility; Residential Health Care Facility,1501 INVERNESS DR.,LAWRENCE,DOUGLAS,KS,66047-1825,GLEN DEAN HAGEN,785-838-8000,US
USA-KS-91-KS-All-output-27,BROOKDALE DERBY,N087038,Assisted Living Facility,1709 E WALNUT GROVE,DERBY,SEDGWICK,KS,67037-3528,AUDREY COOK,316-788-6100,US
USA-KS-91-KS-All-output-28,BROOKDALE DODGE CITY,N029007,Assisted Living Facility,2400 N. 14TH AVENUE,DODGE CITY,FORD,KS,67801-2313,LARRY GABEL,620-225-7555,US
USA-KS-91-KS-All-output-29,BROOKDALE GREAT BEND,N005005,Assisted Living Facility,1206 PATTON ROAD,GREAT BEND,BARTON,KS,67530-3118,SARAH SMITH,620-792-7000,US
USA-KS-91-KS-All-output-30,BROOKDALE HAYS,N026008,Assisted Living Facility,1801 E. 27TH STREET,HAYS,ELLIS,KS,67601,LISA LEIKER,785-628-1111,US
USA-KS-91-KS-All-output-31,BROOKDALE HUTCHINSON,N078015,Assisted Living Facility,2416 BRENTWOOD,HUTCHINSON,RENO,KS,67502,BREA TURNER,620-663-9195,US
USA-KS-91-KS-All-output-32,BROOKDALE JUNCTION CITY,N031004,Assisted Living Facility,1022 CAROLINE AVENUE,JUNCTION CITY,GEARY,KS,66441-5206,CHRISTINE MARIE POWERS,785-762-3123,US
USA-KS-91-KS-All-output-33,BROOKDALE LIBERAL SPRINGS,N088003,Assisted Living Facility,1500 TERRACE AVENUE,LIBERAL,SEWARD,KS,67901,SANDRA MONTES,620-624-8000,US
USA-KS-91-KS-All-output-34,BROOKDALE MCPHERSON,N059016,Assisted Living Facility,1460 N. MAIN STREET,MCPHERSON,MCPHERSON,KS,67460-1902,MELISSA HOLCOM,620-241-6600,US
USA-KS-91-KS-All-output-35,BROOKDALE OVERLAND PARK,N046079,Nursing Facility; Assisted Living Facility; Residential Health Care Facility,12000 LAMAR,OVERLAND PARK,JOHNSON,KS,66209,JAYNE MACDONALD,913-663-2888,US
USA-KS-91-KS-All-output-36,BROOKDALE OVERLAND PARK GLENWOOD,N046048,Assisted Living Facility,9201 FOSTER,OVERLAND PARK,JOHNSON,KS,66212-,JOHN CONNER,913-385-2052,US
USA-KS-91-KS-All-output-37,BROOKDALE ROSEHILL,N046063,Nursing Facility; Assisted Living Facility,12802 JOHNSON DR,SHAWNEE,JOHNSON,KS,66216-,SUZIE SEXTON,913-962-7600,US
USA-KS-91-KS-All-output-38,BROOKDALE SALINA FAIRDALE,N085010,Assisted Living Facility,2251 E. CRAWFORD STREET,SALINA,SALINE,KS,67401,MELISSA HOLCOM,785-823-8600,US
USA-KS-91-KS-All-output-39,BROOKDALE SALINA KIRWIN,N085009,Assisted Living Facility,1200 E KIRWIN AVE,SALINA,SALINE,KS,67401-6300,JOYE R ACKER-GFELLER,785-825-8200,US
USA-KS-91-KS-All-output-40,BROOKDALE TALLGRASS,N087037,Assisted Living Facility,8600 E 21ST N,WICHITA,SEDGWICK,KS,67206-2931,KATIE GLEICHMAN,316-684-3100,US
USA-KS-91-KS-All-output-41,BROOKDALE WELLINGTON,N096009,Assisted Living Facility,500 N PLUM ST,WELLINGTON,SUMNER,KS,67152-3556,ROBIN DERINGER,620-326-3031,US
USA-KS-91-KS-All-output-42,BROOKSIDE RETIREMENT COMMUNITY ASSISTED LIVING,N070008,Assisted Living Facility,702 W 7TH PO BOX 308,OVERBROOK,OSAGE,KS,66524-308,TRACY DUNNAWAY,785-665-3246,US
USA-KS-91-KS-All-output-43,BUHLER SUNSHINE HOME,N078009,Nursing Facility; Assisted Living Facility,400 S BUHLER RD,BUHLER,RENO,KS,67522-,KEITH R. PANKRATZ,620-543-2251,US
USA-KS-91-KS-All-output-44,CARRINGTON AT CHERRY CREEK,N087043,Assisted Living Facility,8200 E PAWNEE ST,WICHITA,SEDGWICK,KS,67207-3448,DENNIS BUSH,316-684-0905,US
USA-KS-91-KS-All-output-45,CATHOLIC CARE CENTER INC,N087001,Nursing Facility; Assisted Living Facility; Residential Health Care Facility,6700 E 45TH ST N,BELAIRE,SEDGWICK,KS,67226-9970,KATE PENTZ,316-744-2020,US
USA-KS-91-KS-All-output-46,CEDAR LAKE VILLAGE,N046059,Assisted Living Facility,15325 S. LONE ELM ROAD,OLATHE,JOHNSON,KS,66061-5331,LAUREN WHEELER,913-780-9916,US
USA-KS-91-KS-All-output-47,CEDARVIEW ASSISTED LIVING,N026010,Assisted Living Facility,2929 STERNBERG DRIVE,HAYS,ELLIS,KS,67601,TREVA BENOIT,785-628-3200,US
USA-KS-91-KS-All-output-48,"CHAUCER ESTATES, LLC",N087048,Assisted Living Facility,10550 E. 21ST STREET NORTH,WICHITA,SEDGWICK,KS,67206-3509,DEANN MOST,316-630-6100,US
USA-KS-91-KS-All-output-49,CLEARWATER VILLAGE,N087053,Assisted Living Facility,440 N. 4TH STREET,CLEARWATER,SEDGWICK,KS,67026,NOREEN STONEHOCKER,620-584-4257,US
USA-KS-91-KS-All-output-50,COLWICH GARDENS LLC,N087081,Assisted Living Facility,300 E CHICAGO,COLWICH,SEDGWICK,KS,67030,HOPE BUESSING,316-260-1034,US
USA-KS-91-KS-All-output-51,CORNERSTONE ASSISTED LIVING INC,N087041,Assisted Living Facility,1240 N BROADMOOR AVENUE,WICHITA,SEDGWICK,KS,67206-3869,DANIELLE JEFFRIES,316-636-5101,US
USA-KS-91-KS-All-output-52,COUNCIL GROVE ASSISTED LIVING,N064002,Assisted Living Facility,554 COUNTRY LANE,COUNCIL GROVE,MORRIS,KS,66846,BONNIE SUE SAWYER,620-767-5600,US
USA-KS-91-KS-All-output-53,COUNTRY LIVING INC,N039004,Assisted Living Facility,420 N 5TH,ANTHONY,HARPER,KS,67003,CINDY ASH,620-842-5858,US
USA-KS-91-KS-All-output-54,COUNTRY LIVING OF LARNED,N073002,Assisted Living Facility,714 W. 9TH STREET,LARNED,PAWNEE,KS,67550,LAURA SMITH,620-285-6900,US
USA-KS-91-KS-All-output-55,COUNTRY LIVING OF LYONS,N080004,Assisted Living Facility,502 SOUTH MILES,LYONS,RICE,KS,67554,LAURA SMITH,620-257-5012,US
USA-KS-91-KS-All-output-56,COUNTRY PLACE SENIOR LIVING OF BASEHOR,N052009,Assisted Living Facility,15707 PINEHURST DRIVE,BASEHOR,LEAVENWORTH,KS,66007,CHRISTI RUTH,913-662-7330,US
USA-KS-91-KS-All-output-57,COUNTRY PLACE SENIOR LIVING OF BELLEVILLE,N079003,Assisted Living Facility,530 23RD STREET,BELLEVILLE,REPUBLIC,KS,66935,JANET JONES,785-527-5300,US
USA-KS-91-KS-All-output-58,COUNTRY PLACE SENIOR LIVING OF CHANUTE,N067010,Assisted Living Facility,701 OSA MARTIN BLVD,CHANUTE,NEOSHO,KS,66720,ANGELA DECOSTER,620-431-0599,US
USA-KS-91-KS-All-output-59,COUNTRY PLACE SENIOR LIVING OF CLAY CENTER,N014005,Assisted Living Facility,722 LIBERTY STREET,CLAY CENTER,CLAY,KS,67432,RAY FRIGON,785-632-5052,US
USA-KS-91-KS-All-output-60,COUNTRY PLACE SENIOR LIVING OF FORT SCOTT,N006008,Assisted Living Facility,820 S. HORTON STREET,FORT SCOTT,BOURBON,KS,66701,AMANDA DOWNING,620-223-1822,US
USA-KS-91-KS-All-output-61,COUNTRY PLACE SENIOR LIVING OF HOISINGTON,N005007,Assisted Living Facility,259 W. 6TH STREET,HOISINGTON,BARTON,KS,67544-2014,MALISSIA PFLUGHOEFT,620-653-4121,US
USA-KS-91-KS-All-output-62,COUNTRY PLACE SENIOR LIVING OF MARYSVILLE,N058007,Assisted Living Facility,1149 COUNTRY PLACE DRIVE,MARYSVILLE,MARSHALL,KS,66508,MELVA SANNER,785-562-4001,US
USA-KS-91-KS-All-output-63,COUNTRY PLACE SENIOR LIVING OF SENECA,N066008,Assisted Living Facility,1700 COMMUNITY DRIVE,SENECA,NEMAHA,KS,66538,DEBRA RETHMAN,785-336-6868,US
USA-KS-91-KS-All-output-64,COVENANT PLACE OF LENEXA INC,N046085,Nursing Facility; Assisted Living Facility,8505 PFLUMM ROAD,LENEXA,JOHNSON,KS,66215-2461,COURTNEY MICHELLE O'CONNOR,913-307-2000,US
USA-KS-91-KS-All-output-65,DELAWARE HIGHLANDS ASSISTED LIVING,N105014,Assisted Living Facility,12600 DELAWARE PARKWAY,KANSAS CITY,WYANDOTTE,KS,66106,THOMAS A. WALKER,913-721-1400,US
USA-KS-91-KS-All-output-66,DOVE ESTATES SENIOR LIVING COMMUNITY,N087082,Assisted Living Facility,1400 S. 183RD WEST,GODDARD,SEDGWICK,KS,67052,JACQUELINE JADIDIAN,316-550-6343,US
USA-KS-91-KS-All-output-67,EAGLECREST RETIREMENT COMMUNITY,N085012,Assisted Living Facility,1501 E. MAGNOLIA ROAD,SALINA,SALINE,KS,67401,JACQUE DAWN BACKHUS,785-309-1501,US
USA-KS-91-KS-All-output-68,EMPORIA PLACE,N056012,Assisted Living Facility,1200 W. 12TH AVENUE,EMPORIA,LYON,KS,66801-2557,LISA A. JOHNSON,620-342-1000,US
USA-KS-91-KS-All-output-69,EMPORIA PRESBYTERIAN MANOR,N056006,Nursing Facility; Assisted Living Facility,2300 INDUSTRIAL ROAD,EMPORIA,LYON,KS,66801-6636,SUSAN K SIEPELMEIER,620-343-2613,US
USA-KS-91-KS-All-output-70,F W HUSTON MEDICAL CENTER DBA JEFFERSON SUITES,N044007,Assisted Living Facility,408 DELAWARE STREET,WINCHESTER,JEFFERSON,KS,66097-4003,LAMONT COOK,913-774-4340,US
USA-KS-91-KS-All-output-71,FAIRVIEW ESTATES RETIREMENT COMMUNITY INC,N097003,Assisted Living Facility,1630 SEWELL AVENUE,COLBY,THOMAS,KS,67701,ELIZABETH J. BENJAMIN,785-462-2154,US
USA-KS-91-KS-All-output-72,FORT SCOTT PRESBYTERIAN VILLAGE,N006005,Assisted Living Facility,2401 S. HORTON STREET,FORT SCOTT,BOURBON,KS,66701-3196,GINGER NANCE,620-223-5550,US
USA-KS-91-KS-All-output-73,FOUNTAINVIEW NURSING & REHABILITATION CENTER,N008004,Nursing Facility; Assisted Living Facility,601 N. ROSE HILL ROAD,ROSE HILL,BUTLER,KS,67133-9336,SUSAN K. BILLINGER,316-776-2194,US
USA-KS-91-KS-All-output-74,GARDEN VILLAS OF LENEXA,N046078,Assisted Living Facility,9705 MONROVIA STREET,LENEXA,JOHNSON,KS,66215-1564,DANIELLE N. GRANIEWSKI,913-492-1133,US
USA-KS-91-KS-All-output-75,GOLDEN OAKS HEALTHCARE INC,N105019,Nursing Facility; Assisted Living Facility,8900 PARALLEL PARKWAY,KANSAS CITY,WYANDOTTE,KS,66112,JOSHUA H. EVERY,913-788-2100,US
USA-KS-91-KS-All-output-76,GOOD SAMARITAN SOCIETY - ELLSWORTH VILLAGE,N027001,Nursing Facility; Assisted Living Facility,1156 HIGHWAY 14,ELLSWORTH,ELLSWORTH,KS,67439,CRYSTAL PACKARD,785-472-3167,US
USA-KS-91-KS-All-output-77,GOOD SAMARITAN SOCIETY - HUTCHINSON VILLAGE,N078004,Nursing Facility; Assisted Living Facility,810 E. 30TH AVENUE,HUTCHINSON,RENO,KS,67502-4398,BRENDA JANDA,620-663-1189,US
USA-KS-91-KS-All-output-78,GRACE GARDENS ASSISTED LIVING,N046065,Assisted Living Facility; Residential Health Care Facility,5201 W. 143RD STREET,LEAWOOD,JOHNSON,KS,66224,ELAINE MCDANIEL,913-685-4800,US
USA-KS-91-KS-All-output-79,GRAN VILLAS ATCHISON,N003004,Assisted Living Facility,1635 RILEY STREET,ATCHISON,ATCHISON,KS,66002-1514,BRENDA NORRIS,913-367-2077,US
USA-KS-91-KS-All-output-80,GRAN VILLAS PITTSBURG,N019009,Assisted Living Facility,1004 E. CENTENNIAL STREET,PITTSBURG,CRAWFORD,KS,66762-6603,LORI WARD,620-231-4554,US
USA-KS-91-KS-All-output-81,HERINGTON OPCO LLC DBA LEGACY AT HERINGTON,N021004,Nursing Facility; Assisted Living Facility,2 E ASH SREET,HERINGTON,DICKINSON,KS,67449-1662,KATHRYN WALMSLEY,785-258-2283,US
USA-KS-91-KS-All-output-82,HERITAGE ESTATES ASSISTED LIVING,N039005,Assisted Living Facility,1212 HICKORY STREET,HARPER,HARPER,KS,67058-1455,CAROL MCKEE,620-896-2646,US
USA-KS-91-KS-All-output-83,HILL TOP HOUSE,N029004,Nursing Facility; Assisted Living Facility,"505 W. ELM, PO BOX 248",BUCKLIN,FORD,KS,67834-248,JUDITH K. KREGAR,620-826-3202,US
USA-KS-91-KS-All-output-84,HILLSIDE VILLAGE OF DESOTO,N046064,Nursing Facility; Assisted Living Facility,33600 W. 85TH STREET,DESOTO,JOHNSON,KS,66018,TODD SIMPSON,913-583-1260,US
USA-KS-91-KS-All-output-85,HILLTOP LODGE NURSING HOME,N062001,Nursing Facility; Assisted Living Facility,815 N. INDEPENDENCE AVENUE,BELOIT,MITCHELL,KS,67420-1639,CARL L. NOYES,785-738-3516,US
USA-KS-91-KS-All-output-86,HOMESTEAD OF AUGUSTA,N008008,Assisted Living Facility; Residential Health Care Facility,1611 FAIRWAY STREET,AUGUSTA,BUTLER,KS,67010-2246,MARGARET FENNESSY,316-775-1000,US
USA-KS-91-KS-All-output-87,HOMESTEAD OF CRESTVIEW,N087059,Assisted Living Facility,600 N. 127TH STREET EAST,WICHITA,SEDGWICK,KS,67206-2830,SANDRA PRESTON,316-733-8100,US
USA-KS-91-KS-All-output-88,HOMESTEAD OF DERBY,N087036,Assisted Living Facility,1701 WALNUT GROVE ROAD,DERBY,SEDGWICK,KS,67037,DENISE RUTENBECK,316-788-9600,US
USA-KS-91-KS-All-output-89,HOMESTEAD OF RUSSELL,N084007,Assisted Living Facility,1070 E. WICHITA AVENUE,RUSSELL,RUSSELL,KS,67665-2452,ERICA KEENER,785-483-5882,US
USA-KS-91-KS-All-output-90,IRON HORSE HEALTHCARE INC,N046096,Nursing Facility; Assisted Living Facility,5401 W 143RD STREET,LEAWOOD,JOHNSON,KS,66224,JUSTIN VAUGHN,913-249-3600,US
USA-KS-91-KS-All-output-91,KANSAS VETERANS HOME,N018011,Nursing Facility; Assisted Living Facility,1220 WORLD WAR II MEMORIAL DRIVE,WINFIELD,COWLEY,KS,67156-9801,DANIEL LAFFERY,620-221-9479,US
USA-KS-91-KS-All-output-92,KEARNY COUNTY HOSPITAL ASSISTED LIVING,N047002,Assisted Living Facility,607 COURT PLACE,LAKIN,KEARNY,KS,67860,MARY CHIPLEY,620-355-8600,US
USA-KS-91-KS-All-output-93,KENNETH L CALDWELL ASSISTED LIVING MANOR,N087055,Assisted Living Facility,400 S MARTINSON STREET,WICHITA,SEDGWICK,KS,67213-5514,NISHA JACKSON WEEMS,316-269-7500,US
USA-KS-91-KS-All-output-94,KENWOOD PLAZA INC,N093004,Residential Health Care Facility; Assisted Living Facility,607 E 1ST AVENUE,ST JOHN,STAFFORD,KS,67576-2223,MISTY NEWELL,620-549-6133,US
USA-KS-91-KS-All-output-95,LAKEPOINT AUGUSTA LLC,N008005,Nursing Facility; Assisted Living Facility,901 LAKEPOINT DRIVE,AUGUSTA,BUTLER,KS,67010,ALEJANDRO NIETO,316-775-6333,US
USA-KS-91-KS-All-output-96,LAKEPOINT EL DORADO LLC,N008002,Nursing Facility; Assisted Living Facility,1313 S HIGH STREET,EL DORADO,BUTLER,KS,67042-3751,CHRISTIE A UNDERWOOD,316-321-4140,US
USA-KS-91-KS-All-output-97,LAKEVIEW VILLAGE,N046007,Nursing Facility; Assisted Living Facility,13840 W 91ST TERR,LENEXA,JOHNSON,KS,66215-3374,JANICE K PEARSON,913-888-1900,US
USA-KS-91-KS-All-output-98,LAMAR COURT ASSISTED LIVING COMMUNITY,N046051,Assisted Living Facility,11909 LAMAR,OVERLAND PARK,JOHNSON,KS,66209-,AMANDA PROCTOR,913-906-9696,US
USA-KS-91-KS-All-output-99,LARKSFIELD PLACE ASSISTED LIVING,N087077,Assisted Living Facility,2727 N ROCK RD,WICHITA,SEDGWICK,KS,67226,NICOLE NOETZEL,316-361-2800,US
USA-KS-91-KS-All-output-100,LEGEND AT CAPITAL RIDGE,N089045,Assisted Living Facility,1931 SW ARVONIA PLACE,TOPEKA,SHAWNEE,KS,66615,CASEY KARNES,785-272-9400,US
USA-KS-91-KS-All-output-101,LEISURE OPERATIONS LLC,N046031,Nursing Facility; Assisted Living Facility,5211 W 103RD STREEET,OVERLAND PARK,JOHNSON,KS,66207,DEANNA SHAFFER,913-383-2659,US
USA-KS-91-KS-All-output-102,LEXINGTON PARK ASSISTED LIVING,N089041,Assisted Living Facility,1021 SW FLEMING COURT,TOPEKA,SHAWNEE,KS,66604-1851,BEN RIGDON,785-440-0399,US
USA-KS-91-KS-All-output-103,LINCOLN PARK MANOR,N053001,Nursing Facility; Assisted Living Facility,922 N 5TH ST PO BOX 466,LINCOLN,LINCOLN,KS,67455-466,CHRISTEN ROBINSON,785-524-4428,US
USA-KS-91-KS-All-output-104,LOCUST GROVE VILLAGE,N083001,Nursing Facility; Assisted Living Facility,701 W. 6TH STREET,LA CROSSE,RUSH,KS,67548,CHARLOTTE RATHKE,785-222-2574,US
USA-KS-91-KS-All-output-105,LOGAN MANOR COMMUNITY HEALTH SERVICES,N074001,Nursing Facility; Assisted Living Facility,"108 S. ADAMS, PO BOX 308",LOGAN,PHILLIPS,KS,67646-308,TERESA M. MCCOMB,785-689-4201,US
USA-KS-91-KS-All-output-106,MANOR OF THE PLAINS,N029005,Nursing Facility; Assisted Living Facility,200 CAMPUS DR,DODGE CITY,FORD,KS,67801-2706,JERRY L KORBE,620-225-1928,US
USA-KS-91-KS-All-output-107,"MAPLE HILLS HEALTHCARE, INC DBA THE HEALTHCARE RESORT OF SHAWNEE",N046093,Nursing Facility; Assisted Living Facility,7600 ANTIOCH ROAD,OVERLAND PARK,JOHNSON,KS,66204,MICHAEL BROOKS,913-383-2001,US
USA-KS-91-KS-All-output-108,MARIA COURT,N096011,Assisted Living Facility,633 E. MAIN STREET,MULVANE,SUMNER,KS,67110,"PAM DARNALL 633 E MAIN STREET, MULVANE KS 67110",316-777-9917,US
USA-KS-91-KS-All-output-109,"MARION ASSISTED LIVING, LLC",N057007,Assisted Living Facility,200 N. EISENHOWER ROAD,MARION,MARION,KS,66861,BONNIE SUE SAWYER,620-382-3000,US
USA-KS-91-KS-All-output-110,MARQUIS PLACE,N015008,Assisted Living Facility,205 W. 21ST STREET,CONCORDIA,CLOUD,KS,66901,SONIA DERUSSEAU,785-243-2255,US
USA-KS-91-KS-All-output-111,MCCRITE RETIREMENT ASSISTED LIVING,N089047,Assisted Living Facility,1608 SW 37TH STREET,TOPEKA,SHAWNEE,KS,66611-2564,PATRICK I MCCRITE,785-267-2960,US
USA-KS-91-KS-All-output-112,MEADOWLARK HILLS,N081004,Nursing Facility; Assisted Living Facility,2121 MEADOWLARK ROAD,MANHATTAN,RILEY,KS,66502-4569,ANNA LEE PEACE BOWYER,785-537-4610,US
USA-KS-91-KS-All-output-113,MEMORIAL LIVING CENTER,N094001,Assisted Living Facility,102 E LANE DR,JOHNSON,STANTON,KS,67855,LORI AMERIN,620-492-2356,US
USA-KS-91-KS-All-output-114,MENNONITE FRIENDSHIP COMMUNITIES INC,N078005,Nursing Facility; Assisted Living Facility,600 W BLANCHARD AVE,SOUTH HUTCHINSON,RENO,KS,67505-1526,LEIGH PECK,620-663-7175,US
USA-KS-91-KS-All-output-115,MIDLAND CARE AT LINNWOOD PARK,N044005,Assisted Living FacilityHome Plus,1509 LINN ST,VALLEY FALLS,JEFFERSON,KS,66088-1185,KRISTI LEONARD,785-945-3634,US
USA-KS-91-KS-All-output-116,MONTEREY VILLAGE,N023022,Assisted Living Facility,3901 PETERSON ROAD,LAWRENCE,DOUGLAS,KS,66049,KATIE WILCOX,573-471-1113,US
USA-KS-91-KS-All-output-117,MORNINGSTAR CARE HOMES OF FREDONIA,N103004,Assisted Living Facility,2111 E. WASHINGTON STREET,FREDONIA,WILSON,KS,66736-1759,SCOTT D. SCHULTZ,785-594-2603,US
USA-KS-91-KS-All-output-118,MORNINGSTAR CARE HOMES OF NEODESHA,N103005,Assisted Living Facility,400 FIR STREET,NEODESHA,WILSON,KS,66757-1298,SUSAN APOLLO,785-594-2603,US
USA-KS-91-KS-All-output-119,NEUVANT HOUSE OF LAWRENCE,N023020,Assisted Living Facility,1216 BILTMORE DRIVE,LAWRENCE,DOUGLAS,KS,66049,EMILY HILDING,785-856-7900,US
USA-KS-91-KS-All-output-120,NEWTON PRESBYTERIAN MANOR,N040005,Nursing Facility; Assisted Living Facility,1200 E. 7TH STREET,NEWTON,HARVEY,KS,67114-2862,MARC KESSINGER,316-283-5400,US
USA-KS-91-KS-All-output-121,OTTAWA RETIREMENT PLAZA,N030006,Assisted Living Facility,1042 W. 15TH STREET,OTTAWA,FRANKLIN,KS,66067,VALERIE BREWER,785-242-1127,US
USA-KS-91-KS-All-output-122,PARK MEADOWS SENIOR LIVING,N046077,Assisted Living Facility,5901 W. 107TH STREET,OVERLAND PARK,JOHNSON,KS,66207-3851,BARBARA OVERMANN,913-901-8200,US
USA-KS-91-KS-All-output-123,PARK WEST PLAZA,N087046,Nursing Facility; STATE ONLY Assisted Living Facility,505 N. MAIZE ROAD,WICHITA,SEDGWICK,KS,67212,KELLY THOMAS,316-729-4114,US
USA-KS-91-KS-All-output-124,PARKSIDE HOMES,N057004,Nursing Facility; Assisted Living Facility,200 WILLOW ROAD,HILLSBORO,MARION,KS,67063-1904,VALERIE MCGHEE,620-947-2301,US
USA-KS-91-KS-All-output-125,PARKWOOD VILLAGE,N076003,Assisted Living Facility,401 ROCHESTER,PRATT,PRATT,KS,67124-2900,SHARON WILL,620-672-5541,US
USA-KS-91-KS-All-output-126,PARSONS PRESBYTERIAN MANOR,N050005,Nursing Facility; Assisted Living Facility,3501 DIRR AVENUE,PARSONS,LABETTE,KS,67357-2298,MAEGEN PEGUES (RETURN FROM LOA),620-421-1450,US
USA-KS-91-KS-All-output-127,PETERSON ASSISTED LIVING,N070007,Assisted Living Facility,629 HOLLIDAY STREET,OSAGE CITY,OSAGE,KS,66523-1138,PATRICIA GUNDY,785-528-3301,US
USA-KS-91-KS-All-output-128,PHILLIPS COUNTY RETIREMENT CENTER,N074003,Nursing Facility; Assisted Living Facility,"1300 STATE STREET, PO BOX 628",PHILLIPSBURG,PHILLIPS,KS,67661-628,KRISTI KUCK,785-543-2131,US
USA-KS-91-KS-All-output-129,PIONEER RIDGE RETIREMENT COMMUNITY,N023019,Nursing Facility; Assisted Living Facility,4851 HARVARD ROAD,LAWRENCE,DOUGLAS,KS,66049-3964,ANN BELL,785-749-2000,US
USA-KS-91-KS-All-output-130,PLUM CREEK PLAZA,N027006,Assisted Living Facility,100 N. COUNTY ROAD,HOLYROOD,ELLSWORTH,KS,67450-248,CAROLYN SOUKUP,785-252-3800,US
USA-KS-91-KS-All-output-131,PRAIRIE HOMESTEAD ASSISTED LIVING,N087062,Assisted Living Facility,1601 W. MAY STREET,WICHITA,SEDGWICK,KS,67213,DIANE HULL,316-263-8264,US
USA-KS-91-KS-All-output-132,PRAIRIE MISSION RETIREMENT VILLAGE,N067007,Nursing Facility; Assisted Living Facility,242 CARROLL STREET,SAINT PAUL,NEOSHO,KS,66771-9802,MELINDA EWAN,620-449-2400,US
USA-KS-91-KS-All-output-133,PRAIRIE SUNSET HOME,N078017,Nursing Facility; Assisted Living Facility,601 E. MAIN STREET,PRETTY PRAIRIE,RENO,KS,67570,"AARON D. KELLEY, JR.",620-459-6822,US
USA-KS-91-KS-All-output-134,REDBUD PLAZA ASSISTED LIVING,N075007,Assisted Living Facility,205 W 9TH STREET,ONAGA,POTTAWATOMIE,KS,66521,TAYLOR HAGEDORN,785-889-4142,US
USA-KS-91-KS-All-output-135,REGENT PARK ASSISTED LIVING AND MEMORY CARE,N087069,Assisted Living Facility,10600 E 13TH STREET NORTH,WICHITA,SEDGWICK,KS,67206,TRACI HAYDEN,316-337-5400,US
USA-KS-91-KS-All-output-136,RIVER BEND ASSISTED LIVING,N005006,Assisted Living Facility,3820 BROADWAY,GREAT BEND,BARTON,KS,67530,JAMIE VSETECKA-PETERS,620-792-7017,US
USA-KS-91-KS-All-output-137,ROLLING HILLS ASSISTED LIVING APARTMENTS,N089036,Assisted Living Facility,2410 SW URISH ROAD,TOPEKA,SHAWNEE,KS,66614-4347,TAMMY BLAKE,785-273-2202,US
USA-KS-91-KS-All-output-138,ROOKS CO SENIOR SERVICES INC,N082001,Nursing Facility; Assisted Living Facility,1000 S WASHINGTON STREET,PLAINVILLE,ROOKS,KS,67663-3699,FONTELLA FANT,785-434-4536,US
USA-KS-91-KS-All-output-139,ROSE ESTATES ASSISTED LIVING COMMUNITY,N046060,Assisted Living Facility,12700 ANTIOCH ROAD,OVERLAND PARK,JOHNSON,KS,66213-2723,ALAN WARE,913-825-9600,US
USA-KS-91-KS-All-output-140,SALINA PRESBYTERIAN MANOR,N085005,Nursing Facility; Residential Health Care Facility; Assisted Living Facility,2601 E. CRAWFORD STREET,SALINA,SALINE,KS,67401-3791,DESIDERATA JADE DANGELO,785-825-1366,US
USA-KS-91-KS-All-output-141,SANDSTONE HEIGHTS NURSING HOME,N080002,Nursing Facility; Assisted Living Facility,"440 STATE STREET, PO BOX 50A",LITTLE RIVER,RICE,KS,67457,TODD D. SCHLOSSER,620-897-6266,US
USA-KS-91-KS-All-output-142,SCHOWALTER VILLA,N040006,Nursing Facility; Assisted Living Facility,"200 W. CEDAR STREET, PO BOX 5000",HESSTON,HARVEY,KS,67062-2095,TREVA GREASER,620-327-0400,US
USA-KS-91-KS-All-output-143,SEDGWICK PLAZA,N087033,Assisted Living Facility,2455 N. WOODLAWN STREET,WICHITA,SEDGWICK,KS,67220-3950,TERRI GREAVES,316-687-3741,US
USA-KS-91-KS-All-output-144,SHAWNEE HEARTLAND ASSISTED LIVING,N046056,Assisted Living Facility,16207 MIDLAND DRIVE,SHAWNEE,JOHNSON,KS,66217,STEVEN BUSBY,913-248-6600,US
USA-KS-91-KS-All-output-145,SHERIDAN COUNTY HEALTH COMPLEX ASSISTED LIVING,N090001,Assisted Living Facility,"826 18TH STREET, PO BOX 167",HOXIE,SHERIDAN,KS,67740,STACEY BROWN,785-675-3281,US
USA-KS-91-KS-All-output-146,SILVERCREST AT COLLEGE VIEW,N046094,Assisted Living Facility; Residential Health Care Facility,13600 WEST 110TH TERRACE,LENEXA,JOHNSON,KS,66215,NANCY CORRELL,913-915-6041,US
USA-KS-91-KS-All-output-147,SILVERCREST AT DEER CREEK,N046070,Assisted Living Facility,13060 S. METCALF AVENUE,OVERLAND PARK,JOHNSON,KS,66213-2618,KATRINA LYNN SIMMS,913-681-1101,US
USA-KS-91-KS-All-output-148,STONEYBROOK ASSISTED LIVING,N081007,Assisted Living Facility,2029 LITTLE KITTEN AVENUE,MANHATTAN,RILEY,KS,66503-7545,KAREN VIDRICKSEN,785-537-1065,US
USA-KS-91-KS-All-output-149,STONEYBROOK RETIREMENT COMMUNITY,N081005,Nursing Facility; Assisted Living Facility,2025 LITTLE KITTEN AVENUE,MANHATTAN,RILEY,KS,66503-7545,ARELYS CLARK,785-776-0065,US
USA-KS-91-KS-All-output-150,STRATFORD COMMONS MEMORY CARE COMMUNITY,N046045,Assisted Living Facility,12340 QUIVIRA ROAD,OVERLAND PARK,JOHNSON,KS,66213-2408,LAURA TENPENNY,913-851-0215,US
USA-KS-91-KS-All-output-151,SUNRISE ASSISTED LIVING OF LEAWOOD,N046072,Assisted Living Facility; Residential Health Care Facility,11661 GRANADA AVENUE,LEAWOOD,JOHNSON,KS,66211,DEVIN ALLRED,913-906-0200,US
USA-KS-91-KS-All-output-152,SUNRISE ASSISTED LIVING OF LENEXA,N046071,Assisted Living Facility; Residential Health Care Facility,15055 W. 87TH STREET PARKWAY,LENEXA,JOHNSON,KS,66215,BENJAMIN ROSS,913-307-0665,US
USA-KS-91-KS-All-output-153,SUNRISE ASSISTED LIVING OF OVERLAND PARK,N046074,Assisted Living Facility; Residential Health Care Facility,12500 W. 135TH STREET,OVERLAND PARK,JOHNSON,KS,66221,AMY WRIGHT,913-685-3340,US
USA-KS-91-KS-All-output-154,SUNSET HOME INC,N015006,Nursing Facility; Assisted Living Facility; Residential Health Care Facility,620 2ND AVENUE,CONCORDIA,CLOUD,KS,66901-2727,TERESA SHORE,785-243-2720,US
USA-KS-91-KS-All-output-155,TALLGRASS CREEK INC,N046088,Nursing Facility; Residential Health Care Facility; Assisted Living Facility,13760 METCALF AVENUE,OVERLAND PARK,JOHNSON,KS,66223,PAMELA L HAMAN,913-945-2004,US
USA-KS-91-KS-All-output-156,THE CEDARS,N059009,Nursing Facility; Assisted Living Facility,1021 CEDARS DR,MCPHERSON,MCPHERSON,KS,67460-2735,CARMA WALL,620-241-0919,US
USA-KS-91-KS-All-output-157,THE GABLES AT OVERLAND PARK,N046068,Assisted Living Facility,11701 NIEMAN ROAD,OVERLAND PARK,JOHNSON,KS,66210-4310,KATHY WILCOX,913-345-2200,US
USA-KS-91-KS-All-output-158,THE HOMESTEAD OF AUBURN,N089042,Assisted Living Facility,280 E VALLEY SPRINGS DR,AUBURN,SHAWNEE,KS,66402-,LESLEY MUETING,785-256-7100,US
USA-KS-91-KS-All-output-159,THE HOMESTEAD OF GARDEN CITY,N028003,Assisted Living Facility,2414 N HENDERSON DR,GARDEN CITY,FINNEY,KS,67846-,TIMOTHY D WHITE,620-272-9800,US
USA-KS-91-KS-All-output-160,THE HOMESTEAD OF HALSTEAD,N040008,Assisted Living Facility,715 W 6TH ST,HALSTEAD,HARVEY,KS,67056-,RODNEY HALEY,316-830-2424,US
USA-KS-91-KS-All-output-161,THE HOMESTEAD OF LEAVENWORTH,N052006,Assisted Living Facility,5150 HUGHES RD,LEAVENWORTH,LEAVENWORTH,KS,66048-5022,KELLI JO DAVISON,913-727-9600,US
USA-KS-91-KS-All-output-162,THE HOMESTEAD OF LEAWOOD,N046039,Assisted Living Facility,12720 STATELINE RD,LEAWOOD,JOHNSON,KS,66209-1619,KIMBERLY KAY GRANT,913-663-3351,US
USA-KS-91-KS-All-output-163,THE HOMESTEAD OF LENEXA,N046043,Assisted Living Facility,8740 CAENEN LAKE RD,LENEXA,JOHNSON,KS,66215-,DEBBIE BECKFORD,913-894-0014,US
USA-KS-91-KS-All-output-164,THE HOMESTEAD OF MANHATTAN,N081006,Assisted Living Facility,1923 LITTLE KITTEN AVE,MANHATTAN,RILEY,KS,66502-7545,TERRI PARR,785-776-1772,US
USA-KS-91-KS-All-output-165,THE HOMESTEAD OF OLATHE NORTH,N046040,Assisted Living Facility,791 N SOMERSET TERRACE,OLATHE,JOHNSON,KS,66062,KARLY BLACK,913-829-1403,US
USA-KS-91-KS-All-output-166,THE HOMESTEAD OF OLATHE SOUTH,N046038,Assisted Living Facility,751 N SOMERSET TERR,OLATHE,JOHNSON,KS,66062-5450,AMANDA SAUNDERS,913-829-4663,US
USA-KS-91-KS-All-output-167,THE HOMESTEAD OF TOPEKA,N089035,Assisted Living Facility,5820 SW DRURY LN,TOPEKA,SHAWNEE,KS,66604-2262,SUSAN BULLOCK,785-272-2200,US
USA-KS-91-KS-All-output-168,THE HOMESTEAD OF WICHITA,N087042,Assisted Living Facility,12221 W. MAPLE STREET,WICHITA,SEDGWICK,KS,67235,VICKY NOLL,316-729-2400,US
USA-KS-91-KS-All-output-169,THE LEGACY AT PARK VIEW,N034001,Nursing Facility; Assisted Living Facility,510 E. SAN JACINTO AVENUE,ULYSSES,GRANT,KS,67880-1899,KIMBERLE B DOTY,620-356-3331,US
USA-KS-91-KS-All-output-170,THE MEADOWS,N016003,Assisted Living Facility,1201 MARTINDALE ST,BURLINGTON,COFFEY,KS,66839-2400,LANA BAHR,620-364-8861,US
USA-KS-91-KS-All-output-171,THE OXFORD GRAND,N087075,Assisted Living Facility,3051 N. PARKDALE CIRCLE,WICHITA,SEDGWICK,KS,67205,IRIS TURNER,316-927-2007,US
USA-KS-91-KS-All-output-172,THE PIPER,N105018,Assisted Living Facility; Residential Health Care Facility,2300 N. 113TH TERRACE,KANSAS CITY,WYANDOTTE,KS,66109,MICHELLE NICHOLS,913-400-7006,US
USA-KS-91-KS-All-output-173,THE PLAZA HEALTH SERVICES AT SANTA MARTA,N046075,Nursing Facility; Assisted Living Facility; Residential Health Care Facility,13875 W. 115TH TERRACE,OLATHE,JOHNSON,KS,66062-7833,DOUGLAS W FRIHART,913-906-0990,US
USA-KS-91-KS-All-output-174,THE SHERIDAN AT OVERLAND PARK,N046102,Assisted Living Facility; Residential Health Care Facility,10300 INDIAN CREEK PARKWAY,OVERLAND PARK,JOHNSON,KS,66210,AMIEE SECK,913-232-8232,US
USA-KS-91-KS-All-output-175,THE WINDSOR OF LAWRENCE,N023017,Assisted Living Facility,3220 PETERSON RD,LAWRENCE,DOUGLAS,KS,66049-1942,KAREN HALBERT,785-832-9900,US
USA-KS-91-KS-All-output-176,TOP CITY HEALTHCARE INC,N089065,Nursing Facility; Assisted Living Facility,6300 SW 6TH AVENUE,TOPEKA,SHAWNEE,KS,66615,BRETT COOK,785-272-2124,US
USA-KS-91-KS-All-output-177,TREGO LEMKE ASSISTED LIVING,N098002,Assisted Living Facility,303 N 14TH ST,WAKEENEY,TREGO,KS,67672 2002,STACI WEIGEL,785-743-2182,US
USA-KS-91-KS-All-output-178,TWIN OAKS ASSISTED LIVING,N052007,Assisted Living Facility,657 EISENHOWER,LANSING,LEAVENWORTH,KS,66043-1913,STEPHEN M PARROTT,913-727-6100,US
USA-KS-91-KS-All-output-179,TWO TRAILS HEALTHCARE INC,N046092,Nursing Facility; Assisted Living Facility,21250 W 151ST STREET,OLATHE,JOHNSON,KS,66051-0768,HAYLEY WISNIESKI,913-390-0444,US
USA-KS-91-KS-All-output-180,VIA CHRISTI VILLAGE GEORGETOWN INC,N087051,Assisted Living Facility,1655 GEORGETOWN ST,WICHITA,SEDGWICK,KS,67218-4120,BETHANY LELAND,316-685-0400,US
USA-KS-91-KS-All-output-181,VIA CHRISTI VILLAGE MANHATTAN INC,N081001,Nursing Facility; Assisted Living Facility,2800 WILLOW GROVE RD,MANHATTAN,RILEY,KS,66502-2096,CHEYENNE J. STRUNK,785-539-7671,US
USA-KS-91-KS-All-output-182,VIA CHRISTI VILLAGE MCLEAN INC,N087056,Nursing Facility; Assisted Living Facility,777 N MCLEAN BLVD,WICHITA,SEDGWICK,KS,67203-4980,COURTNEY WOLFE,316-942-7000,US
USA-KS-91-KS-All-output-183,VIA CHRISTI VILLAGE PITTSBURG,N019013,Nursing Facility; Assisted Living Facility,1502 E CENTENNIAL STREET,PITTSBURG,CRAWFORD,KS,66762,DANA P. DUGGER,620-235-0020,US
USA-KS-91-KS-All-output-184,VIA CHRISTI VILLAGE RIDGE,N087057,Nursing Facility; Assisted Living Facility,"3636 NORTH RIDGE ROAD, BLDG #400",WICHITA,SEDGWICK,KS,67205,DAVID KARLIN,316-462-3636,US
USA-KS-91-KS-All-output-185,VICTORIA FALLS ASSISTED LIVING,N008011,Assisted Living Facility,408 E CENTRAL PO BOX 906,ANDOVER,BUTLER,KS,67002-,THOMAS M BRODERICK,316-733-0334,US
USA-KS-91-KS-All-output-186,VICTORY HILLS SENIOR LIVING COMMUNITY,N105015,Assisted Living Facility,1900 N 70TH,KANSAS CITY,WYANDOTTE,KS,66102-,JARED PILSL,913-299-1166,US
USA-KS-91-KS-All-output-187,VILLAGE ESTATES,N044004,Assisted Living Facility,PO BOX 346,NORTONVILLE,JEFFERSON,KS,66060-346,SWEDE SWAGERTY,913-886-6400,US
USA-KS-91-KS-All-output-188,VILLAGE SHALOM INC,N046054,Nursing Facility; Assisted Living Facility; Residential Health Care Facility,5500 W 123RD STREET,OVERLAND PARK,JOHNSON,KS,66209,MATTHEW LEWIS,913-317-2600,US
USA-KS-91-KS-All-output-189,VINTAGE PARK AT ATCHISON,N003005,Assisted Living Facility,1301 N 4TH,ATCHISON,ATCHISON,KS,66002,CHANTAL WILBURN,913-367-2655,US
USA-KS-91-KS-All-output-190,VINTAGE PARK AT BALDWIN CITY,N023018,Assisted Living Facility,321 CRIMSON AVENUE,BALDWIN CITY,DOUGLAS,KS,66006,ROBERT RUSSELL,785-594-4255,US
USA-KS-91-KS-All-output-191,VINTAGE PARK AT EUREKA,N037005,Assisted Living Facility,1820 E. RIVER STREET,EUREKA,GREENWOOD,KS,67045-2156,DELLA BLESSIE,620-583-7473,US
USA-KS-91-KS-All-output-192,VINTAGE PARK AT GARDNER,N046055,Assisted Living Facility,869 JUNIPER TERRACE,GARDNER,JOHNSON,KS,66030,CALEB GAYLORD,913-856-7643,US
USA-KS-91-KS-All-output-193,VINTAGE PARK AT HIAWATHA,N007006,Assisted Living Facility,400 KANSAS AVENUE,HIAWATHA,BROWN,KS,66434,JANELLE DICKINSON,785-742-4566,US
USA-KS-91-KS-All-output-194,VINTAGE PARK AT HOLTON,N043004,Assisted Living Facility,410 JUNIPER DRIVE,HOLTON,JACKSON,KS,66436,MEGAN OLSON,785-364-5051,US
USA-KS-91-KS-All-output-195,VINTAGE PARK AT LENEXA,N046037,Assisted Living Facility,8710 CAENEN LAKE ROAD,LENEXA,JOHNSON,KS,66215-2069,LAKISHA WILLIAMS,913-894-6979,US
USA-KS-91-KS-All-output-196,VINTAGE PARK AT LOUISBURG,N061008,Assisted Living Facility,202 S. ROGERS RD,LOUISBURG,MIAMI,KS,66053,SHONNA LOONEY,913-837-5133,US
USA-KS-91-KS-All-output-197,VINTAGE PARK AT OSAGE CITY,N070006,Assisted Living Facility,1403 LAING STREET,OSAGE CITY,OSAGE,KS,66067,JODI A. SMITH,785-528-5095,US
USA-KS-91-KS-All-output-198,VINTAGE PARK AT OSAWATOMIE,N061009,Assisted Living Facility,1520 PARKER AVENUE,OSAWATOMIE,MIAMI,KS,66064,CARMEN BEHM,913-755-2167,US
USA-KS-91-KS-All-output-199,VINTAGE PARK AT OTTAWA,N030008,Assisted Living Facility,2250 S. ELM STREET,OTTAWA,FRANKLIN,KS,66067,TINA CARUTHERS,785-242-3715,US
USA-KS-91-KS-All-output-200,VINTAGE PARK AT PAOLA,N061010,Assisted Living Facility,601 N. EAST STREET,PAOLA,MIAMI,KS,66071-1183,CHERYL HOPKINS,913-557-0202,US
USA-KS-91-KS-All-output-201,VINTAGE PARK AT STANLEY,N046069,Assisted Living Facility,14430 METCALF AVENUE,OVERLAND PARK,JOHNSON,KS,66223-2989,JESSICA BRADHAM,913-897-1414,US
USA-KS-91-KS-All-output-202,VINTAGE PARK AT TONGANOXIE,N052008,Assisted Living Facility,120 W. 8TH STREET,TONGANOXIE,LEAVENWORTH,KS,66086,MICHAEL SHOEMAKER,913-845-2204,US
USA-KS-91-KS-All-output-203,VINTAGE PARK AT WAMEGO,N075006,Assisted Living Facility,1607 4TH STREET,WAMEGO,POTTAWATOMIE,KS,66547,JENNIFER PAYTON,785-456-8997,US
USA-KS-91-KS-All-output-204,VINTAGE PARK AT WATERFRONT,N087039,Assisted Living Facility,900 N. BAYSHORE DRIVE,WICHITA,SEDGWICK,KS,67212,CRYSTAL RICH,316-945-3344,US
USA-KS-91-KS-All-output-205,WAKEFIELD CARE & REHABILITATION CENTER LLC,N014003,Nursing Facility; Assisted Living Facility,509 GROVE STREET,WAKEFIELD,CLAY,KS,67487,GLENDA DOWNING,785-461-5417,US
USA-KS-91-KS-All-output-206,WALDRON PLACE,N078016,Assisted Living Facility,1700 E 23RD,HUTCHINSON,RENO,KS,67502-,WILLIAM B. GAULT,620-662-4114,US
USA-KS-91-KS-All-output-207,WALLACE COUNTY COMMUNITY CARE CENTER INC,N100001C,Nursing Facility; Residential Health Care Facility; Assisted Living Facility,608 N KENNEDY,SHARON SPRINGS,WALLACE,KS,677589762,RENAE KERSENBROCK,785-852-4244,US
USA-KS-91-KS-All-output-208,WELLSVILLE MANOR,N030004,Nursing Facility; Assisted Living Facility,304 W 7TH ST,WELLSVILLE,FRANKLIN,KS,66092-7800,SCOTT AVERILL,785-883-4101,US
USA-KS-91-KS-All-output-209,WESLEY TOWERS INC,N078010,Nursing Facility; Assisted Living Facility,700 MONTEREY PL,HUTCHINSON,RENO,KS,67502-2248,JUDITH WINELAND,620-663-9175,US
USA-KS-91-KS-All-output-210,WESTRIDGE,N019011,Assisted Living Facility,950 W ST JOHN ST,GIRARD,CRAWFORD,KS,66743-,KATHRYN NELSON,620-724-6760,US
USA-KS-91-KS-All-output-211,WESTY COMMUNITY CARE HOME INC,N075005,Nursing Facility; Assisted Living Facility,105 N HIGHWAY 99,WESTMORELAND,POTTAWATOMIE,KS,66549-,SARAH N EISENBARTH,785-457-2801,US
USA-KS-91-KS-All-output-212,WHEAT RIDGE ACRES ASSISTED LIVING,N091002,Assisted Living Facility; Residential Health Care Facility,707 WHEAT RIDGE CIRCLE,GOODLAND,SHERMAN,KS,67735,JUDY GOODWIN,785-899-0100,US
USA-KS-91-KS-All-output-213,WHISPERING PINES,N069010,Assisted Living Facility,200 WHISPERING PINES,NORTON,NORTON,KS,67654-,ROBERT STEPHENSON,785-874-5500,US
USA-KS-91-KS-All-output-214,WICHITA PRESBYTERIAN MANOR,N087023,Nursing Facility; Residential Health Care Facility; Assisted Living Facility,4700 W. 13TH STREET NORTH,WICHITA,SEDGWICK,KS,67212-5599,BRADLEY S RADATZ,316-942-7456,US
USA-KS-91-KS-All-output-215,WINFIELD SENIOR LIVING COMMUNITY,N018006,Nursing Facility; Assisted Living Facility,1320 WHEAT ROAD,WINFIELD,COWLEY,KS,67156-4704,LAURA LACHMAN,620-221-4660,US
USA-KS-91-KS-All-output-216,WOODRIDGE ESTATES,N050011,Assisted Living Facility,329 N KAY LANE,PARSONS,LABETTE,KS,67357,MADALINE SHOCKEY,620-421-4700,US
