row_id,name,typeofcare,description,primary_phone,primary_phone_extension,secondary_phone,secondary_phone_extension,fax,email,website,low_rate,address_line_1,address_line_2,latitude,longitude,city,province,postal_code,country,neighborhood
USA-AK-70-AK-AssistedLiving-output-1,3707 Oregon,Assisted Living,,244 9504,,,,,scott@aofalaska.com,,,3707 Oregon St.,,61.1868168,-149.9176571,Anchorage,,99517,,Spenard
USA-AK-70-AK-AssistedLiving-output-2,7th Son Assisted Living,Assisted Living,,354 4757,,,,,andrewcorbin@gci.net,,,1120 South Gurn Circle,,61.595892,-149.134718,Palmer,,99645,,
USA-AK-70-AK-AssistedLiving-output-3,Aaron Assisted Living I,Assisted Living,,230 0358,,,,,aaronalrf@aol.com,,,3800 Gardner St.,,61.1861819,-149.7831723,Anchorage,,99508,,U-MED District
USA-AK-70-AK-AssistedLiving-output-4,Aaron Assisted Living II,Assisted Living,,230 0358,,,,,Aaronalrf@aol.com,,,4201 Resurrection Dr.,,61.1837,-149.728371,Anchorage,,99504,,Scenic Foothills
USA-AK-70-AK-AssistedLiving-output-5,Aaron Assisted Living III,Assisted Living,,230 0358,,,,,aaronalrf@aol.com,,,2901 Valleywood Drive,,61.1771542,-149.9379112,Anchorage,,99517,,Spenard
USA-AK-70-AK-AssistedLiving-output-6,Abc Assisted Living,Assisted Living,,373 5512,,,,(907) 631 3208,cmallen@gci.net,,,7481 Territorial Drive,,61.495686,-149.61798,Wasilla,,99654,,
USA-AK-70-AK-AssistedLiving-output-7,"Above Care Alh, Llc",Dementia Care;Assisted Living,,891 2454,,,,891 2454,arlenis80@yahoo.com,,,2351 Paxson Dr.,,61.1992885,-149.7460575,Anchorage,,99504,,Northeast Anchorage
USA-AK-70-AK-AssistedLiving-output-8,Abra Assisted Living Home,Dementia Care;Assisted Living,,522 0564,,,,,aga-pita@hotmail.com,,,1609 Betula Circle,,61.1287887,-149.8531976,Anchorage,,99505,,Abbott Loop
USA-AK-70-AK-AssistedLiving-output-9,"Abuelita Alh, Llc",Dementia Care;Assisted Living,,677 0230,,,,,pegris@hotmail.com,,,1105 San Antonio Street,,29.6935405,-98.1333142,Anchorage,,99508,,
USA-AK-70-AK-AssistedLiving-output-10,Adl Unlimited,Assisted Living,,222 1794,,,,,rjrcreations@alaskan.com/ak_nathanrobinson@hotmail,,,1722 West 99th Avenue,,61.1317106,-149.9112417,Anchorage,,99515,,Bayshore / Klatt
USA-AK-70-AK-AssistedLiving-output-11,Advantage Senior Care Llc,Dementia Care;Assisted Living,,345 3416,,,,,nursemate43@yahoo.com,,,2060 Brigadier,,61.1354727,-149.8430649,Anchorage,,99507,,Abbott Loop
USA-AK-70-AK-AssistedLiving-output-12,Aimaagvik Assisted Living,Dementia Care;Assisted Living,,852 0272,,,,,diane.nosbisch@arcticslope.org,,,5452 North Star Street,,71.299217,-156.7521941,Utqiagvik,,99723,,
USA-AK-70-AK-AssistedLiving-output-13,"Ak Care, Comfort And Company",Dementia Care;Assisted Living,,929 1234,,,,,alaskacare@gci.net,,,1419 Annapolis Drive,,61.1914374,-149.8552366,Anchorage,,99508,,Rogers Park
USA-AK-70-AK-AssistedLiving-output-14,Ak Holly Haven,Assisted Living,,727 3442,,,,,kellygalaska35@gmail.com,,,4253 N. Clark WolverineRd,,61.626631,-149.058781,Palmer,,99645,,
USA-AK-70-AK-AssistedLiving-output-15,Ak Nurtured Living,Assisted Living,,754 3550,,,,,Kellyscott96@yahoo.com,,,17350 Dorismae Circle,,61.54672,-149.013983,Palmer,,99645,,
USA-AK-70-AK-AssistedLiving-output-16,Alaska Care Assisted Living,Dementia Care;Assisted Living,,227 5306,,,,,kristelstout@gmail.com,,,3120 W. 79th Ave,,61.1489717,-149.9377458,Anchorage,,99502,,Sand Lake
USA-AK-70-AK-AssistedLiving-output-17,Alaska Care Home,Dementia Care;Assisted Living,,903 3619,,,,,juliedf@gmail.com,,,5511 W. Montclaire Avenue,,61.5534645,-149.5894404,Wasilla,,99623,,
USA-AK-70-AK-AssistedLiving-output-18,Alaska Helps Assisted Living Home,Assisted Living,,727 3057,,,,522 6457,akhelps1@gmail.com,,,4861 Southpark Bluff Drive,,61.0799456,-149.7916082,Anchorage,,99508,,Rabbit Creek
USA-AK-70-AK-AssistedLiving-output-19,"Alaska Olive Care II, Llc",Dementia Care;Assisted Living,,440 1084,,,,245 3472,lucyb1127@yahoo.com,,,708 N. Bunn St.,,61.2298745,-149.7995353,Anchorage,,99508,,Mountain View
USA-AK-70-AK-AssistedLiving-output-20,Alaska Olive Care Llc,Dementia Care;Assisted Living,,440 1084,,,,,spankyventura@aol.com,,,702 N. Bunn St.,,61.229725,-149.7995171,Anchorage,,99508,,Mountain View
USA-AK-70-AK-AssistedLiving-output-21,Alaska Premier Assisted Living Llc,Assisted Living,,(907) 382 0991,,,,,alaskapremierassistedliving@gmail.com,,,4635 E. 4th Ave,,61.2189936,-149.7939702,Anchorage,,99508,,Russian Jack Park
USA-AK-70-AK-AssistedLiving-output-22,Alaska Quality Care,Assisted Living,,433 9189,,,,(866) 536 5825,lucyb1127@yahoo.com,,,8811 Cordell Circle,,61.1406863,-149.9428999,Anchorage,,99502,,Sand Lake
USA-AK-70-AK-AssistedLiving-output-23,"Alaska Quality Care II, Llc",Assisted Living,,(907) 433 9189,,,,,lucyb1127@yahoo.com,,,4010 E. 8th Ave,,25.8593176,-80.2669944,Anchorage,,99508,,
USA-AK-70-AK-AssistedLiving-output-24,Alaska VETERANS' And Pioneers' Home,Dementia Care;Assisted Living,,745 4241,,,,,joshua.shaver@alaska.gov,,,250 E. Fireweed,,61.596472,-149.113092,Palmer,,99645,,
USA-AK-70-AK-AssistedLiving-output-25,Alaskan Folks,Dementia Care;Assisted Living,,376 8320,,,,,marjory@mtaonline.net,,,8320 S. Kingfisher Dr.,,61.487294,-149.661833,Wasilla,,99654,,
USA-AK-70-AK-AssistedLiving-output-26,"Alaskan Red Assisted Living, Llc",Assisted Living,,891 3827,,,,,alaskanredassistedlivingllc@gmail.com,,,6291 Gross Drive,,61.1641618,-149.8238619,Anchorage,,99514,,Abbott Loop
USA-AK-70-AK-AssistedLiving-output-27,Alaskan Ruby Alh,Dementia Care;Assisted Living,,350 7781,,,,339 9403,virginiarafael70@yahoo.com,,,1130 Contrary Court,,61.1359207,-149.8603994,Anchorage,,99515,,Bayshore / Klatt
USA-AK-70-AK-AssistedLiving-output-28,Aldergrove Assisted Living,Dementia Care;Assisted Living,,435 3938,,,,,aldergroveassistedliving@hotmail.com,,,41045 Denny Lane,,59.6769308,-151.6892425,Homer,,99603,,
USA-AK-70-AK-AssistedLiving-output-29,Alfredo Bolivar Assisted Living Home,Assisted Living,,868 7548,,,,868 5155,ALFREDOBOLIVAR@gci.net,,,2425 Marian Bay Circle,,33.8962953,-79.2934345,Anchorage,,99515,,
USA-AK-70-AK-AssistedLiving-output-30,Alkamba Assisted Living Home,Assisted Living,,278 1754,,,,677 9211,sidatmarenah@aol.com,,,"1545 Demeure Place, Apt A",,61.2071365,-149.8088005,Anchorage,,99508,,Airport Heights Community Council
USA-AK-70-AK-AssistedLiving-output-31,"All About Care I, INC.",Dementia Care;Assisted Living,,339 9688,,,,,allaboutcare@gci.net,,,9300 Aphrodite Drive,,61.1364568,-149.9140863,Anchorage,,99515,,Bayshore / Klatt
USA-AK-70-AK-AssistedLiving-output-32,"All About Care II, INC.",Dementia Care;Assisted Living,,339 9683,,,,,allaboutcare@gci.net,,,2517 Azurite Circle,,61.1459758,-149.8353557,Anchorage,,99507,,Abbott Loop
USA-AK-70-AK-AssistedLiving-output-33,"All About Care III, INC.",Dementia Care;Assisted Living,,339 0482,,,,,allaboutcare@gci.net,,,2515 Azurite Circle,,61.1465348,-149.8350426,Anchorage,,99507,,Abbott Loop
USA-AK-70-AK-AssistedLiving-output-34,"All About Care IV, INC",Dementia Care;Assisted Living,,339 0492,,,,,allaboutcare@gci.net,,,2505 Azurite Circle,,61.1462547,-149.8353812,Anchorage,,99507,,Abbott Loop
USA-AK-70-AK-AssistedLiving-output-35,Alpenglow Short Term Assisted Living,Dementia Care;Assisted Living,,562 5080,,,,562 5081,allaboutcare@gci.net,,,"3801 Lake Otis Parkway, Suite 250",,61.1857062,-149.8373635,Anchorage,,99508,,U-MED District
USA-AK-70-AK-AssistedLiving-output-36,Alpha-omega,Dementia Care;Assisted Living,,245 7405,,,,,djkoolji@yahoo.com,,,1023 State St. Unit B,,41.0989482,-112.0107997,Anchorage,,99504,,
USA-AK-70-AK-AssistedLiving-output-37,Alpine Alh,Dementia Care;Assisted Living,,947 3795,,,,,hregiste@yahoo.com,,,3811 Gardner Street,,61.1860126,-149.7822684,Anchorage,,99507,,U-MED District
USA-AK-70-AK-AssistedLiving-output-38,"Althea Assisted Living Home, Llc",Dementia Care;Assisted Living,,322 3032,,,,322 3031,altheaALH@yahoo.com,,,2634-B Carroll Place,,61.1963066,-149.7836015,Anchorage,,99508,,Russian Jack Park
USA-AK-70-AK-AssistedLiving-output-39,Ambassador For Christ (afc) Div. Svcs.,Assisted Living,,575 9709,,,,,afcnq1@gci.net,,,7201 Biglerville Circle,,61.1553933,-149.8235514,Anchorage,,99507,,Abbott Loop
USA-AK-70-AK-AssistedLiving-output-40,Amber Drive,Assisted Living,,(907) 631 3078,,,,(907) 631 3518,jeanne.owen@genacta.com,,,5545 S. Irwin Drive #3,,61.519493,-149.618257,Wasilla,,99654,,
USA-AK-70-AK-AssistedLiving-output-41,Ananda House,Assisted Living,,982 7897,,,,,kategibbs.prater@gmail.com,,,3550 S. Valley View Drive,,61.542181,-149.608022,Wasilla,,99623,,
USA-AK-70-AK-AssistedLiving-output-42,Anchor House,Dementia Care;Assisted Living,,274 7391,,,,,SK@anchor-house.biz,,,1058 W. 27th Avenue,,61.1959718,-149.9031542,Anchorage,,99503,,North Star
USA-AK-70-AK-AssistedLiving-output-43,Anchorage Manor #1,Dementia Care;Assisted Living,,334 9986,,,,334 1980,jcnewhaven@gci.net,,,2121 E. 73rd Avenue #1,,61.1549579,-149.8425289,Anchorage,,99507,,Abbott Loop
USA-AK-70-AK-AssistedLiving-output-44,Anchor'care Assisted Living Home,Dementia Care;Assisted Living,,720 9914,,,,332 1122,nhaniel@alaska.net,,,"5225 E. 22nd Ave., Unit B",,61.2009598,-149.7831729,Anchorage,,99508,,Russian Jack Park
USA-AK-70-AK-AssistedLiving-output-45,"Anchored Abode Assisted Living, Llc.",Assisted Living,,538 5858,,,,334 3382,daniel.ray.stanton@gmail.com,,,"3909 Turnagain Blvd. East, Suite 1",,61.1850689,-149.9348611,Anchorage,,99517,,Turnagain
USA-AK-70-AK-AssistedLiving-output-46,Anderson-smith Assisted Living Home,Assisted Living,,694 1586,,,,,debbie.debbie.andersonsmith1@gmail.com,,,26031 Log Cabin Circle,,61.284984,-149.396632,Eagle River,,99577,,Eagle River
USA-AK-70-AK-AssistedLiving-output-47,Aoki House,Assisted Living,,631 3042,,,,631 3046,jennifer@allgoodhomesllc.com,,,3551 North Aoki Drive,,61.6203154,-149.3833957,Wasilla,,99654,,
USA-AK-70-AK-AssistedLiving-output-48,Apc - Cormorant Cove,Dementia Care;Assisted Living,,222 6100,,,,,,,,8431 Cormorant Cove Circle,,61.1442245,-149.7897873,Anchorage,,99507,,Abbott Loop
USA-AK-70-AK-AssistedLiving-output-49,Apc - Wesleyan House,Dementia Care;Assisted Living,,677 9000,,,,334 3003,,,,2683 Wesleyan Drive,,61.1962573,-149.7880937,Anchorage,,99508,,Russian Jack Park
USA-AK-70-AK-AssistedLiving-output-50,"Aphrodite Assisted Living Home II, INC",Dementia Care;Assisted Living,,344 9442,,,,,,,,1610 Woo Blvd.,,41.9109405,-87.672886,Anchorage,,99515,,West Town
USA-AK-70-AK-AssistedLiving-output-51,"Aphrodite Assisted Living, INC",Dementia Care;Assisted Living,,(907) 230 8486,,,,(907) 868 1599,aphroditealh@gmail.com,,,9101 Toloff Street,,61.138286,-149.841033,Anchorage,,99507,,Abbott Loop
USA-AK-70-AK-AssistedLiving-output-52,Aqqaimmuk House,Assisted Living,,442 2224,,,,,bree.swanson@maniilaq.org,,,843 Turf St.,,66.902939,-162.5839353,Kotzebue,,99752,,
USA-AK-70-AK-AssistedLiving-output-53,Arc - 2210 Unit #2,Assisted Living,,777 0133,,,,,brath@thearcofanchorage.org,,,2210 Arca Drive Unit #2,,61.200538,-149.819776,Anchorage,,99508,,Airport Heights Community Council
USA-AK-70-AK-AssistedLiving-output-54,Arc - Aldona,Assisted Living,,277 6677,,,,272 2161,brath@thearcofanchorage.org,,,6299 Aldona Cr.,,61.1887434,-149.7639023,Anchorage,,99508,,U-MED District
USA-AK-70-AK-AssistedLiving-output-55,Arc - Camelot A,Assisted Living,,277 6677,,,,272 2161,brath@thearcofanchorage.org,,,"5417 Camelot Drive, #A",,61.220577,-149.780341,Anchorage,,99508,,Russian Jack Park
USA-AK-70-AK-AssistedLiving-output-56,Arc - Camelot B,Assisted Living,,277 6677,,,,272 2161,brath@thearcofanchorage.org,,,"5419 Camelot Drive, #B",,61.2205494,-149.7803341,Anchorage,,99508,,Russian Jack Park
USA-AK-70-AK-AssistedLiving-output-57,Arc - Camrose,Assisted Living,,277 6677,,,,272 2161,brath@thearcofanchorage.org,,,6100 Camrose Drive,,61.1964718,-149.7658022,Anchorage,,99504,,Northeast Anchorage
USA-AK-70-AK-AssistedLiving-output-58,Arc - Castle Court,Assisted Living,,277 6677,,,,272 2161,brath@thearcofanchorage.org,,,4939 Castle Court,,40.127117,-82.63694,Anchorage,,99508,,
USA-AK-70-AK-AssistedLiving-output-59,Arc - Collie Hill Way,Assisted Living,,277 6677,,,,272 2161,brath@thearcofanchorage.org,,,2636 Collie Hill Way,,61.1962868,-149.774522,Anchorage,,99504,,Northeast Anchorage
USA-AK-70-AK-AssistedLiving-output-60,Arc - E. 67th,Assisted Living,,277 6677,,,,272 2161,brath@thearcofanchorage.org,,,4070 E. 67th Avenue,,61.1598444,-149.8062223,Anchorage,,99507,,Abbott Loop
USA-AK-70-AK-AssistedLiving-output-61,Arc - Elmore,Assisted Living,,277 6677,,,,272 2161,brath@thearcofanchorage.org,,,4095 E. 68th Street,,61.1593093,-149.806251,Anchorage,,99507,,Abbott Loop
USA-AK-70-AK-AssistedLiving-output-62,Arc - Greendale,Assisted Living,,277 6677,,,,272 2161,brath@thearcofanchorage.org,,,1720 Greendale Drive,,61.2053364,-149.7268377,Anchorage,,99504,,Northeast Anchorage
USA-AK-70-AK-AssistedLiving-output-63,Arc - H Street,Assisted Living,,277 6677,,,,,brath@thearcofanchorage.org,,,1033 H Street,,61.2119826,-149.8969908,Anchorage,,99501,,
USA-AK-70-AK-AssistedLiving-output-64,Arc - Jay Circle,Assisted Living,,277 6677,,,,272 2161,brath@thearcofanchorage.org,,,810 Jay Circle,,41.5357417,-87.4194734,Anchorage,,99504,,
USA-AK-70-AK-AssistedLiving-output-65,Arc - Kuskokwim,Assisted Living,,277 6677,,,,,brath@thearcofanchorage.org,,,1830 Kuskokwim Street,,61.203705,-149.830917,Anchorage,,99508,,Airport Heights Community Council
USA-AK-70-AK-AssistedLiving-output-66,Arc - Lionheart,Assisted Living,,277 6677,,,,272 2161,brath@thearcofanchorage.org,,,5256 Lionheart Drive,,61.2203311,-149.7827007,Anchorage,,99508,,Russian Jack Park
USA-AK-70-AK-AssistedLiving-output-67,Arc - Lionheart B,Assisted Living,,277 6677,,,,272 2161,brath@thearcofanchorage.org,,,"5256 Lionheart Drive, Unit B",,61.2203311,-149.7827007,Anchorage,,99508,,Russian Jack Park
USA-AK-70-AK-AssistedLiving-output-68,Arc - Melody Place,Assisted Living,,277 6677,,,,272 2161,brath@thearcofanchorage.org,,,247 Melody Place,,61.2213186,-149.7378046,Anchorage,,99504,,Northeast Anchorage
USA-AK-70-AK-AssistedLiving-output-69,Arc - Old Harbor,Assisted Living,,277 6677,,,,272 2161,brath@thearcofanchorage.org,,,7718 Old Harbor Road,,61.2137073,-149.7361825,Anchorage,,99504,,Northeast Anchorage
USA-AK-70-AK-AssistedLiving-output-70,Arc - Park Strip,Assisted Living,,277 6677,,,,272 2161,brath@thearcofanchorage.org,,,1033 H Street,,61.2119826,-149.8969908,Anchorage,,99501,,
USA-AK-70-AK-AssistedLiving-output-71,Arc - Warwick,Assisted Living,,277 6677,,,,272 2161,brath@thearcofanchorage.org,,,4271 Warwick Drive,,61.1818641,-149.8461024,Anchorage,,99508,,Tudor Area
USA-AK-70-AK-AssistedLiving-output-72,Arc - Wesleyan,Assisted Living,,277 6677,,,,272 2161,brath@thearcofanchorage.org,,,3719 Wesleyan Drive,,61.1871526,-149.7918829,Anchorage,,99508,,U-MED District
USA-AK-70-AK-AssistedLiving-output-73,Arc - Winterhaven,Assisted Living,,277 6677,,,,272 2161,brath@thearcofanchorage.org,,,840 Winter Haven Street,,61.2140429,-149.7540408,Anchorage,,99504,,Northeast Anchorage
USA-AK-70-AK-AssistedLiving-output-74,Arctic Haven Alh I,Dementia Care;Assisted Living,,258 0197,,,,,mylagracia@gmail.com;;gatpandan@hotmail.com,,,3300 E. 15th. Avenue #1,,61.2077341,-149.8199185,Anchorage,,99508,,Airport Heights Community Council
USA-AK-70-AK-AssistedLiving-output-75,Arctic Haven Alh II,Dementia Care;Assisted Living,,258 0197,,,,,gatpandan@hotmail.com,,,3300 E. 15th Avenue #2,,61.2077341,-149.8199185,Anchorage,,99508,,Airport Heights Community Council
USA-AK-70-AK-AssistedLiving-output-76,Arctic Haven Alh III,Dementia Care;Assisted Living,,258 0197,,,,,gatpandan@hotmail.com,,,1504 Rosemary Street,,61.207652,-149.819214,Anchorage,,99508,,Airport Heights Community Council
USA-AK-70-AK-AssistedLiving-output-77,"Ariana Alh, Llc",Dementia Care;Assisted Living,,,,,,929 3494,arianahome_llc@yahoo.com,,,2337 East 72nd Ave.,,61.155805,-149.838799,Anchorage,,99507,,Abbott Loop
USA-AK-70-AK-AssistedLiving-output-78,Ark Of Caring Assisted Living Home,Dementia Care;Assisted Living,,250 0708,,,,,lawana_johnson@hotmail.com,,,7326 Kidron Street,,61.1545432,-149.9904496,Anchorage,,99502,,Sand Lake
USA-AK-70-AK-AssistedLiving-output-79,Assisted Living Transitions I,Assisted Living,,727 2206,,,,,alttransitions@gmail.com,,,3154 Campbell Airstrip Rd.,,61.1922578,-149.7692094,Anchorage,,99504,,U-MED District
USA-AK-70-AK-AssistedLiving-output-80,Assisted Living Transitions II,Assisted Living,,727 2206,,,,,alttransitions@gmail.com,,,204 Patterson St.,,61.222025,-149.7490213,Anchorage,,99504,,Northeast Anchorage
USA-AK-70-AK-AssistedLiving-output-81,Assisted Living Transitions III,Assisted Living,,727 2206,,,,,alttransitions@gmail.com,,,2637 Kenmore Circle,,61.1955906,-149.7702178,Anchorage,,99504,,Northeast Anchorage
USA-AK-70-AK-AssistedLiving-output-82,Assisted Living Transitions IV,Assisted Living,,727 2206,,,,929 4900,alttransitions@gmail.com,,,9022 Sahalee Drive,,61.1390852,-149.7931331,Anchorage,,99507,,Abbott Loop
USA-AK-70-AK-AssistedLiving-output-83,Assisted Living Transitions V,Assisted Living,,,,,,,alttransitions@gmail.com,,,6121 Trappers Trail Road,,61.1152536,-149.7690946,Anchorage,,99516,,Mid-Hillside
USA-AK-70-AK-AssistedLiving-output-84,Atlas Home Care Assisted Living Home,Dementia Care;Assisted Living,,350 3606,,,,868 1588,ilbjosheran@yahoo.com,,,1825 Adonis Drive,,61.1329416,-149.9140121,Anchorage,,99515,,Bayshore / Klatt
USA-AK-70-AK-AssistedLiving-output-85,"Aumavae Cares, Llc.",Assisted Living,,602 5274,,,,,aumavaecares@gmail.com,,,4320 E. Cobblestone Drive,,61.655673,-149.340544,Wasilla,,99654,,
USA-AK-70-AK-AssistedLiving-output-86,Aurora Assisted Living Home,Assisted Living,,382 2697,,,,,aalh@gci.net;;marz32@yahoo.com,,,7020 Scalero Circle,,61.1570324,-149.8226699,Anchorage,,99507,,Abbott Loop
USA-AK-70-AK-AssistedLiving-output-87,"Autumn Morningstar Alh, Llc",Dementia Care;Assisted Living,,351 0569,,,,(888) 291 5028,candis24@yahoo.com,,,16502 Baird Circle,,61.3405843,-149.5755074,Eagle River,,99577,,Eagle River
USA-AK-70-AK-AssistedLiving-output-88,Autumn Sunrise Assisted Living Home,Dementia Care;Assisted Living,,762 0800,,,,,candis24@yahoo.com,,,19216 Citation Road,,61.3141051,-149.5242237,Eagle River,,99577,,Eagle River
USA-AK-70-AK-AssistedLiving-output-89,Avelina's Assisted Living Home #2,Dementia Care;Assisted Living,,333 6649,,,,,vladrido@yahoo.com,,,285 Flower Steet,,61.2258184,-149.8062146,Anchorage,,99508,,Mountain View
USA-AK-70-AK-AssistedLiving-output-90,Baka's House,Assisted Living,,376 4190,,,,,eva.ingersoll@outlook.com,,,1100 McKee Street,,61.5886295,-149.4220132,Wasilla,,99654,,
USA-AK-70-AK-AssistedLiving-output-91,Bayview Terrace Assisted Living Facility,Dementia Care;Assisted Living,,481 1607,,,,,bayviewalf@gci.net,,,309 Erskine Avenue,,57.7900467,-152.4013374,Kodiak,,99615,,
USA-AK-70-AK-AssistedLiving-output-92,Beaudion House,Assisted Living,,835 2110,,,,,,,,623 South Glacier Drive,,61.1342448,-146.3729425,VALDEZ,,99686,,
USA-AK-70-AK-AssistedLiving-output-93,Bella Home Care Llc,Dementia Care;Assisted Living,,830 3178,,,,,Becare@gci.net,,,8621 Kushtaka Circle,,61.1845469,-149.7205864,Anchorage,,99504,,Scenic Foothills
USA-AK-70-AK-AssistedLiving-output-94,"Benedict Assisted Living Home, Llc.",Assisted Living,,770 7008,,,,770 7008,bc14_@live.com,,,3511 Alamosa Drive,,61.141444,-149.945474,Anchorage,,99502,,Sand Lake
USA-AK-70-AK-AssistedLiving-output-95,Best Care Assisted Living,Dementia Care;Assisted Living,,344 4457,,,,344 4561,elmaong@hotmail.com,,,7120 Scalero Circle,,61.1561709,-149.82234,Anchorage,,99507,,Abbott Loop
USA-AK-70-AK-AssistedLiving-output-96,Best Care Assisted Living 2,Dementia Care;Assisted Living,,344 4561,,,,344 4561,elmaong@hotmail.com,,,11510 Tulin Park Loop,,61.1173751,-149.8320679,Anchorage,,99516,,Huffman / O' Malley
USA-AK-70-AK-AssistedLiving-output-97,Betel Alh,Assisted Living,,301 8108,,,,,betel_alh@hotmail.com,,,5901 E. 6th Ave #153,,61.2187562,-149.7670581,Anchorage,,99504,,Northeast Anchorage
USA-AK-70-AK-AssistedLiving-output-98,Bethel Assisted Living Home,Dementia Care;Assisted Living,,644 1055,,,,,jimeneztone@gmail.com,,,8401 Berry Patch Drive,,61.1464806,-149.9126861,Anchorage,,99502,,Sand Lake
USA-AK-70-AK-AssistedLiving-output-99,Betty J. VICKERS,Assisted Living,,301 8043,,,,,vic8531@aol.com,,,8531 E. 11th Court,,36.1480628,-95.8809583,Anchorage,,99504,,Mingo Valley
USA-AK-70-AK-AssistedLiving-output-100,Big Lake Country Club I,Assisted Living,,892 6944,,,,,lplettner@biglakementalhealthservices.com,,,12528 Hawk Lane,,61.583314,-149.7657649,Houston,,99694,,
USA-AK-70-AK-AssistedLiving-output-101,Big Lake Country Club II,Assisted Living,,892 6944,,,,,lplettner@biglakementalhealthservices.com,,,12528 Hawk Lane,,61.583314,-149.7657649,Houston,,99694,,
USA-AK-70-AK-AssistedLiving-output-102,Big Lake Country Club III,Assisted Living,,892 6944,,,,,lplettner@biglakementalhealthservices.com,,,14016 W. Hughes Homestead Rd.,,61.531585,-149.803688,Big Lake,,99652,,
USA-AK-70-AK-AssistedLiving-output-103,Big Lake Country Club IV,Assisted Living,,892 6944,,,,,lplettner@biglakementalhealthservices.com,,,14060 W. Hughes Homestead Rd.,,61.532342,-149.804671,Big Lake,,99652,,
USA-AK-70-AK-AssistedLiving-output-104,Big Lake Country Club VI,Assisted Living,,892 6944,,,,,lplettner@biglakementalhealthservices.com,,,12528 Hawk Lane,,61.583314,-149.7657649,Houston,,99694,,
USA-AK-70-AK-AssistedLiving-output-105,Birchtree Residential- Winding Brook House,Assisted Living,,745 4423,,,,,russwhitney@yahoo.com,,,1220 N winding brook loop,,61.595608,-149.250026,Palmer,,99645,,Gateway
USA-AK-70-AK-AssistedLiving-output-106,"Blessing Alh, Llc",Dementia Care;Assisted Living,,770 2958,,,,770 7959,blessing_alh@yahoo.com,,,9700 Poseidon Drive,,61.1327274,-149.914145,Anchorage,,99515,,Bayshore / Klatt
USA-AK-70-AK-AssistedLiving-output-107,Blueberry Lodge Assisted Living Group Home,Assisted Living,,463 5886,,,,,judyfay@alaskan.com,,,9436 N Douglas Hwy,,58.3407,-134.561,Juneau,,99801,,North Douglas
USA-AK-70-AK-AssistedLiving-output-108,"Boutsomsi Care, Llc",Dementia Care;Assisted Living,,227 6706,,,,,Cindy@boutsomsicare.com,,,1641 Cara Loop,,61.1019601,-149.8502599,Anchorage,,99515,,Old Seward / Oceanview
USA-AK-70-AK-AssistedLiving-output-109,Bread & Roses Alh,Assisted Living,,929 7941,,,,,Dreamachiever42@hotmail.com,,,7774 Cherrywood Circle,,61.1508309,-149.8451641,Anchorage,,99507,,Abbott Loop
USA-AK-70-AK-AssistedLiving-output-110,Bright Horizon Alh,Assisted Living,,232 6624,,,,,brighthorizonhomes@gmail.com,,,1453 Kanabec Drive,,61.560662,-149.486518,Wasilla,,99654,,
USA-AK-70-AK-AssistedLiving-output-111,Bright Horizon Homes II,Assisted Living,,232 6624,,,,,bhhomes21@gmail.com,,,7038 S. Hood Ct.,,61.5003893,-149.663962,Wasilla,,99623,,
USA-AK-70-AK-AssistedLiving-output-112,Bundle Of Joy Alh,Dementia Care;Assisted Living,,942 1090,,,,,lisaa823@yahoo.com,,,7612 Cherrywood Circle,,,,Anchorage,,99507,,
USA-AK-70-AK-AssistedLiving-output-113,Bunny Lope Homes,Assisted Living,,360 0169,,,,,reznitskyp@gmail.com,,,2616 Frigate Circle,,61.125031,-149.929003,Anchorage,,99515,,Bayshore / Klatt
USA-AK-70-AK-AssistedLiving-output-114,Bunny's Assisted Living,Dementia Care;Assisted Living,,868 1913,,,,(907) 868 8820,bunnyshome4u@yahoo.com,,,1531 Harriet Court,,61.1024944,-149.8533928,Anchorage,,99515,,Old Seward / Oceanview
USA-AK-70-AK-AssistedLiving-output-115,Burke's Assisted Living Home,Assisted Living,,229 4629,,,,,lindasburke@hotmail.com,,,8523 Lassen Circle,,61.297344,-149.5677473,Eagle River,,99577,,Eagle River
USA-AK-70-AK-AssistedLiving-output-116,Campbell Creek House,Dementia Care;Assisted Living,,754 9050,,,,754 9099,campbellcreekhouse@gmail.com,,,4745 Piper Street,,61.1775364,-149.8224944,Anchorage,,99507,,Campbell Park
USA-AK-70-AK-AssistedLiving-output-117,Campbell Lake Assisted Living Home,Dementia Care;Assisted Living,,245 7283,,,,,campbelllake@me.com,,,4120 Tahoe Dr.,,61.133184,-149.9568623,Anchorage,,99502,,Sand Lake
USA-AK-70-AK-AssistedLiving-output-118,Carel Assisted Living Home Llc,Dementia Care;Assisted Living,,351 7519,,,,677 2546,epentecostes@gmail.com,,,5058 Bryn Mawr Court,,61.1939034,-149.7874607,Anchorage,,99508,,U-MED District
USA-AK-70-AK-AssistedLiving-output-119,Carel II Assisted Living Home Llc,Dementia Care;Assisted Living,,677 2645,,,,677 2546,epentecostes@gmail.com,,,5420 Avila Court,,61.1908839,-149.7807164,Anchorage,,99508,,U-MED District
USA-AK-70-AK-AssistedLiving-output-120,"Caring Bridges Assisted Living Home, INC.",Dementia Care;Assisted Living,,479 0360,,,,479 3319,oakdale@acsalaska.net,,,107 7th Avenue Unit 1,,64.84059,-147.706981,Fairbanks,,99701,,
USA-AK-70-AK-AssistedLiving-output-121,Caring Hand In Hand Human Services,Dementia Care;Assisted Living,,521 0890,,,,,m_dobbs_73@hotmail.com,,,11340 Fireball Street,,61.3232397,-149.5544574,Eagle River,,99577,,Eagle River
USA-AK-70-AK-AssistedLiving-output-122,Caring Hand In Hand Soldotna,Dementia Care;Assisted Living,,841 6377,,,,,M_dobbs_73@hotmail.com,,,42340 Donna Circle,,60.514007,-151.006324,Soldotna,,99669,,
USA-AK-70-AK-AssistedLiving-output-123,"Caring Hands And Homes, Ltd.",Dementia Care;Assisted Living,,699 8581,,,,(907) 357 5302,mattdobbs569@gmail.com,,,2935 N. Church Road #A,,61.612197,-149.506358,Wasilla,,99654,,Tanaina
USA-AK-70-AK-AssistedLiving-output-124,Caring Hands Assisted Living,Dementia Care;Assisted Living,,202 0559,,,,864 0364,caringhands413@gmail.com,,,174 W. Spruce Ave.,,61.5989982,-149.453941,Wasilla,,99654,,
USA-AK-70-AK-AssistedLiving-output-126,Caritas Assisted Living Home,Dementia Care;Assisted Living,,929 4819,,,,,jopenpk@yahoo.com,,,"1720 Adonis Dr,",,61.1326211,-149.9112937,Anchorage,,99515,,Bayshore / Klatt
USA-AK-70-AK-AssistedLiving-output-127,"Caritas Assisted Living Home II, INC.",Dementia Care;Assisted Living,,929 4819,,,,,jopenpk@yahoo.com,,,1307 W. 46th Ave 130,,61.1790645,-149.90806,Anchorage,,99503,,Spenard
USA-AK-70-AK-AssistedLiving-output-128,Carmelite Home,Dementia Care;Assisted Living,,336 1296,,,,336 1298,asianpop23@yahoo.com,,,9401 Aphrodite Drive,,61.1356557,-149.9131303,Anchorage,,99515,,Bayshore / Klatt
USA-AK-70-AK-AssistedLiving-output-129,Chadellynh Home,Dementia Care;Assisted Living,,764 9223,,,,,mariloualonso@hotmail.com,,,2940 Columbia Street,,61.1936753,-149.844726,Anchorage,,99508,,Rogers Park
USA-AK-70-AK-AssistedLiving-output-130,Chandler Alh,Assisted Living,,225 1174,,,,,Alaskan_china@icloud.com,,,11 Lode Lane,,55.3102004,-131.5767537,Ketchikan,,99901,,
USA-AK-70-AK-AssistedLiving-output-131,Charis Place Assisted Living,Dementia Care;Assisted Living,,335 2052,,,,335 2051,charisplace@gmail.com,,,701 N Forest Drive,,60.5719203,-151.2779377,Kenai,,99611,,
USA-AK-70-AK-AssistedLiving-output-132,Chesser Assisted Living Home,Assisted Living,,235 4955,,,,,rddcr@acsalaska.net,,,35020 Scandinavian Drive,,59.765325,-151.826944,Anchor Point,,99556,,
USA-AK-70-AK-AssistedLiving-output-133,Christian Assisted Living Home,Dementia Care;Assisted Living,,522 6377,,,,522 6377,calh2004mcunanan@gmail.com,,,310 E. 46th Avenue,,61.1789543,-149.8782495,Anchorage,,99503,,Midtown
USA-AK-70-AK-AssistedLiving-output-134,Chucki's Place,Assisted Living,,350 6831,,,,337 8050,jsebastiani@gci.net,,,4032 Kingston Drive,,61.1839767,-149.7627447,Anchorage,,99504,,Scenic Foothills
USA-AK-70-AK-AssistedLiving-output-135,"Chugiak Senior Citizens', INC.",Dementia Care;Assisted Living,,688 2661,,,,688 1320,assistedliving@mtaonline.net,,,22424 Birchwood Loop,,61.3972464,-149.4649636,Chugiak,,99567,,Chugiak
USA-AK-70-AK-AssistedLiving-output-136,Cindy & VIC'S Blessings Bungalow,Assisted Living,,230 3618,,,,,Cindy@cindyandvics.com,,,2324 Marian Bay Circle,,33.9037845,-79.3104045,Anchorage,,99515,,
USA-AK-70-AK-AssistedLiving-output-137,Cindy & VIC'S Harmony House,Assisted Living,,230 3618,,,,,Cindy@cindyandvics.com,,,7801 Ladasa Place,,61.1500115,-149.8152626,Anchorage,,99507,,Abbott Loop
USA-AK-70-AK-AssistedLiving-output-138,Cindy & VIC'S Joyful Joint,Assisted Living,,230 3618,,,,,Cindy@cindyandvics.com,,,4041 Red Talon Circle,,61.1552596,-149.8075146,Anchorage,,99507,,Abbott Loop
USA-AK-70-AK-AssistedLiving-output-139,Cindy & VIC'S Peace Place,Assisted Living,,244 8427,,,,891 0091,Cindy@cindyandvics.com\mailto:Vic@cindyandvics.com,,,4134 Red Talon Circle,,61.154858,-149.8060791,Anchorage,,99507,,Abbott Loop
USA-AK-70-AK-AssistedLiving-output-140,Cindy And VIC'S Wilderness Retreat,Assisted Living,,,,,,,,,,12305 Wilderness Rd,,61.1094824,-149.7972243,Anchorage,,99516,,Huffman / O' Malley
USA-AK-70-AK-AssistedLiving-output-141,Clearfield Assisted Living Home,Dementia Care;Assisted Living,,334 9497,,,,,rodolforafael@rocketmail.com,,,7673 Winchester,,61.151294,-149.811185,Anchorage,,99507,,Abbott Loop
USA-AK-70-AK-AssistedLiving-output-142,Clearview Haven Alh,Dementia Care;Assisted Living,,224 5220,,,,,clearview@gci.net,,,33343 Winterset Circle,,60.1791962,-149.3785766,Seward,,99664,,
USA-AK-70-AK-AssistedLiving-output-143,Clouds Rest Commons,Assisted Living,,376 3495,,,,,paulhartig@gmail.com,,,5772 E. Morning Mist Dr,,61.554383,-149.30544,Palmer,,99645,,Gateway
USA-AK-70-AK-AssistedLiving-output-144,Colony House INC.,Dementia Care;Assisted Living,,354 5483,,,,,colonymanor@mac.com,,,2801 E. Bogard Rd,,61.5955602,-149.3797283,Wasilla,,99654,,
USA-AK-70-AK-AssistedLiving-output-145,Colony Manor,Dementia Care;Assisted Living,,373 1880,,,,,colonymanor@mac.com,,,6801 Weswood Drive,,61.5982212,-149.2791215,Palmer,,99654,,Lakes
USA-AK-70-AK-AssistedLiving-output-146,Colony Manor At Creekside,Dementia Care;Assisted Living,,373 1880,,,,,colonymanor@mac.com,,,1998 Creekside Drive,,61.561853,-149.321873,Wasilla,,99654,,Gateway
USA-AK-70-AK-AssistedLiving-output-147,Colony Manor At VILLAGE Park,Dementia Care;Assisted Living,,373 1880,,,,,colonymanor@mac.com,,,2051 Porcupine Trail,,61.6108084,-149.3994998,Wasilla,,99654,,Tanaina
USA-AK-70-AK-AssistedLiving-output-148,Comfort & Caring Alh,Assisted Living,,903 4344,,,,,jankehjagne@yahoo.com,,,8220 Dagan Street,,61.1461753,-149.9240664,Anchorage,,99502,,Sand Lake
USA-AK-70-AK-AssistedLiving-output-149,Comfort Assisted Living II,Dementia Care;Assisted Living,,351 9870,,,,,calhyk@gmail.com,,,7390 Winchester Street,,61.153945,-149.812243,Anchorage,,99507,,Abbott Loop
USA-AK-70-AK-AssistedLiving-output-150,Comfort Assisted Living III,Dementia Care;Assisted Living,,351 9870,,,,,calhyk@gmail.com,,,7370 Winchester Street,,61.1541194,-149.812246,Anchorage,,99507,,Abbott Loop
USA-AK-70-AK-AssistedLiving-output-151,Cotter's Assisted Living Home,Assisted Living,,745 1260,,,,,noel.mak@hotmail.com,,,2060 North Palomino Lane,,61.6026794,-149.1709554,Palmer,,99645,,
USA-AK-70-AK-AssistedLiving-output-152,Creative Care Assisted Living Home,Assisted Living,,903 0443,,,,,Carolynn.laliberte@yahoo.com,,,11401 Thunderbrush Circle,,61.1175126,-149.77712,Anchorage,,99516,,Huffman / O' Malley
USA-AK-70-AK-AssistedLiving-output-153,Creative Care II,Assisted Living,,(907) 903 0443,,,,,carolynn.laliberte@yahoo.com/dennisgsmithII@yahoo.,,,9061 King David Drive,,61.1387428,-149.8141434,Anchorage,,99507,,Abbott Loop
USA-AK-70-AK-AssistedLiving-output-154,Creekside Assisted Living,Dementia Care;Assisted Living,,333 4454,,,,334 1960,creeksideassistedliving@yahoo.com,,,7710 Maryland Ave,,61.2154075,-149.7368888,Anchorage,,99504,,Northeast Anchorage
USA-AK-70-AK-AssistedLiving-output-155,Crossroads Assisted Living,Assisted Living,,529 7800,,,,,crossroadsal@gci.net,,,5316 E. 24th Avenue,,61.1986289,-149.7815204,Anchorage,,99508,,Russian Jack Park
USA-AK-70-AK-AssistedLiving-output-156,Crossroads Counseling And Training (ccat) 1,Assisted Living,,455 9737,,,,479 9737,nnelson@crossroadcounseling.org,,,1509 24th Avenue,,64.8249877,-147.7407332,Fairbanks,,99701,,
USA-AK-70-AK-AssistedLiving-output-157,Crossroads Counseling And Training (ccat) 2,Assisted Living,,455 9737,,,,479 9737,nnelson@crossroadcounseling.org,,,1021 Akiak Avenue,,64.8403249,-147.6605099,Fairbanks,,99701,,
USA-AK-70-AK-AssistedLiving-output-158,Crossroads Counseling And Training (ccat) 5,Assisted Living,,455 9737,,,,479 9737,nnelson@crossroadcounseling.org,,,1025 Akiak Avenue,,64.8403489,-147.6604518,Fairbanks,,99701,,
USA-AK-70-AK-AssistedLiving-output-159,Cruise-n-mcsorely Home,Assisted Living,,745 7607,,,,,titanium@gci.net,,,1725 N Thuma,,61.588226,-149.0984159,Palmer,,99645,,
USA-AK-70-AK-AssistedLiving-output-160,Dabakh's Alh,Assisted Living,,(350) 866 1952,,,,,b.sy01@hotmail.com,,,3760 W. 74th Avenue,,61.1530885,-149.9499207,Anchorage,,99502,,Sand Lake
USA-AK-70-AK-AssistedLiving-output-161,Day Spring Alh,Dementia Care;Assisted Living,,947 2890,,,,,irenerose.antonio@gmail.com,,,4732 Denali St. Unit 2,,61.1777431,-149.8774662,Anchorage,,99503,,Midtown
USA-AK-70-AK-AssistedLiving-output-162,Day Spring Alh II,Dementia Care;Assisted Living,,947 2890,,,,,irenerose.antonio@gmail.com,,,2701 Wesleyan Drive #B,,61.1960782,-149.7883323,Anchorage,,99508,,Russian Jack Park
USA-AK-70-AK-AssistedLiving-output-163,Debbie's Assisted Living Home,Assisted Living,,479 8349,,,,,dclarke@gci.net,,,1173 Sunset Drive,,64.8380449,-147.7897529,Fairbanks,,99709,,
USA-AK-70-AK-AssistedLiving-output-164,Dehart Assisted Living Home,Assisted Living,,745 5065,,,,,lianne@gci.net,,,2930 N. Barrys Resort Drive,,ERROR,ERROR,Palmer,,99645,,ERROR
USA-AK-70-AK-AssistedLiving-output-165,Demeluz Alh,Dementia Care;Assisted Living,,868 1793,,,,,demeluzalh@gmail.com,,,7231 Bern St,,61.154854,-149.8393,Anchorage,,99507,,Abbott Loop
USA-AK-70-AK-AssistedLiving-output-166,Denali Assisted Living Services,Assisted Living,,,,,,,mattasanneh@hotmail.com,,,2649 Carroll Place #A,,61.196243,-149.7823807,Anchorage,,99508,,Russian Jack Park
USA-AK-70-AK-AssistedLiving-output-167,"Denali Ridge Assisted Living, Llc.",Dementia Care;Assisted Living,,315 1415,,,,,denaliridge.ak@gmail.com,,,1450 N. Grubstake Dr.,,61.594083,-149.477287,Wasilla,,99654,,
USA-AK-70-AK-AssistedLiving-output-168,Diaz,Assisted Living,,229 7017,,,,,sarasharmain19@yahoo.com,,,8060 Berry Patch Drive,,61.147166,-149.9109892,Anchorage,,99502,,Sand Lake
USA-AK-70-AK-AssistedLiving-output-169,Discovery Living Assisted Living - Chinook Home,Assisted Living,,440 7259,,,,,discoverylivingllc@gmail.com,,,16845 Eleanora St.,,61.3366427,-149.5672294,Eagle River,,99577,,Eagle River
USA-AK-70-AK-AssistedLiving-output-170,Divine Care,Dementia Care;Assisted Living,,350 8884,,,,,sekonafam@gmail.com,,,3418 Upland Dr.,,61.1893326,-149.7433051,Anchorage,,99508,,Scenic Foothills
USA-AK-70-AK-AssistedLiving-output-171,Divine Hands Alh,Dementia Care;Assisted Living,,(907) 884 6882,,,,,adaamakaogbechie@yahoo.com,,,2812 W. 29th Ave,,61.1941515,-149.9374538,Anchorage,,99517,,Turnagain
USA-AK-70-AK-AssistedLiving-output-172,Divine Mercy Alh,Dementia Care;Assisted Living,,868 8608,,,,,rachel.p.militello@gmail.com,,,3554 Newcomb Drive,,61.1887637,-149.7905324,Anchorage,,99508,,U-MED District
USA-AK-70-AK-AssistedLiving-output-173,Divine Mercy II Alh,Dementia Care;Assisted Living,,770 9148,,,,770 9149,eduardopentecostes@yahoo.com,,,417 E. 11th Avenue #5,,44.8768246,-97.1111752,Anchorage,,99501,,
USA-AK-70-AK-AssistedLiving-output-174,Eagle Assisted Living,Assisted Living,,(907) 631 3078,,,,(907) 631 3518,jeanne.owen@genacta.com,,,5545 S. Irwin Drive #1,,61.519493,-149.618257,Wasilla,,99654,,
USA-AK-70-AK-AssistedLiving-output-175,Eagle Crest III Alh,Assisted Living,,688 4123,,,,,eaglecrest1@me.com,,,22626 Chamber Lane,,61.4056685,-149.4603006,Chugiak,,99567,,Chugiak
USA-AK-70-AK-AssistedLiving-output-176,Eagle's Wings,Dementia Care;Assisted Living,,385 0485,,,,385 4955,admin@eagleswingsalh.com,,,109 E. 5th Avenue,,64.7509207,-147.3497244,North Pole,,99705,,
USA-AK-70-AK-AssistedLiving-output-177,Eagle's Wings II,Dementia Care;Assisted Living,,385 0485,,,,385 0275,admin@eagleswingsalh.com,,,2793 Perimeter Drive,,64.7553512,-147.3614137,North Pole,,99705,,
USA-AK-70-AK-AssistedLiving-output-178,Edie's House,Assisted Living,,745 5715,,,,745 0518,frost@mtaonline.net,,,Mile 5.5 Old Glenn Hwy,,61.488812,-149.0954978,Palmer,,99645,,
USA-AK-70-AK-AssistedLiving-output-179,Elder Care Alh,Dementia Care;Assisted Living,,333 7888,,,,,ritzcare@ymail.com,,,5210 Lionheart Drive,,61.22033,-149.784152,Anchorage,,99508,,Russian Jack Park
USA-AK-70-AK-AssistedLiving-output-180,Elena's Place I,Dementia Care;Assisted Living,,344 7607,,,,,rudyregacho@gmail.com,,,8551 Arctic Blvd.,,61.1433921,-149.8915419,Anchorage,,99515,,Bayshore / Klatt
USA-AK-70-AK-AssistedLiving-output-181,Elita's Golden Home Care,Dementia Care;Assisted Living,,346 1556,,,,346 1556,rmuhlenbruch@gci.net,,,9435 Nickell Circle,,61.1354151,-149.785433,Anchorage,,99507,,Mid-Hillside
USA-AK-70-AK-AssistedLiving-output-182,Elizabeth Andrews,Assisted Living,,338 2123,,,,,angelliz414@gmail.com,,,8481 Majestic Drive,,61.1821619,-149.7235076,Anchorage,,99504,,Scenic Foothills
USA-AK-70-AK-AssistedLiving-output-183,"Emmanuel Residential Care, Llc",Dementia Care;Assisted Living,,750 6785,,,,620 9084,emmanuelresidentialcare@gmail.com,,,"505 Illinois St., Unit 2",,64.850301,-147.71925,Fairbanks,,99701,,
USA-AK-70-AK-AssistedLiving-output-184,Esperance Assisted Living,Assisted Living,,,,,,,aminiat_39@hotmail.com,,,2649 Carroll Place #B,,61.1837478,-149.9380002,Anchorage,,99508,,Turnagain
USA-AK-70-AK-AssistedLiving-output-185,Extended Family Alaska,Assisted Living,,205 7427,,,,,dbtruthislife@gmail.com,,,12725 Landmark Street Apt # A,,61.1056171,-149.8522225,Anchorage,,99515,,Old Seward / Oceanview
USA-AK-70-AK-AssistedLiving-output-186,Famacare Home 1,Assisted Living,,646 9118,,,,,famacare@hotmail.com,,,10979 Retreat Circle,,61.1141815,-149.7416615,Anchorage,,99515,,Hillside East
USA-AK-70-AK-AssistedLiving-output-187,Famacare Home 2,Assisted Living,,727 3600,,,,,famacare@hotmail.com,,,1750 Ponds Circle,,39.9930148,-86.1609759,Anchorage,,99507,,
USA-AK-70-AK-AssistedLiving-output-188,Fcs - Aliak #1,Assisted Living,,262 6331,,,,,afaulkner@fcsonline.org,,,1701 B E. Aliak #1,,60.568044,-151.179396,Kenai,,99611,,
USA-AK-70-AK-AssistedLiving-output-189,Fcs - Aliak #3,Assisted Living,,262 6331,,,,,afaulkner@fcsonline.org,,,1701 B E. Aliak #3,,60.568044,-151.179396,Kenai,,99611,,
USA-AK-70-AK-AssistedLiving-output-190,Fcs - Coho,Assisted Living,,262 6331,,,,,jkamauoha@fcsonline.org,,,1235 Coho Place,,61.1345451,-146.3764874,VALDEZ,,99686,,
USA-AK-70-AK-AssistedLiving-output-191,Fcs - Cottonwood,Assisted Living,,262 6331,,,,,jkamauoha@fcsonline.org,,,825 Cottonwood Drive,,61.1357979,-146.3743413,VALDEZ,,99686,,
USA-AK-70-AK-AssistedLiving-output-192,Fcs - IGLOO,Assisted Living,,262 6331,,,,,afaulkner@fcsonline.org,,,143 W. Little Ave. #B,,60.486297,-151.073316,Soldotna,,99669,,
USA-AK-70-AK-AssistedLiving-output-193,Fcs - IRONS,Assisted Living,,262 6331,,,,,afaulkner@fcsonline.org,,,143 W. Little Ave. #A,,60.486297,-151.073316,Soldotna,,99669,,
USA-AK-70-AK-AssistedLiving-output-194,Fcs - Riverhills,Assisted Living,,262 6331,,,,,afaulkner@fcsonline.org,,,36680 River Hills Drive,,60.5122075,-151.1555133,Kenai,,99611,,
USA-AK-70-AK-AssistedLiving-output-195,Fcs - Snowflake,Dementia Care;Assisted Living,,262 6331,,,,,afaulkner@fcsonline.org,,,1406 Hedley Drive,,60.5810594,-151.2791546,Kenai,,99611,,
USA-AK-70-AK-AssistedLiving-output-196,Fcs - St. Andrews,Assisted Living,,262 6331,,,,262 6294,afaulkner@fcsonline.org,,,36615 St. Andrews Road,,60.511642,-151.1537223,Kenai,,99611,,
USA-AK-70-AK-AssistedLiving-output-197,Fcs - Walnut,Assisted Living,,262 6331,,,,,afaulkner@fcsonline.org,,,1083 Walnut Dr.,,60.5723841,-151.269887,Kenai,,99611,,
USA-AK-70-AK-AssistedLiving-output-198,Feathered Nest,Assisted Living,,376 6495,,,,357 6495,rosslois@mtaonline.net,,,8270 Mallard Lane,,61.5750255,-149.6588329,Wasilla,,99654,,
USA-AK-70-AK-AssistedLiving-output-199,Feh's Humanitarian Alh,Assisted Living,,887 6007,,,,,providencafeh@yahoo.com,,,2948 Kimberlie Ct,,61.1837307,-149.8255801,Anchorage,,99508,,U-MED District
USA-AK-70-AK-AssistedLiving-output-200,Felici's Assisted Living Home,Assisted Living,,(240) 396 8981,,,,,raissaacha23@gmail.com,,,1415 Marten St.,,34.7378321,-92.3114548,Anchorage,,99504,,Capital View
USA-AK-70-AK-AssistedLiving-output-201,Fe's Assisted Living Home,Assisted Living,,222 5027,,,,,fe.comon@yahoo.com,,,1841 E. 57th Avenue,,61.1697124,-149.8467558,Anchorage,,99507,,Campbell Park
USA-AK-70-AK-AssistedLiving-output-202,Fidelity Assisted Living Home,Dementia Care;Assisted Living,,229 3717,,,,,abpreslee07@yahoo.com,,,6133 East 12th Ave.,,39.7352832,-104.9168936,Anchorage,,99504,,East
USA-AK-70-AK-AssistedLiving-output-203,Fine Pearle Assisted Living,Dementia Care;Assisted Living,,229 3980,,,,334 3364,finepearle@yahoo.com,,,1725 Minerva Way,,61.1341103,-149.9100926,Anchorage,,99515,,Bayshore / Klatt
USA-AK-70-AK-AssistedLiving-output-204,Fine Pearle Too Alh,Dementia Care;Assisted Living,,229 3980,,,,334 3364,finepearle@yahoo.com,,,1743 Minerva Way,,61.1340191,-149.9108057,Anchorage,,99515,,Bayshore / Klatt
USA-AK-70-AK-AssistedLiving-output-205,Fireweed Assisted Living*,Assisted Living,,248 6623,,,,,baltsfamily@yahoo.com,,,3140 De Armoun Rd,,61.093803,-149.822856,Anchorage,,99516,,Huffman / O' Malley
USA-AK-70-AK-AssistedLiving-output-206,Fitchetts Assisted Living,Assisted Living,,333 0737,,,,,fitchett61@gci.net,,,8481 Ridgeway Avenue,,61.194181,-149.7230219,Anchorage,,99504,,Northeast Anchorage
USA-AK-70-AK-AssistedLiving-output-207,Forget-me-not Alh,Dementia Care;Assisted Living,,336 0979,,,,336 9220,mabuhaysusan@gmail.com,,,9220 Aphrodite Drive,,61.1371971,-149.911908,Anchorage,,99515,,Bayshore / Klatt
USA-AK-70-AK-AssistedLiving-output-208,Fra - Condor Residence,Assisted Living,,456 8901,,,,,emily@fra-alaska.net,,,4455 Condor Court,,64.8426555,-147.8477964,Fairbanks,,99709,,
USA-AK-70-AK-AssistedLiving-output-209,Fra - Craig,Assisted Living,,456 8901,,,,,emily@fra-alaska.net,,,430 Craig Street,,64.8478614,-147.6738231,Fairbanks,,99701,,
USA-AK-70-AK-AssistedLiving-output-210,Fra - Erickson,Assisted Living,,456 8901,,,,,emily@fra-alaska.net,,,3747 Erickson Avenue,,64.8327655,-147.8188036,Fairbanks,,99701,,
USA-AK-70-AK-AssistedLiving-output-211,Fra - Flodin Residence,Assisted Living,,456 8901,,,,,emily@fra-alaska.net,,,2980 Mack Boulevard,,64.859672,-147.789449,Fairbanks,,99709,,
USA-AK-70-AK-AssistedLiving-output-212,Fra - Ruby House,Assisted Living,,456 8901,,,,,emily@fra-alaska.net,,,2505 Ruby Avenue,,64.8373297,-147.7803802,Fairbanks,,99701,,
USA-AK-70-AK-AssistedLiving-output-213,Fra - Slater House,Assisted Living,,456 8901,,,,,emily@fra-alaska.net,,,594 Slater Drive,,64.8416362,-147.6966608,Fairbanks,,99701,,
USA-AK-70-AK-AssistedLiving-output-214,Fra - Tamarack I Residence,Assisted Living,,456 8901,,,,,emily@fra-alaska.net,,,1616 Tamarack Street,,64.8617568,-147.7533938,Fairbanks,,99709,,
USA-AK-70-AK-AssistedLiving-output-215,Fra - Tamarack II Residence,Assisted Living,,456 8901,,,,,emily@fra-alaska.net,,,1608 Tamarack Street,,64.8616757,-147.7528714,Fairbanks,,99709,,
USA-AK-70-AK-AssistedLiving-output-216,Fra - Turner House,Assisted Living,,456 8901,,,,,emily@fra-alaska.net,,,11 Steelhead Road,,64.8350252,-147.8587859,Fairbanks,,99701,,
USA-AK-70-AK-AssistedLiving-output-217,Fra - Wright Residence,Assisted Living,,456 8901,,,,,emily@fra-alaska.net,,,721 East 8th Avenue,,64.7479929,-147.3316758,North Pole,,99705,,
USA-AK-70-AK-AssistedLiving-output-218,Freedom House,Assisted Living,,868 3099,,,,,abdoukarimmboge@yahoo.com,,,5876 Kennyhill Drive,,61.1928423,-149.7701618,Anchorage,,99504,,U-MED District
USA-AK-70-AK-AssistedLiving-output-219,Freedom House Alh II,Assisted Living,,868 1054,,,,,abdoukarimmboge@yahoo.com,,,5807 E. 9th Court,,39.1010531,-94.5139809,Anchorage,,99504,,Northeast Kansas City
USA-AK-70-AK-AssistedLiving-output-220,Frontier Assisted Living,Dementia Care;Assisted Living,,328 2200,,,,328 2203,hankerpeg@gmail.com,,,1015 Evergreen Street,,64.855457,-147.753986,Fairbanks,,99709,,
USA-AK-70-AK-AssistedLiving-output-221,Frontier Home Health Care,Assisted Living,,337 2332,,,,(866) 413 7297,fhhc@gci.net,,,7940 Little Dipper Avenue,,61.1907244,-149.7316956,Anchorage,,99504,,Scenic Foothills
USA-AK-70-AK-AssistedLiving-output-222,Frontier Home Health Care - East,Assisted Living,,337 2332,,,,(866) 413 7297,fhhc@gci.net,,,5710 Cope Street,,61.1688644,-149.9025518,Anchorage,,99518,,Taku / Campbell
USA-AK-70-AK-AssistedLiving-output-223,Frontier Home Health Care - Mirage,Assisted Living,,337 2332,,,,,fhhc@gci.net,,,3651 Mirage Circle,,61.1872067,-149.7724694,Anchorage,,99504,,U-MED District
USA-AK-70-AK-AssistedLiving-output-224,Fuerstenau Alh,Assisted Living,,225 2842,,,,,djfuerstenau@kpunet.net,,,426 Buren Rd,,55.3580645,-131.6894004,Ketchikan,,99901,,
USA-AK-70-AK-AssistedLiving-output-225,Fulani Assisted Living Home,Assisted Living,,310 3417,,,,,moisa09@yahoo.com,,,2591 Lyvona Lane,,61.1433514,-149.9288944,Anchorage,,99502,,Sand Lake
USA-AK-70-AK-AssistedLiving-output-226,Full Circle Alh,Assisted Living,,644 8254,,,,,jacshur@yahoo.com,,,1510 Lily Pond Circle,,61.1617434,-149.8536688,Anchorage,,99507,,Abbott Loop
USA-AK-70-AK-AssistedLiving-output-227,Genacta Senior Living,Dementia Care;Assisted Living,,,,,,,info@genacta.com,,,1951 Cannoneer Circle,,61.1342241,-149.8457213,Anchorage,,99507,,Abbott Loop
USA-AK-70-AK-AssistedLiving-output-228,Glacier Assisted Living Home,Assisted Living,,332 0007,,,,,apbweiss@yahoo.com,,,7913 E. 20th Ave,,61.2028107,-149.7325939,Anchorage,,99504,,Northeast Anchorage
USA-AK-70-AK-AssistedLiving-output-229,"Gloria's Golden Heart, Llc",Dementia Care;Assisted Living,,339 9198,,,,339 9198,jmbarbachano@yahoo.com,,,3713 Robin Street,,61.1870487,-149.7387693,Anchorage,,99504,,Scenic Foothills
USA-AK-70-AK-AssistedLiving-output-230,"Glorious Life Alh, Llc.",Dementia Care;Assisted Living,,341 3277,,,,782 4877,joeros@gci.net,,,16641 Marcus Street,,61.3357373,-149.5712437,Eagle River,,99577,,Eagle River
USA-AK-70-AK-AssistedLiving-output-231,"Golden Agers Homecare, Llc.",Dementia Care;Assisted Living,,631 4222,,,,,goldenagershomecarellc@gmail.com,,,591 East Susitna Ave.,,61.5790899,-149.435975,Wasilla,,99654,,
USA-AK-70-AK-AssistedLiving-output-232,"Golden Age's Manor, Llc.",Dementia Care;Assisted Living,,885 8002,,,,,GOLDENAGESMANOR@yahoo.com,,,309 E. 24th Ave.,,61.1993938,-149.8780669,Anchorage,,99503,,North Star
USA-AK-70-AK-AssistedLiving-output-233,Golden Friendship Home For Elderly,Dementia Care;Assisted Living,,248 5276,,,,245 2782,lauriepaligutan@yahoo.com,,,9180 Aphrodite Drive,,61.1371957,-149.9102072,Anchorage,,99515,,Bayshore / Klatt
USA-AK-70-AK-AssistedLiving-output-234,Golden Hearts Agency - Blackberry,Assisted Living,,344 2729,,,,,dgoldenhearts@aol.com,,,3442 West 64th Ave,,61.1625092,-149.9438191,Anchorage,,99502,,Sand Lake
USA-AK-70-AK-AssistedLiving-output-235,Golden Hearts Agency - Concord,Assisted Living,,344 2729,,,,677 1105,dgoldenhearts@aol.com,,,2961 Concord Lane,,61.1546701,-149.932859,Anchorage,,99502,,Sand Lake
USA-AK-70-AK-AssistedLiving-output-236,Golden Hearts Agency- Lavender House,Assisted Living,,334 2729,,,,,dgoldenhearts@aol.com,,,3313 W. 79th ave,,61.1494636,-149.9414454,Anchorage,,99502,,Sand Lake
USA-AK-70-AK-AssistedLiving-output-237,"Golden Hearts Alh, Llc",Dementia Care;Assisted Living,,342 5937,,,,,goldenheartsalh@yahoo.com,,,4259 Scenic View Drive,,61.1820033,-149.7397661,Anchorage,,99504,,Scenic Foothills
USA-AK-70-AK-AssistedLiving-output-238,Good Grace Alh II,Dementia Care;Assisted Living,,332 1862,,,,929 0304,pentecostesjuly@yahoo.com,,,6700 Howard Avenue,,61.2150142,-149.7555921,Anchorage,,99504,,Northeast Anchorage
USA-AK-70-AK-AssistedLiving-output-239,Good Samaritan Alh,Dementia Care;Assisted Living,,336 9090,,,,344 8290,rudyregacho@gmail.com,,,8611 Arctic Blvd. #1,,61.1431447,-149.8914941,Anchorage,,99515,,Bayshore / Klatt
USA-AK-70-AK-AssistedLiving-output-240,Graceful Living Alh I,Dementia Care;Assisted Living,,338 3135,,,,,gracefulliving@gci.net,,,6600 E 11th Ave,,33.979811,-118.3293842,Anchorage,,99504,,South Los Angeles
USA-AK-70-AK-AssistedLiving-output-241,Gracious Heart Assisted Home,Assisted Living,,632 6098,,,,222 2949,milavina1958@yahoo.com,,,2900 West 29th Avenue,,39.7582599,-105.023822,Anchorage,,99517,,Northwest
USA-AK-70-AK-AssistedLiving-output-242,Granny's Log Cabin INC.,Dementia Care;Assisted Living,,631 3261,,,,,sherry.butters@gmail.com,,,3041 Cambay Ct.,,61.6147325,-149.4722618,Wasilla,,99654,,Tanaina
USA-AK-70-AK-AssistedLiving-output-243,"Gugy's Assisted Living Home, Llc.",Assisted Living,,717 6075,,,,929 0380,gugyalh@gmail.com,,,4316 Dale Street Unit D,,ERROR,ERROR,Anchorage,,99508,,ERROR
USA-AK-70-AK-AssistedLiving-output-244,Guiding Light Assisted Living Home,Dementia Care;Assisted Living,,696 5545,,,,,guidinglight61@gmail.com,,,11522 Aurora Street,,61.3246758,-149.5619496,Eagle River,,99577,,Eagle River
USA-AK-70-AK-AssistedLiving-output-245,Haines Assisted Living,Dementia Care;Assisted Living,,766 3616,,,,,Stephaniepattison907@gmail.com,,,219 Union St.,,59.237154,-135.445528,Haines,,99827,,
USA-AK-70-AK-AssistedLiving-output-246,Hale Ohana,Assisted Living,,677 0326,,,,,ilynnec@yahoo.com,,,4715 Malibu Road,,61.1761958,-149.9349844,Anchorage,,99517,,Spenard
USA-AK-70-AK-AssistedLiving-output-247,Hale Wai Nani,Assisted Living,,952 4541,,,,,oipus@yahoo.com,,,1054 E. 28th Ave,,44.0269002,-123.0771784,Anchorage,,99508,,Amazon
USA-AK-70-AK-AssistedLiving-output-248,Hamme Assisted Living Home,Assisted Living,,355 0260,,,,,davidhamme61@gmail.com,,,13740 North Willow Lake Drive,,61.7434238,-150.0671507,Willow,,99688,,
USA-AK-70-AK-AssistedLiving-output-249,Happy House Alh,Assisted Living,,929 5620,,,,,ajie@gci.net,,,1010 & 1016 W 29th Place,,61.1936026,-149.9033072,Anchorage,,99503,,Spenard
USA-AK-70-AK-AssistedLiving-output-250,Happy VALLEY Assisted Living,Dementia Care;Assisted Living,,(907) 567 3419,,,,,thenelands@gmail.com,,,69423 Seitz Avenue,,ERROR,ERROR,Ninilchik,,99639,,ERROR
USA-AK-70-AK-AssistedLiving-output-251,Harbor House,Dementia Care;Assisted Living,,305 0500,,,,,harborhousealc@gmail.com,,,1104 Peninsula Street,,56.4613129,-132.3803229,Wrangell,,99929,,
USA-AK-70-AK-AssistedLiving-output-252,Harbor Lights House Al,Dementia Care;Assisted Living,,262 5355,,,,,jodi@harborlightshouse.com,,,39355 Dudley Avenue,,60.505326,-150.920026,Soldotna,,99669,,
USA-AK-70-AK-AssistedLiving-output-253,Harbor VIEW Manor,Dementia Care;Assisted Living,,746 4220,,,,,bckorman@mtaonline.net,,,4070 Birch Cove Dr.,,61.5358654,-149.5962607,Wasilla,,99654,,
USA-AK-70-AK-AssistedLiving-output-254,Hea Lani Assisted Living Home,Dementia Care;Assisted Living,,(808) 205 8451,,,,,luzumayam@yahoo.com,,,1756 South Heather Meadows Loop,,61.1398418,-149.851401,Anchorage,,99507,,Abbott Loop
USA-AK-70-AK-AssistedLiving-output-255,Heart And Harmony,Dementia Care;Assisted Living,,222 1725,,,,222 1735,mvallangca@yahoo.com,,,4939 Folker St. Apt A,,61.1759051,-149.8301781,Anchorage,,99507,,Campbell Park
USA-AK-70-AK-AssistedLiving-output-256,Heart Of Care,Assisted Living,,529 8087,,,,,heartofcare@yahoo.com,,,7038 Peck Avenue,,61.2222029,-149.7490068,Anchorage,,99504,,Northeast Anchorage
USA-AK-70-AK-AssistedLiving-output-257,Heart Of Love Assisted Livng Home,Assisted Living,,854 3298,,,,,crystal.morrison38@yahoo.com,,,1317 O street,,40.8132532,-96.7021131,Anchorage,,99501,,Downtown
USA-AK-70-AK-AssistedLiving-output-258,Hearts And Hands Of Care,Assisted Living,,(907) 929 5826,,,,,eddy@heartsandhandsofcare.com,,,2030 Brigadier Drive,,61.1354899,-149.8439587,Anchorage,,99507,,Abbott Loop
USA-AK-70-AK-AssistedLiving-output-259,Hearts And Hands Of Care II,Assisted Living,,868 3771,,,,,eddy@heartsandhandsofcare.com,,,2431 McKenzie Drive,,61.1983996,-149.9498372,Anchorage,,99517,,Turnagain
USA-AK-70-AK-AssistedLiving-output-260,Hearts And Hands Of Care III,Assisted Living,,,,,,,eddy@heartsandhandsofcare.com,,,8393 Duben Ave,,61.2207789,-149.72382,Anchorage,,99504,,Northeast Anchorage
USA-AK-70-AK-AssistedLiving-output-261,Hearts And Hands Of Care IV,Assisted Living,,,,,,,eddy@heartsandhandsofcare.com,,,2450 Hastings Lane,,61.1979861,-149.7543375,Anchorage,,99504,,Northeast Anchorage
USA-AK-70-AK-AssistedLiving-output-262,Heavenly Angels,Assisted Living,,202 6563,,,,644 0416,sabby_bryant@hotmail.com,,,3934 E. 8th Ave. #2,,32.7058236,-114.6661982,Anchorage,,99508,,
USA-AK-70-AK-AssistedLiving-output-263,Heavenly Hands Alh,Assisted Living,,952 1178,,,,,maria@heavenlyhandsalh.com,,,11631 Nix Court,,61.1149454,-149.8793485,Anchorage,,99515,,Old Seward / Oceanview
USA-AK-70-AK-AssistedLiving-output-264,Helpful Hands,Assisted Living,,,,,,,superscotty6@me.com,,,3607 Wesleyan Drive,,61.1879216,-149.7919037,Anchorage,,99508,,U-MED District
USA-AK-70-AK-AssistedLiving-output-265,Helping Hands Alh,Dementia Care;Assisted Living,,350 1842,,,,,artlen@gci.net,,,1311 W. 40th Avenue,,61.1846159,-149.9083823,Anchorage,,99503,,Spenard
USA-AK-70-AK-AssistedLiving-output-266,Helping Hands Alh III,Assisted Living,,350 1842,,,,,artlen@gci.net,,,4231 Defiance Street,,61.1821672,-149.7703163,Anchorage,,99504,,U-MED District
USA-AK-70-AK-AssistedLiving-output-267,"Heritage Assisted Living Home, Llc.",Dementia Care;Assisted Living,,868 1887,,,,,heritagealh@hotmail.com,,,6754 O'Brien Street,,61.1593826,-149.8369355,Anchorage,,99507,,Abbott Loop
USA-AK-70-AK-AssistedLiving-output-268,"Heritage Home, Llc.",Dementia Care;Assisted Living,,868 1887,,,,868 1887,heritagealh@hotmail.com,,,6730 O'Brien Street,,61.1595729,-149.8369418,Anchorage,,99507,,Abbott Loop
USA-AK-70-AK-AssistedLiving-output-269,Hibiscus Alh,Dementia Care;Assisted Living,,306 3414,,,,,eiramsolver@gmail.com,,,2701 - A Wesleyan Drive,,61.1960782,-149.7883323,Anchorage,,99508,,Russian Jack Park
USA-AK-70-AK-AssistedLiving-output-270,Hickok Assisted Living Home,Assisted Living,,274 0060,,,,,shickok2010@gmail.com,,,6074 Doncaster Drive,,61.1979884,-149.7663298,Anchorage,,99504,,Northeast Anchorage
USA-AK-70-AK-AssistedLiving-output-271,Highbank Home,Assisted Living,,357 3045,,,,,itsallgood777@msn.com,,,6052 West Sunrise Rd.,,61.651061,-149.5923439,Wasilla,,99623,,
USA-AK-70-AK-AssistedLiving-output-272,Holy Family Alh II,Dementia Care;Assisted Living,,360 4844,,,,222 6590,hfamilycarol46@yahoo.com,,,1454 Saint Gotthard St.,,61.18463,-149.8545874,Anchorage,,99508,,Tudor Area
USA-AK-70-AK-AssistedLiving-output-273,Holy Family Alh III,Dementia Care;Assisted Living,,360 4844,,,,,hfamilycarol46@yahoo.com,,,2030 Duke Drive,,61.1903367,-149.842314,Anchorage,,99508,,Rogers Park
USA-AK-70-AK-AssistedLiving-output-274,Home Of Love Alh,Dementia Care;Assisted Living,,868 1156,,,,,canlaselena@yahoo.com,,,7430 Margaret Circle,,61.153502,-149.9033002,Anchorage,,99518,,Taku / Campbell
USA-AK-70-AK-AssistedLiving-output-275,Home On Mulchatna,Assisted Living,,357 6201,,,,,sbrdaddy@yahoo.com,,,1460 Mulchatna Drive,,61.6070371,-149.4137422,Wasilla,,99654,,Tanaina
USA-AK-70-AK-AssistedLiving-output-276,Hope - 145th Ave,Assisted Living,,561 5335,,,,,east145@hopealaska.org,,,4400 E. 145th Ave.,,61.0889805,-149.7995429,Anchorage,,99516,,Rabbit Creek
USA-AK-70-AK-AssistedLiving-output-277,Hope - Alex Court,Assisted Living,,260 7838,,,,,alex@hopealaska.org,,,37975 Alex Court,,60.531392,-151.07352,Soldotna,,99669,,
USA-AK-70-AK-AssistedLiving-output-278,Hope - Alma Drive,Assisted Living,,561 5335,,,,,alma@hopealaska.org,,,2760 Alma Dr.,,61.6123056,-149.6588879,Wasilla,,99654,,
USA-AK-70-AK-AssistedLiving-output-279,Hope - Amber Bay,Assisted Living,,561 5335,,,,,amberbay@hopealaska.org,,,3540 Amber Bay Loop,,61.1282712,-149.9471205,Anchorage,,99515,,Bayshore / Klatt
USA-AK-70-AK-AssistedLiving-output-280,Hope - Arlene,Assisted Living,,561 5335,,,,,arlene@hopealaska.org,,,8907 Arlene Street,,61.1399309,-149.9288978,Anchorage,,99502,,Sand Lake
USA-AK-70-AK-AssistedLiving-output-281,Hope - Barrow,Assisted Living,,561 5335,,,,564 7429,egurley@hopealaska.org,,,5115 Herman Street,,71.3006476,-156.7586807,Utqiagvik,,99723,,
USA-AK-70-AK-AssistedLiving-output-282,Hope - Beaver Place,Assisted Living,,274 7356,,,,,e20@hopealaska.org,,,1430 Beaver Place,,61.2079997,-149.7629644,Anchorage,,99504,,Northeast Anchorage
USA-AK-70-AK-AssistedLiving-output-283,Hope - Celestial,Assisted Living,,561 5335,,,,,celestial@hopealaska.org,,,11339 Celestial Court,,61.3231515,-149.5585349,Eagle River,,99577,,Eagle River
USA-AK-70-AK-AssistedLiving-output-284,Hope - Chapel,Assisted Living,,561 5335,,,,,chapel@hopealaska.org,,,12854 Chapel Circle,,31.4512539,-97.2568349,Anchorage,,99516,,
USA-AK-70-AK-AssistedLiving-output-285,Hope - Cherokee,Assisted Living,,561 5335,,,,,cherokee@hopealaska.org,,,6830 Cherokee Way,,61.2043249,-149.7530786,Anchorage,,99504,,Northeast Anchorage
USA-AK-70-AK-AssistedLiving-output-286,Hope - Colonial Court,Assisted Living,,561 5335,,,,,colonial@hopealaska.org,,,6920 Colonial Court,,61.1573474,-149.9391706,Anchorage,,99502,,Sand Lake
USA-AK-70-AK-AssistedLiving-output-287,Hope - Core Court,Assisted Living,,243 8113,,,,,chinook@hopealaska.org,,,3711 Core Court,,61.142275,-149.949214,Anchorage,,99502,,Sand Lake
USA-AK-70-AK-AssistedLiving-output-288,Hope - Cottonwood,Assisted Living,,561 5335,,,,,cottonwood@hopealaska.org,,,2501 Cottonwood St,,61.1980832,-149.8540897,Anchorage,,99508,,Rogers Park
USA-AK-70-AK-AssistedLiving-output-289,Hope - Daisy Petal Circle,Assisted Living,,561 5335,,,,,daisy-petal@hopealaska.org,,,3470 N. Daisy Petal Circle,,61.6187554,-149.490902,Wasilla,,99654,,Tanaina
USA-AK-70-AK-AssistedLiving-output-290,Hope - Discovery Bay,Assisted Living,,561 4335,,,,,,,,2815 Discovery Bay Drive,,61.1182909,-149.9309897,Anchorage,,99515,,Bayshore / Klatt
USA-AK-70-AK-AssistedLiving-output-291,Hope - Dunbar,Assisted Living,,561 5335,,,,,dunbar@hopealaska.org,,,6230 Dunbar Lane,,61.1983089,-149.7638943,Anchorage,,99504,,Northeast Anchorage
USA-AK-70-AK-AssistedLiving-output-292,Hope - Eadies Way,Assisted Living,,283 7767,,,,,eadies@hopealaska.org,,,407 Eadies Way,,60.5670234,-151.281266,Kenai,,99611,,
USA-AK-70-AK-AssistedLiving-output-293,Hope - East 34th,Assisted Living,,561 5335,,,,,east34th@hopealaska.org,,,3246 Sherrie Street,,61.1908813,-149.7469843,Anchorage,,99504,,Scenic Foothills
USA-AK-70-AK-AssistedLiving-output-294,Hope - East 40th,Assisted Living,,562 0632,,,,,east40th@hopealaska.org,,,1503 E. 40th Ct.,,61.184268,-149.8527962,Anchorage,,99508,,Tudor Area
USA-AK-70-AK-AssistedLiving-output-295,Hope - Evergreen,Assisted Living,,332 0771,,,,,evergreen@hopealaska.org,,,3501 Evergreen,,61.1889687,-149.7210649,Anchorage,,99504,,Scenic Foothills
USA-AK-70-AK-AssistedLiving-output-296,Hope - Farm Loop,Assisted Living,,746 7536,,,,,farm-loop@hopealaska.org,,,4401 Farm Loop Rd,,61.630723,-149.162196,Palmer,,99645,,
USA-AK-70-AK-AssistedLiving-output-297,Hope - First Street,Assisted Living,,260 9435,,,,,first-street@hopealaska.org,,,1009 First Street,,60.5762148,-151.3036896,Kenai,,99611,,
USA-AK-70-AK-AssistedLiving-output-298,Hope - Forest,Dementia Care;Assisted Living,,561 5335,,,,,,,,3400 E. 20th Ave.,,61.202047,-149.8176719,Anchorage,,99508,,Airport Heights Community Council
USA-AK-70-AK-AssistedLiving-output-299,Hope - Furrow Ranch,Assisted Living,,345 7273,,,,,furrow@hopealaska.org,,,3911 Furrow Creek Road,,61.1061832,-149.8093483,Anchorage,,99516,,Huffman / O' Malley
USA-AK-70-AK-AssistedLiving-output-300,Hope - Gardner,Assisted Living,,337 1466,,,,,gardner@hopealaska.org,,,3910 Gardner St.,,61.1853309,-149.7833704,Anchorage,,99508,,U-MED District
USA-AK-70-AK-AssistedLiving-output-301,Hope - Genora,Assisted Living,,561 5335,,,,,genora@hopealaska.org,,,10028 Genora St.,,61.3113025,-149.5597517,Eagle River,,99577,,Eagle River
USA-AK-70-AK-AssistedLiving-output-302,Hope - Greendale,Assisted Living,,338 1916,,,,,greendale@hopealaska.org,,,1800 Greendale Drive,,61.2050034,-149.727263,Anchorage,,99504,,Northeast Anchorage
USA-AK-70-AK-AssistedLiving-output-303,Hope - Hidden VIEW Court,Assisted Living,,338 8611,,,,,hidden-view@hopealaska.org,,,8511 Hidden View Court,,40.0068115,-83.1424677,Anchorage,,99504,,Cross Creek
USA-AK-70-AK-AssistedLiving-output-304,Hope - ICEBURG,Assisted Living,,376 3185,,,,,iceberg@hopealaska.org,,,655 S. Iceberg Circle,,ERROR,ERROR,Wasilla,,99654,,ERROR
USA-AK-70-AK-AssistedLiving-output-305,Hope - IDAHO,Assisted Living,,338 6935,,,,,idaho@hopealaska.org,,,419 Idaho Street,,61.2183008,-149.736779,Anchorage,,99504,,Northeast Anchorage
USA-AK-70-AK-AssistedLiving-output-306,Hope - Jade,Assisted Living,,248 5295,,,,,jade@hopealaska.org,,,9310 Jade Street,,61.1365251,-149.9710843,Anchorage,,99502,,Sand Lake
USA-AK-70-AK-AssistedLiving-output-307,Hope - Juanita,Assisted Living,,694 0639,,,,,juanita@hopealaska.org,,,17241 N. Juanita Loop,,61.3371336,-149.559902,Eagle River,,99577,,Eagle River
USA-AK-70-AK-AssistedLiving-output-308,Hope - Juliana,Assisted Living,,243 4426,,,,,juliana@hopealaska.org,,,8918 Juliana Street,,61.1399015,-149.9281403,Anchorage,,99502,,Sand Lake
USA-AK-70-AK-AssistedLiving-output-309,Hope - Lighthouse,Assisted Living,,345 5900,,,,,lighthouse@hopealaska.org,,,900 Lighthouse Court,,61.1052166,-149.8652365,Anchorage,,99515,,Old Seward / Oceanview
USA-AK-70-AK-AssistedLiving-output-310,Hope - Lily Pond,Assisted Living,,272 7472,,,,,lilypond@hopealaska.org,,,1610 Lily Pond Cir,,61.1606858,-149.8536575,Anchorage,,99507,,Abbott Loop
USA-AK-70-AK-AssistedLiving-output-311,Hope - Lloyd,Assisted Living,,243 0966,,,,,lloyd@hopealaska.org,,,8016 Lloyd Drive,,61.1480931,-149.9392369,Anchorage,,99502,,Sand Lake
USA-AK-70-AK-AssistedLiving-output-312,Hope - Lord Baranof,Assisted Living,,336 2729,,,,,lord-baranof@hopealaska.org,,,2715 Lord Baranoff Dr,,61.1958692,-149.935987,Anchorage,,99517,,Turnagain
USA-AK-70-AK-AssistedLiving-output-313,Hope - Maple,Assisted Living,,561 5335,,,,,,,,1115 Selief Lane,,57.8003968,-152.3965457,Kodiak,,99615,,
USA-AK-70-AK-AssistedLiving-output-314,Hope- Muir Court,Assisted Living,,333 1500,,,,,muir@hopealaska.org,,,8650 Muir Court,,61.1831279,-149.7196319,Anchorage,,99504,,Scenic Foothills
USA-AK-70-AK-AssistedLiving-output-315,Hope - Northwind,Assisted Living,,337 2421,,,,,north-wind@hopealaska.org,,,8321 Northwind Drive,,61.1903186,-149.7249428,Anchorage,,99504,,Scenic Foothills
USA-AK-70-AK-AssistedLiving-output-316,Hope - Nugget Lane,Assisted Living,,345 1536,,,,,nugget-lane@hopealaska.org,,,2746 Nugget Lane,,61.0884486,-149.8305711,Anchorage,,99516,,Rabbit Creek
USA-AK-70-AK-AssistedLiving-output-317,Hope - Ocean,Assisted Living,,344 6107,,,,,ocean@hopealaska.org,,,331 W. 121st Avenue,,61.1120094,-149.8855131,Anchorage,,99515,,Old Seward / Oceanview
USA-AK-70-AK-AssistedLiving-output-318,Hope - Perenosa,Assisted Living,,344 0145,,,,,perenosa@hopealaska.org,,,3791 Perenosa Circle,,61.1269454,-149.9503676,Anchorage,,99515,,Bayshore / Klatt
USA-AK-70-AK-AssistedLiving-output-319,Hope - Phoenix Way,Assisted Living,,561 5335,,,,564 7249,phoenix@hopealasaka.org,,,1705 Resurrection Blvd.,,60.1240876,-149.4450682,Seward,,99664,,
USA-AK-70-AK-AssistedLiving-output-320,Hope - Pioneer Muldoon,Assisted Living,,333 9603,,,,,pioneer-anc@hopealaska.org,,,8350 Pioneer Dr.,,61.182049,-149.7247326,Anchorage,,99504,,Scenic Foothills
USA-AK-70-AK-AssistedLiving-output-321,Hope - Pioneer Parkway Alh,Assisted Living,,745 7043,,,,,pioneer-mat@hopealaska.org,,,340 Pioneer Parkway,,61.62171,-149.119646,Palmer,,99645,,
USA-AK-70-AK-AssistedLiving-output-322,Hope - Pribilof,Assisted Living,,243 1610,,,,,pribilof@hopealaska.org,,,2811 Pribilof St.,,61.1949902,-149.9582073,Anchorage,,99517,,Turnagain
USA-AK-70-AK-AssistedLiving-output-323,Hope - Raspberry,Assisted Living,,245 4645,,,,,raspberry@hopealaska.org,,,6905 Arlene St.,,61.1580633,-149.9290972,Anchorage,,99502,,Sand Lake
USA-AK-70-AK-AssistedLiving-output-324,Hope - Redoubt,Assisted Living,,420 3601,,,,,redoubt@hopealaska.org,,,197 E. Redoubt Ave. #4&5,,60.488073,-151.063377,Soldotna,,99669,,
USA-AK-70-AK-AssistedLiving-output-325,Hope - Resolution Bay,Assisted Living,,357 2345,,,,,resolution@hopealaska.org,,,2750 Resolution Bay,,61.540416,-149.519662,Wasilla,,99654,,
USA-AK-70-AK-AssistedLiving-output-326,Hope - Resurrection,Assisted Living,,224 7217,,,,,resurrection@hopealaska.org,,,1707 Resurrection Blvd.,,60.1242877,-149.445066,Seward,,99664,,
USA-AK-70-AK-AssistedLiving-output-327,Hope - Ruby,Assisted Living,,243 5211,,,,,ruby@hopealaska.org,,,2741 Ruby Drive,,61.1476531,-149.930155,Anchorage,,99502,,Sand Lake
USA-AK-70-AK-AssistedLiving-output-328,Hope - Sandy Place,Assisted Living,,522 1116,,,,,sandy-place@hopealaska.org,,,8324 Sandy Place #A,,61.1528186,-149.9683894,Anchorage,,99507,,Sand Lake
USA-AK-70-AK-AssistedLiving-output-329,Hope - Saratoga,Assisted Living,,433 4845,,,,,saratoga@hopealaska.org,,,2036 Saratoga,,61.1964198,-149.9230384,Anchorage,,99517,,Turnagain
USA-AK-70-AK-AssistedLiving-output-330,Hope - Seal Point,Assisted Living,,344 7343,,,,,seal-point@hopealaska.org,,,9130 Seal Point Circle,,61.1381073,-149.8333176,Anchorage,,99507,,Abbott Loop
USA-AK-70-AK-AssistedLiving-output-331,Hope - Seclusion,Assisted Living,,333 3403,,,,,seclusion@hopealaska.org,,,8108 Seclusion Drive,,61.1955363,-149.7295801,Anchorage,,99504,,Northeast Anchorage
USA-AK-70-AK-AssistedLiving-output-332,Hope - Selief,Assisted Living,,561 5335,,,,,codavis@hopealaska.org,,,1117 Selief Lane,,57.8004732,-152.3963622,Kodiak,,99615,,
USA-AK-70-AK-AssistedLiving-output-333,Hope - Shenandoah,Assisted Living,,348 8500,,,,,shenandoah@hopealaska.org,,,12230 Shenandoah Road,,61.1097216,-149.8031826,Anchorage,,99516,,Huffman / O' Malley
USA-AK-70-AK-AssistedLiving-output-334,Hope - Sherrie Street,Assisted Living,,333 0715,,,,,sherrie-street@hopealaska.org,,,3424 Sherrie Street,,61.1892389,-149.7470211,Anchorage,,99504,,Scenic Foothills
USA-AK-70-AK-AssistedLiving-output-335,Hope - Sherwood,Assisted Living,,243 6733,,,,,sherwood@hopealaska.org,,,6820 Sherwood Ave.,,61.2026938,-149.752237,Anchorage,,99504,,Northeast Anchorage
USA-AK-70-AK-AssistedLiving-output-336,Hope - Shorecrest,Assisted Living,,248 6121,,,,,shorecrest@hopealaska.org,,,9300 Shorecrest Dr.,,61.1367285,-149.9787325,Anchorage,,99502,,Sand Lake
USA-AK-70-AK-AssistedLiving-output-337,Hope - Solar Drive,Assisted Living,,346 2562,,,,,solar@hopealaska.org,,,8520 Solar Drive,,61.1435781,-149.8031643,Anchorage,,99507,,Abbott Loop
USA-AK-70-AK-AssistedLiving-output-338,Hope - Sunrise,Assisted Living,,272 8190,,,,,sunrise@hopealaska.org,,,1677 Sunrise Drive,,61.2047683,-149.8245656,Anchorage,,99508,,Airport Heights Community Council
USA-AK-70-AK-AssistedLiving-output-339,Hope - Tudor,Assisted Living,,564 7478,,,,,tudor@hopealaska.org,,,8011 Northwind Avenue,,61.190225,-149.7310282,Anchorage,,99504,,Scenic Foothills
USA-AK-70-AK-AssistedLiving-output-340,Hope - Turpin,Assisted Living,,337 8497,,,,,turpin@hopealaska.org,,,1406 Turpin Street,,61.2087882,-149.7565269,Anchorage,,99504,,Northeast Anchorage
USA-AK-70-AK-AssistedLiving-output-341,Hope - VASSER,Assisted Living,,338 4114,,,,,vasser@hopealaska.org,,,3581 Vassar Drive,,61.1887993,-149.8570723,Anchorage,,99508,,Rogers Park
USA-AK-70-AK-AssistedLiving-output-342,Hope - VIBURNUM,Assisted Living,,349 0585,,,,,viburnum@hopealaska.org,,,7041 Viburnum Drive,,61.156368,-149.849583,Anchorage,,99507,,Abbott Loop
USA-AK-70-AK-AssistedLiving-output-343,Hope - VIEWCREST,Assisted Living,,486 4961,,,,,codavis@hopealaska.org,,,3194 Viewcrest Lane,,57.8139759,-152.3610093,Kodiak,,99615,,
USA-AK-70-AK-AssistedLiving-output-344,Hope - W 42nd,Assisted Living,,338 0200,,,,,west42@hopealaska.org,,,420 W. 42nd Ave. #2,,61.1828064,-149.8918136,Anchorage,,99503,,Midtown
USA-AK-70-AK-AssistedLiving-output-345,Hope - W 75th,Assisted Living,,561 5335,,,,,west75@hopealaska.org,,,716 W. 75th Ave,,61.1527267,-149.8928956,Anchorage,,99515,,Taku / Campbell
USA-AK-70-AK-AssistedLiving-output-346,Hope - W 79th,Assisted Living,,248 5134,,,,,west-79@hopealaska.org,,,3510 W. 79th Ave,,61.1489971,-149.9452154,Anchorage,,99502,,Sand Lake
USA-AK-70-AK-AssistedLiving-output-347,Hope - Watson,Assisted Living,,631 3707,,,,357 3751,tomwatson@hopealaska.org,,,1000 N. Tom Watson Place,,61.590276,-149.516229,Wasilla,,99654,,
USA-AK-70-AK-AssistedLiving-output-348,Hope - Whale Bay Circle,Assisted Living,,344 1723,,,,,whale-bay@hopealaska.org,,,10011 Whale Bay Circle,,61.1299559,-149.9395758,Anchorage,,99515,,Bayshore / Klatt
USA-AK-70-AK-AssistedLiving-output-349,Hope - Winners Circle,Assisted Living,,344 1834,,,,,winners-circle@hopealaska.org,,,1100 Winners Circle,,61.143528,-149.9018934,Anchorage,,99518,,Taku / Campbell
USA-AK-70-AK-AssistedLiving-output-350,Hope - Yuguutuk Home,Assisted Living,,842 2117,,,,,scole@hope,,,2301 Sockeye Circle,,59.0550258,-158.5756409,Dillingham,,99576,,
USA-AK-70-AK-AssistedLiving-output-351,Hope - Yukla,Assisted Living,,272 6698,,,,,sheldon-jackson@hopealaska.org,,,4221 Yukla Circle,,61.1817733,-149.7281663,Anchorage,,99504,,Scenic Foothills
USA-AK-70-AK-AssistedLiving-output-352,"Hope Haven Assisted Living, Llc",Dementia Care;Assisted Living,,374 9785,,,,,gladysegger@yahoo.com,,,1511 21st Avenue,,64.8280767,-147.7413349,Fairbanks,,99701,,
USA-AK-70-AK-AssistedLiving-output-353,"Horizon Assisted Living Of Fairbanks, Llc",Assisted Living,,978 2316,,,,,horizon_alf@yahoo.com,,,"821 17th Avenue, Apt. 117, 118, 120, 121, 122",,64.8306058,-147.7246421,Fairbanks,,99701,,
USA-AK-70-AK-AssistedLiving-output-354,House Of Gold Alh,Assisted Living,,868 3775,,,,,rallanfran@aol.com,,,4840 Leah Ct.,,61.1999133,-149.790443,Anchorage,,99508,,Russian Jack Park
USA-AK-70-AK-AssistedLiving-output-355,House Of Peace,Dementia Care;Assisted Living,,306 4035,,,,,gvanvalen@yahoo.com,,,2022 Applewood Circle,,61.1512828,-149.843378,Anchorage,,99507,,Abbott Loop
USA-AK-70-AK-AssistedLiving-output-356,House Of Shalom,Dementia Care;Assisted Living,,744 3445,,,,,emegpd2004m@yahoo.com,,,2745 Meadow Wood Cir,,34.3130243,-86.3350135,Anchorage,,99516,,
USA-AK-70-AK-AssistedLiving-output-357,House Of Shalom E. 52nd,Assisted Living,,351 4994,,,,,,,,2470 E. 52nd Unit A,,41.10063,-97.3681198,Anchorage,,99507,,
USA-AK-70-AK-AssistedLiving-output-358,ILUMINADA'S Assisted Living Home,Dementia Care;Assisted Living,,868 2738,,,,563 6793,lumen1@yahoo.com,,,7619 Winchester Street,,61.1517292,-149.8112021,Anchorage,,99507,,Abbott Loop
USA-AK-70-AK-AssistedLiving-output-359,ILUMINADA'S Assisted Living Home II,Dementia Care;Assisted Living,,223 8840,,,,563 6793,lumen1@yahoo.com,,,2326 E 72nd Ave,,61.1553728,-149.8393546,Anchorage,,99507,,Abbott Loop
USA-AK-70-AK-AssistedLiving-output-360,IMMACULATE Concepcion Home,Dementia Care;Assisted Living,,522 5671,,,,,florence925@gmail.com,,,7110 Miranda Drive,,35.9139011,-78.7420569,Anchorage,,99507,,Umstead
USA-AK-70-AK-AssistedLiving-output-361,IMMACULATE Concepcion Home II,Dementia Care;Assisted Living,,522 5671,,,,,florence925@gmail.com,,,8720 Barney Circle,,61.1419044,-149.8298305,Anchorage,,99507,,Abbott Loop
USA-AK-70-AK-AssistedLiving-output-362,IMMACULATED Concepcion,Dementia Care;Assisted Living,,332 0158,,,,,jeanephere@acsalaska.net,,,1836 Laura Cr.,,61.1799869,-149.834457,Anchorage,,99508,,Campbell Park
USA-AK-70-AK-AssistedLiving-output-363,INDEPENDENCE Park Assisted Living,Assisted Living,,350 2295,,,,222 5390,dan.martinez@live.com,,,9618 Newhaven Loop,,61.1315735,-149.8437398,Anchorage,,99507,,Abbott Loop
USA-AK-70-AK-AssistedLiving-output-364,J&j INDEPENDENT Living - Colossus #2,Assisted Living,,373 3953,,,,,billie.Hansen@jjinliv.com,,,4500 Wasilla Fishhook Rd #2,,61.6332604,-149.3519947,Wasilla,,99654,,
USA-AK-70-AK-AssistedLiving-output-365,J&j INDEPENDENT Living - Colossus #3,Assisted Living,,373 3953,,,,,billie.hansen@jjinliv.com,,,4500 Wasilla Fishhook Rd #3,,61.6324686,-149.3544452,Wasilla,,99654,,
USA-AK-70-AK-AssistedLiving-output-366,J&j INDEPENDENT Living - Colossus #4,Assisted Living,,373 3953,,,,,billie.hansen@jjinliv.com,,,4500 Wasilla Fishhook Rd #4,,61.6332604,-149.3519947,Wasilla,,99654,,
USA-AK-70-AK-AssistedLiving-output-367,J&j INDEPENDENT Living - Mulchatna House,Assisted Living,,373 3953,,,,,billie.hansen@jjinliv.com,,,801 Mulchatna Drive,,61.607284,-149.430336,Wasilla,,99654,,Tanaina
USA-AK-70-AK-AssistedLiving-output-368,J&j INDEPENDENT Living - Wolverine House,Assisted Living,,373 3953,,,,,billie.hansen@jjinliv.com,,,3435 N. Wolverine Dr.,,61.619724,-149.3988,Wasilla,,99654,,Tanaina
USA-AK-70-AK-AssistedLiving-output-369,Jacobs Place,Assisted Living,,345 8654,,,,,akplayer2@yahoo.com,,,2117 Dolly Varden Ave.,,61.1119976,-149.8423719,Anchorage,,99516,,Huffman / O' Malley
USA-AK-70-AK-AssistedLiving-output-370,Jade Assisted Living Home,Dementia Care;Assisted Living,,952 2697,,,,,jayd1012@yahoo.com,,,9280 Aphrodite Drive,,61.1368737,-149.914164,Anchorage,,99515,,Bayshore / Klatt
USA-AK-70-AK-AssistedLiving-output-371,Jade Assisted Living Home 2,Dementia Care;Assisted Living,,952 2697,,,,,jayd1012@yahoo.com,,,3847 Scenic View Drive,,61.1852826,-149.7352681,Anchorage,,99504,,Scenic Foothills
USA-AK-70-AK-AssistedLiving-output-372,Jamiezon Alh,Dementia Care;Assisted Living,,868 5296,,,,337 5296,bubugarcia@alaska.net,,,2280 Lake George Drive,,61.2002854,-149.7429577,Anchorage,,99504,,Northeast Anchorage
USA-AK-70-AK-AssistedLiving-output-373,Jamiezon Alh II,Dementia Care;Assisted Living,,868 5296,,,,,bubugarcia@alaska.net,,,3601 Scenic View Dr,,61.1878724,-149.7347762,Anchorage,,99504,,Scenic Foothills
USA-AK-70-AK-AssistedLiving-output-374,Jay Bird Assisted Living Home,Assisted Living,,835 3274,,,,,ctied@cvinternet.net;d.malone@connectingties.org,,,"330 Jago Street, Apartment A",,61.1321709,-146.3579627,VALDEZ,,99686,,
USA-AK-70-AK-AssistedLiving-output-375,Jenny's Home,Dementia Care;Assisted Living,,357 8049,,,,357 8049,vettejenny@yahoo.com//mcfarlin@mtaonline.net,,,1040 Pittman Rd.,,61.595265,-149.633027,Wasilla,,99623,,
USA-AK-70-AK-AssistedLiving-output-376,Jewel Lake Alh,Dementia Care;Assisted Living,,243 9570,,,,243 9570,jewellakealh@yahoo.com,,,4132 West 88th Ave,,61.140844,-149.956625,Anchorage,,99502,,Sand Lake
USA-AK-70-AK-AssistedLiving-output-377,Jmr Manor,Dementia Care;Assisted Living,,230 8486,,,,,junmark33@gmail.com,,,2121 E. 73rd #B,,61.1549579,-149.8425289,Anchorage,,99507,,Abbott Loop
USA-AK-70-AK-AssistedLiving-output-378,Joshua House Llc,Dementia Care;Assisted Living,,357 5413,,,,,Joshuahouse.alh@gmail.com,,,2180 S. Foothills Blvd,,61.558934,-149.574896,Wasilla,,99654,,
USA-AK-70-AK-AssistedLiving-output-379,Joyful Hearts Assisted Living Home,Dementia Care;Assisted Living,,,,,,341 4946,joyfulheartsak@gmail.com,,,8733 Runamuck Place Unit B,,61.1416728,-149.9092565,Anchorage,,99502,,Sand Lake
USA-AK-70-AK-AssistedLiving-output-380,K.m. Assisted Living Home,Assisted Living,,538 1383,,,,,Kmmata99507@yahoo.com,,,2006 West 32nd Ave.,,61.191466,-149.9217577,Anchorage,,99517,,Spenard
USA-AK-70-AK-AssistedLiving-output-381,Kachemak Group Home,Assisted Living,,262 9400,,,,260 2029,marcella.livesay@rescare.com,,,4631 Kachemak Dr.,,59.658068,-151.441596,Homer,,99603,,
USA-AK-70-AK-AssistedLiving-output-382,Kachemak Way Assisted Living,Dementia Care;Assisted Living,,235 6149,,,,,lnghenry@ptialaska.net,,,4201 Kachemak Way,,59.6517675,-151.5340799,Homer,,99603,,
USA-AK-70-AK-AssistedLiving-output-383,Kamalani Alh,Dementia Care;Assisted Living,,868 3924,,,,,switzayda@yahoo.com,,,310 Bunnell St,,61.2204357,-149.7900848,Anchorage,,99508,,Russian Jack Park
USA-AK-70-AK-AssistedLiving-output-384,Kamalani II Alh,Dementia Care;Assisted Living,,952 0427,,,,337 5296,switzayda@yahoo.com,,,1601 Brink Drive,,61.2058925,-149.7329149,Anchorage,,99504,,Northeast Anchorage
USA-AK-70-AK-AssistedLiving-output-385,Kearney Home,Assisted Living,,376 1695,,,,(907) 357 1695,dardar@mtaonline.net,,,23591 Ayershire Avenue,,61.428437,-150.03782,Wasilla,,99654,,
USA-AK-70-AK-AssistedLiving-output-386,Keen Eye Care Assisted Living,Dementia Care;Assisted Living,,262 6468,,,,262 5357,uniqueca68@yahoo.com,,,382 S. Kobuk Street,,60.48194,-151.0785032,Soldotna,,99669,,
USA-AK-70-AK-AssistedLiving-output-387,Keiki Home II,Dementia Care;Assisted Living,,929 1463,,,,,ROY.PENTECOSTES@GMAIL.COM,,,6802 Zurich St.,,61.1589918,-149.8394653,Anchorage,,99507,,Abbott Loop
USA-AK-70-AK-AssistedLiving-output-388,Kesanooksisk Assisted Living Home,Assisted Living,,,,,,,kesanook@gmail.com,,,108 Osprey,,57.0545412,-135.3443013,Sitka,,99835,,
USA-AK-70-AK-AssistedLiving-output-389,Ketchikan Kottage,Assisted Living,,247 7048,,,,,mnkfitz@kpunet.net;mnkfitz@live.com,,,925 Jackson Street,,55.3573355,-131.6808958,Ketchikan,,99901,,
USA-AK-70-AK-AssistedLiving-output-390,Kiwi Assisted Living Home,Dementia Care;Assisted Living,,,,,,222 7850,roufranc@yahoo.com,,,1800 Northwestern Ave,,61.1945055,-149.8485681,Anchorage,,99508,,Rogers Park
USA-AK-70-AK-AssistedLiving-output-391,Kiwi Assisted Living Home III,Dementia Care;Assisted Living,,,,,,222 7850,roufranc@yahoo.com,,,2948 Princeton Way,,61.193737,-149.8495945,Anchorage,,99508,,Rogers Park
USA-AK-70-AK-AssistedLiving-output-392,Koreena Kay Kare Alh,Assisted Living,,260 3302,,,,,koreenakay61@yahoo.com,,,48175 Cockrobin Court,,60.486937,-151.177548,Soldotna,,99669,,
USA-AK-70-AK-AssistedLiving-output-393,Kro Assisted Living,Dementia Care;Assisted Living,,312 3256,,,,,main@kroalh.com,,,7080 Chad Street,,61.1564002,-149.9048623,Anchorage,,99518,,Taku / Campbell
USA-AK-70-AK-AssistedLiving-output-394,La Alegria Assisted Living Home,Dementia Care;Assisted Living,,782 7529,,,,,lalegriadeescare@gmail.com,,,4607 Klondike Ct.,,61.2197661,-149.7948077,Anchorage,,99508,,Russian Jack Park
USA-AK-70-AK-AssistedLiving-output-395,Lake Street House,Assisted Living,,442 2224,,,,,bree.swanson@maniilaq.org,,,818 Lake Street,,66.901737,-162.5780531,Kotzebue,,99752,,
USA-AK-70-AK-AssistedLiving-output-396,Lakeview Home,Dementia Care;Assisted Living,,338 2712,,,,,JC56ARCANGEL@AOL.COM,,,2675 Wesleyan Drive,,61.1964237,-149.7883136,Anchorage,,99508,,Russian Jack Park
USA-AK-70-AK-AssistedLiving-output-397,Lakeview Home II,Dementia Care;Assisted Living,,333 8921,,,,,JC56ARCANGEL@AOL.COM,,,2327 East 72nd Ave.,,61.155804,-149.839197,Anchorage,,99507,,Abbott Loop
USA-AK-70-AK-AssistedLiving-output-398,Lakeview Home III,Dementia Care;Assisted Living,,333 8921,,,,,JC56ARCANGEL@AOL.COM,,,3838 Scenic View Drive,,61.1855595,-149.7361343,Anchorage,,99504,,Scenic Foothills
USA-AK-70-AK-AssistedLiving-output-399,Let Us Care Assisted Living Home,Dementia Care;Assisted Living,,452 5624,,,,374 2954,mg482000@yahoo.com,,,3405 Sandvik Street,,64.851218,-147.805937,Fairbanks,,99709,,
USA-AK-70-AK-AssistedLiving-output-400,Lhasa Assisted Living,Assisted Living,,(907) 830 9154,,,,,sherabtenzin507@gmail.com,,,4156 Checkmate Drive,,61.1829994,-149.7860629,Anchorage,,99508,,U-MED District
USA-AK-70-AK-AssistedLiving-output-401,Life To The Fullest,Assisted Living,,,,,,,lifetothefullestllc@yahoo.com,,,1233 5th Avenue,,64.8447437,-147.7353606,Fairbanks,,99701,,
USA-AK-70-AK-AssistedLiving-output-402,Lighthouse Home Care,Dementia Care;Assisted Living,,522 2509,,,,563 3855,sandritaah@yahoo.com,,,1154 Oceanview Drive,,61.100422,-149.8599031,Anchorage,,99515,,Old Seward / Oceanview
USA-AK-70-AK-AssistedLiving-output-403,Lilley Lodge 1,Dementia Care;Assisted Living,,347 1489,,,,490 0322,terry.lilleylodge@yahoo.com,,,2330 Old Richardson Highway,,64.7635423,-147.3868237,North Pole,,99705,,
USA-AK-70-AK-AssistedLiving-output-404,"Lily Ann's Home Care, INC.",Assisted Living,,646 0702,,,,,johcru@msn.com,,,935 Norman St.,,61.2136489,-149.7705544,Anchorage,,99504,,Northeast Anchorage
USA-AK-70-AK-AssistedLiving-output-405,Linda's Place,Dementia Care;Assisted Living,,301 3833,,,,,frommerleslie@yahoo.com,,,900 Allison Circle,,61.1150449,-149.8959314,Anchorage,,99515,,Bayshore / Klatt
USA-AK-70-AK-AssistedLiving-output-406,"Little Genie Assisted Living Home, Llc",Dementia Care;Assisted Living,,512 6426,,,,222 1666,pandesal61@gmail.com,,,2229 Sunrise Drive,,61.2002224,-149.8265904,Anchorage,,99508,,Airport Heights Community Council
USA-AK-70-AK-AssistedLiving-output-407,Living Stone Home Care Llc - Skipper,Assisted Living,,230 2402,,,,,oamcoa2003@yahoo.com,,,3500/3502 Skipper Street,,61.188777,-149.730055,Anchorage,,99504,,Scenic Foothills
USA-AK-70-AK-AssistedLiving-output-408,Lydia's Assisted Living Home,Assisted Living,,727 2081,,,,,archid2@MSN.com,,,2320 Success Drive,,61.2000795,-149.7705626,Anchorage,,99504,,Northeast Anchorage
USA-AK-70-AK-AssistedLiving-output-409,Lynne's Home Care,Dementia Care;Assisted Living,,334 3392,,,,,lynnes143@yahoo.com,,,7330 Winchester St.,,61.1546565,-149.812235,Anchorage,,99507,,Abbott Loop
USA-AK-70-AK-AssistedLiving-output-410,M&m Assisted Living,Assisted Living,,274 0903,,,,,sonzamercy@yahoo.com,,,7522 Grey Wolf Circle,,61.1525768,-149.8261656,Anchorage,,99507,,Abbott Loop
USA-AK-70-AK-AssistedLiving-output-411,M.g.d. Alh,Dementia Care;Assisted Living,,227 9689,,,,,paulo_tomeldan@yahoo.com,,,243 Klevin,,61.2215384,-149.8042241,Anchorage,,99508,,Russian Jack Park
USA-AK-70-AK-AssistedLiving-output-412,Mac INNES House,Dementia Care;Assisted Living,,336 1231,,,,,macinneshouse@yahoo.com,,,2120 E. 72nd Avenue,,61.1552861,-149.8425241,Anchorage,,99507,,Abbott Loop
USA-AK-70-AK-AssistedLiving-output-413,Magnolia Manor,Dementia Care;Assisted Living,,631 3354,,,,,magnoliamanorllc@yahoo.com/mssmydog@aol.com,,,751 N. Someret Circle,,61.5866865,-149.4702148,Wasilla,,99654,,
USA-AK-70-AK-AssistedLiving-output-414,Maile Alh,Dementia Care;Assisted Living,,(808) 861 7471,,,,,cresencia61@yahoo.com,,,2634 Carroll Place Unit C,,61.1837478,-149.9380002,Anchorage,,99508,,Turnagain
USA-AK-70-AK-AssistedLiving-output-415,"Main Street Assisted Living, INC.",Dementia Care;Assisted Living,,235 6149,,,,,lnghenry@ptialaska.net,,,4136 Main Street,,59.6507502,-151.5409645,Homer,,99603,,
USA-AK-70-AK-AssistedLiving-output-416,Maletch's Alh,Dementia Care;Assisted Living,,350 5422,,,,349 8898,maletch_alh@yahoo.com,,,8038 Sandy Circle,,24.6707738,-81.3625344,Anchorage,,99507,,
USA-AK-70-AK-AssistedLiving-output-417,Maletch's Alh II,Dementia Care;Assisted Living,,,,,,,maletch_alh@yahoo.com,,,4143 Scenic View Dr.,,61.183125,-149.739264,Anchorage,,99504,,Scenic Foothills
USA-AK-70-AK-AssistedLiving-output-418,"Malupos Haven Alh, Llc",Assisted Living,,(907) 222 0389,,,,,maluposhavenalh@gmail.com,,,7221 Kiska Circle,,61.2008531,-149.7463518,Anchorage,,99504,,Northeast Anchorage
USA-AK-70-AK-AssistedLiving-output-419,Malupo's Haven Assisted Living Home II,Assisted Living,,,,,,,maluposhavenalh@gmail.com,,,2721 W. 69th Ave,,61.1584716,-149.9356681,Anchorage,,99502,,Sand Lake
USA-AK-70-AK-AssistedLiving-output-420,Mama's Assisted Living Home I,Dementia Care;Assisted Living,,301 0111,,,,,mamashome@gci.net,,,9630 Albatross,,61.1336181,-149.9297497,Anchorage,,99502,,Sand Lake
USA-AK-70-AK-AssistedLiving-output-421,Mama's Assisted Living Home II,Dementia Care;Assisted Living,,301 0111,,,,,mamashome@gci.net,,,2531 Curlew Circle,,61.1365109,-149.9267103,Anchorage,,99502,,
USA-AK-70-AK-AssistedLiving-output-422,Mama's Assisted Living Home III,Dementia Care;Assisted Living,,301 0111,,,,,mamashome@gci.net,,,2529 Curlew Circle,,61.1365321,-149.9271484,Anchorage,,99502,,Sand Lake
USA-AK-70-AK-AssistedLiving-output-423,Mama's Assisted Living Home IV,Dementia Care;Assisted Living,,301 0111,,,,,mamashome@gci.net,,,9270 Aphrodite Drive,,61.1371326,-149.9140672,Anchorage,,99515,,Bayshore / Klatt
USA-AK-70-AK-AssistedLiving-output-424,Mama's Care,Assisted Living,,782 8702,,,,,stjammeh@gmail.com,,,7924 Parkway Drive,,61.2032299,-149.732294,Anchorage,,99508,,Northeast Anchorage
USA-AK-70-AK-AssistedLiving-output-425,Marenah's Assisted Living Home,Assisted Living,,677 9211,,,,,SIDATMARENAH@aol.com,,,"1545 Demeure Place, Apt B",,61.2071365,-149.8088005,Anchorage,,99508,,Airport Heights Community Council
USA-AK-70-AK-AssistedLiving-output-426,Maria Angelica Alh III,Dementia Care;Assisted Living,,360 5797,,,,770 1168,mdaniel@gci.net,,,4140 Furrow Creek Road,,61.1053791,-149.8048562,Anchorage,,99516,,Huffman / O' Malley
USA-AK-70-AK-AssistedLiving-output-427,Marie Langley Assisted Living Home,Assisted Living,,360 2199,,,,,ijahateh@gmail.com,,,8040 Opal Circle,,61.1476732,-149.9326034,Anchorage,,99502,,Sand Lake
USA-AK-70-AK-AssistedLiving-output-428,Marie Langley Assisted Living Home #2,Assisted Living,,360 2199,,,,,ijahateh@gmail.com,,,2201 W. 48th Avenue,,61.1774974,-149.9239806,Anchorage,,99517,,Spenard
USA-AK-70-AK-AssistedLiving-output-429,Marlow Manor Alf,Dementia Care;Assisted Living,,338 8708,,,,,theresa@marlowmanor.com,,,2030 Muldoon Road,,61.201549,-149.7389316,Anchorage,,99504,,Northeast Anchorage
USA-AK-70-AK-AssistedLiving-output-430,Marrulut Eniit Assisted Living,Dementia Care;Assisted Living,,842 4600,,,,,marrulut@nushtel.net,,,125 D Street,,59.0408139,-158.4579191,Dillingham,,99576,,
USA-AK-70-AK-AssistedLiving-output-431,Mary Joanne Home Care,Assisted Living,,248 1038,,,,,joebendec41993@yahoo.com,,,3432 W. 80th Avenue,,61.1480932,-149.9436393,Anchorage,,99502,,Sand Lake
USA-AK-70-AK-AssistedLiving-output-432,Mary Joanne Home Care II,Assisted Living,,350 0390,,,,,joebendec41993@yahoo.com,,,10901 Solitude Circle,,61.1214968,-149.9315256,Anchorage,,99515,,Bayshore / Klatt
USA-AK-70-AK-AssistedLiving-output-433,Mary Mcgrew Alh,Assisted Living,,276 6751,,,,,kayria01@gmail.com,,,725 Winter Haven Street,,61.2142102,-149.7514998,Anchorage,,99504,,Northeast Anchorage
USA-AK-70-AK-AssistedLiving-output-434,May Alh,Assisted Living,,744 1850,,,,,rebecca_bonaparte@yahoo.com,,,2481 Chandalar Drive,,61.1971403,-149.7447881,Anchorage,,99504,,Northeast Anchorage
USA-AK-70-AK-AssistedLiving-output-435,Mckenzie Assisted Living Home I,Assisted Living,,336 0080,,,,,mckenziesuites@yahoo.com,,,"3913 Lynn Dr., Apt A & B",,39.3924826,-80.3057819,Anchorage,,99508,,
USA-AK-70-AK-AssistedLiving-output-436,Mckenzie's Alh II,Assisted Living,,336 0080,,,,,mckenziesuites@yahoo.com,,,"3913 Lynn Dr., Apt C & D",,33.7488483,-116.8970529,Anchorage,,99508,,
USA-AK-70-AK-AssistedLiving-output-437,Meaningful Living,Assisted Living,,854 6277,,,,726 0318,meaningful.livingAK@gmail.com,,,10845 Anvik Circle,,61.3188997,-149.5400503,Eagle River,,99577,,Eagle River
USA-AK-70-AK-AssistedLiving-output-438,Melinda's Home Care,Assisted Living,,529 1166,,,,,lyndapromise@yahoo.com,,,16015 Noble Point Drive,,61.0758566,-149.79193,Anchorage,,99516,,Rabbit Creek
USA-AK-70-AK-AssistedLiving-output-439,Melissa's Alh,Dementia Care;Assisted Living,,929 7827,,,,,melissalingad@gmail.com,,,7691 winchester st.,,61.1511288,-149.8111898,Anchorage,,99507,,Abbott Loop
USA-AK-70-AK-AssistedLiving-output-440,Mercy Saw Me Assisted Living Home,Dementia Care;Assisted Living,,229 2857,,,,,mercysawme@gci.net,,,1432 Medfra St.,,61.2081261,-149.8592905,Anchorage,,99501,,Fairview
USA-AK-70-AK-AssistedLiving-output-441,Miracle Home Care,Dementia Care;Assisted Living,,357 0078,,,,,Miracle.homecare@yahoo.com,,,2200 E. Wolverine Circle,,61.619201,-149.394596,Wasilla,,99654,,Tanaina
USA-AK-70-AK-AssistedLiving-output-442,Montana Creek Assisted Living Home,Assisted Living,,733 5037,,,,,dtmccl@me.com,,,19205 E. Future Rd,,62.1060812,-149.9788402,Talkeetna,,99676,,
USA-AK-70-AK-AssistedLiving-output-443,Moore Hands Of Care,Assisted Living,,357 4922,,,,,moore1@mtaonline.net,,,2090 W Kathy Circle #C,,61.614644,-149.5034949,Wasilla,,99654,,Tanaina
USA-AK-70-AK-AssistedLiving-output-444,"Mount Sinai Assisted Living Home, Llc",Dementia Care;Assisted Living,,350 2632,,,,(907) 929 6072,xtineylou@yahoo.com,,,3951 Scenic View Drive,,61.1843169,-149.7357067,Anchorage,,99504,,Scenic Foothills
USA-AK-70-AK-AssistedLiving-output-445,Mountain VIEW Assisted Living,Dementia Care;Assisted Living,,772 2445,,,,,sbell@petersburgak.gov,,,16 N. 12th. St.,,38.4933561,-87.2768743,Petersburg,,99833,,
USA-AK-70-AK-AssistedLiving-output-446,Mountain VISTA Alh,Assisted Living,,622 2687,,,,,darcy@aofalaska.com,,,19412 First Street,,61.3112594,-149.5206728,Eagle River,,99577,,Eagle River
USA-AK-70-AK-AssistedLiving-output-447,Mssca - Citation (formerly Park Place),Assisted Living,,352 1200,,,,352 1249,Cynthia.norvell@mssca.org,,,1819 North Citation Circle,,61.6005539,-149.1766006,Palmer,,99645,,
USA-AK-70-AK-AssistedLiving-output-448,Mssca - Cobb,Assisted Living,,352 1200,,,,,Cynthia.norvell@mssca.org,,,517 North Cobb Street,,61.6128554,-149.1177422,Palmer,,99645,,
USA-AK-70-AK-AssistedLiving-output-449,Mssca - Fallen Leaf,Assisted Living,,352 1200,,,,,Cynthia.norvell@mssca.org,,,255 W. Fallen Leaf Circle,,61.570455,-149.453562,Wasilla,,99654,,
USA-AK-70-AK-AssistedLiving-output-450,Mssca - Kertulla Court,Assisted Living,,352 1200,,,,,Cynthia.norvell@mssca.org,,,3955 Kertulla Court #1,,61.545655,-149.5496719,Wasilla,,99654,,
USA-AK-70-AK-AssistedLiving-output-451,Mssca - Lone Cub,Assisted Living,,352 1200,,,,,Cynthia.norvell@mssca.org,,,850 E. Lone Cub Drive,,61.5869136,-149.4724141,Wasilla,,99654,,
USA-AK-70-AK-AssistedLiving-output-452,Mssca - Pine Ridge (formerly Kertulla Court #2),Assisted Living,,352 1200,,,,,Cynthia.norvell@mssca.org,,,791 N. Pine Ridge,,61.5873915,-149.5173265,Wasilla,,99654,,
USA-AK-70-AK-AssistedLiving-output-453,Mssca - Plymouth Rock (formerly Hollywood & VINE),Assisted Living,,352 1200,,,,,Cynthia.norvell@mssca.org,,,951 Plymouth Circle,,61.5888829,-149.3038531,Wasilla,,99654,,Lakes
USA-AK-70-AK-AssistedLiving-output-454,Mssca - Siberian Pea (formerly Country Wood),Assisted Living,,352 1200,,,,,Cynthia.norvell@mssca.org,,,2650 S. Siberian Pea,,61.553122,-149.536804,Wasilla,,99654,,
USA-AK-70-AK-AssistedLiving-output-455,Mssca - Soaring Crane (formerly Hollywood Hills),Assisted Living,,352 1200,,,,,Cynthia.norvell@mssca.org,,,4690 Crane Rd.,,61.5536816,-149.33267,Wasilla,,99654,,Gateway
USA-AK-70-AK-AssistedLiving-output-456,Mssca - Tundra Rose,Assisted Living,,352 1200,,,,352 1249,Cynthia.norvell@mssca.org,,,2515 Tundra Rose Drive,,61.5541526,-149.5366471,Wasilla,,99654,,
USA-AK-70-AK-AssistedLiving-output-457,Mssca - VICKI Way,Assisted Living,,352 1200,,,,,Cynthia.norvell@mssca.org,,,1000 Vicki Way,,61.5729399,-149.3513727,Wasilla,,99654,,Lakes
USA-AK-70-AK-AssistedLiving-output-458,Mssca - West Melanie,Assisted Living,,352 1200,,,,,Cynthia.norvell@mssca.org,,,2350 W. Melanie Avenue,,61.5901493,-149.5082593,Wasilla,,99654,,
USA-AK-70-AK-AssistedLiving-output-459,My Daughter & Me Alh,Dementia Care;Assisted Living,,,,,,,rccenter@gci.net,,,3408 North Star Street,,38.0394573,-121.3586518,Anchorage,,99503,,Sherwoods Manor
USA-AK-70-AK-AssistedLiving-output-460,"My Father's House Assisted Living Home, Llc",Dementia Care;Assisted Living,,334 3391,,,,,doddie@gci.net,,,6951 Shane Place,,61.1574948,-149.8274314,Anchorage,,99507,,Abbott Loop
USA-AK-70-AK-AssistedLiving-output-461,Nadon Family Home,Assisted Living,,350 8702,,,,,raynadon@ak.net,,,6955 Caravelle Drive,,61.1573554,-149.9663927,Anchorage,,99502,,Sand Lake
USA-AK-70-AK-AssistedLiving-output-462,Nana's House Assisted Living Home,Assisted Living,,360 2126,,,,,nanawyche@yahoo.com,,,8440 Blackberry Street,,61.1440928,-149.9448357,Anchorage,,99502,,Sand Lake
USA-AK-70-AK-AssistedLiving-output-463,Nettie's Assisted Living Home,Assisted Living,,272 6612,,,,,iamworthit_2000@yahoo.com,,,1566 Valarian Street,,61.2065952,-149.8146651,Anchorage,,99508,,Airport Heights Community Council
USA-AK-70-AK-AssistedLiving-output-464,New Beginning Assisted Living Home,Assisted Living,,338 8264,,,,,rightonpattie@hotmail.com,,,2253 Misty Brook Circle,,61.1474213,-149.9207432,Anchorage,,99502,,Sand Lake
USA-AK-70-AK-AssistedLiving-output-465,New Concept I,Assisted Living,,274 1661,,,,,newconcept@acsalaska.net,,,354 Flower St.,,61.2194756,-149.8068406,Anchorage,,99508,,Russian Jack Park
USA-AK-70-AK-AssistedLiving-output-466,New Haven Assisted Living Home,Dementia Care;Assisted Living,,350 4080,,,,,jcnewhaven@gci.net,,,9230 Aphrodite Drive,,61.1371857,-149.912346,Anchorage,,99515,,Bayshore / Klatt
USA-AK-70-AK-AssistedLiving-output-467,New Hope Alh,Assisted Living,,745 1694,,,,745 1693,dancreektrail@hotmaNew,,,8311 E. New Hope Street,,61.6718982,-149.2403935,Palmer,,99654,,
USA-AK-70-AK-AssistedLiving-output-468,New Horizons,Assisted Living,,232 8993,,,,,bowlesnbowles@live.com,,,3300 Amber Bay,,61.1270383,-149.9427563,Anchorage,,99515,,Bayshore / Klatt
USA-AK-70-AK-AssistedLiving-output-469,Nicholson's Assisted Living INC,Dementia Care;Assisted Living,,283 6684,,,,,tmnicholson@gci.net,,,36601 Navigator Street,,60.5103825,-151.2759025,Kenai,,99611,,
USA-AK-70-AK-AssistedLiving-output-470,Nightingale Alh,Dementia Care;Assisted Living,,644 8046,,,,,mmsculley@aol.com,,,1572 N. Heather Meadows Loop,,61.1395868,-149.8550633,Anchorage,,99507,,Abbott Loop
USA-AK-70-AK-AssistedLiving-output-471,Nonomi House,Assisted Living,,373 5644,,,,,lmnewell2009@hotmail.com,,,7945 Settlers Bay Dr.,,61.511871,-149.623567,Wasilla,,99687,,
USA-AK-70-AK-AssistedLiving-output-472,Norbu Linka,Assisted Living,,522 2157,,,,,karma@gci.net,,,3304 Checkmate Drive,,61.1915185,-149.7834251,Anchorage,,99508,,U-MED District
USA-AK-70-AK-AssistedLiving-output-473,Northbridge Castle Heights,Assisted Living,,770 0495,,,,770 0496,michelle@northbridgellc.com,,,4119 Checkmate Dr.,,61.1836584,-149.7847682,Anchorage,,99508,,U-MED District
USA-AK-70-AK-AssistedLiving-output-474,Northbridge Lynnwood,Assisted Living,,770 0495,,,,,michelle@northbridgellc.com,,,344 Lynnwood Dr. Unit A,,61.1630761,-149.875606,Anchorage,,99518,,Taku / Campbell
USA-AK-70-AK-AssistedLiving-output-475,Northbridge Lynnwood 2,Assisted Living,,770 0495,,,,770 0496,michelle@northbridgellc.com,,,344 Lynnwood Dr. Unit B,,61.1630761,-149.875606,Anchorage,,99518,,Taku / Campbell
USA-AK-70-AK-AssistedLiving-output-476,Northbridge Nanuq,Assisted Living,,770 0495,,,,770 0496,michelle@northbridgellc.com,,,1414 Ermine,,61.208391,-149.7507817,Anchorage,,99504,,Northeast Anchorage
USA-AK-70-AK-AssistedLiving-output-477,Northbridge Tikishla,Assisted Living,,770 0495,,,,770 0496,michelle@northbridgellc.com,,,3721 E. 19th,,61.2041495,-149.8115912,Anchorage,,99508,,Airport Heights Community Council
USA-AK-70-AK-AssistedLiving-output-478,Northern Comfort,Dementia Care;Assisted Living,,746 6493,,,,,merri@diasonline.com,,,2800 N. Lagoon Drive,,61.6117912,-149.2841251,Wasilla,,99654,,Lakes
USA-AK-70-AK-AssistedLiving-output-479,Northern Lights Alh,Dementia Care;Assisted Living,,277 0378,,,,,alexprost@hotmail.com,,,1640 Vashon Circle,,61.1146475,-149.9104822,Anchorage,,99515,,Bayshore / Klatt
USA-AK-70-AK-AssistedLiving-output-480,"Northern Living Centers, Llc",Dementia Care;Assisted Living,,376 5828,,,,756 3412,nlc@mtaonline.net,,,2795 W. Stonebridge Drive,,61.551631,-149.520906,Wasilla,,99654,,
USA-AK-70-AK-AssistedLiving-output-481,Nustart Assisted Living Home,Assisted Living,,258 4663,,,,,JLW@alaska.net,,,729 E. 9th Avenue,,61.213894,-149.869855,Anchorage,,99501,,Fairview
USA-AK-70-AK-AssistedLiving-output-482,O'bie's Adobe,Assisted Living,,376 6240,,,,,akobryan@me.com,,,1790 N Centurian Place,,61.5990299,-149.4660381,Wasilla,,99654,,
USA-AK-70-AK-AssistedLiving-output-483,Olsen's Alh,Assisted Living,,225 2001,,,,,maolsen@kpunet.net,,,4604 N. Tongass Hwy,,55.3648002,-131.7111223,Ketchikan,,99901,,
USA-AK-70-AK-AssistedLiving-output-484,Olympus House,Dementia Care;Assisted Living,,770 2730,,,,,olympushouse@gmail.com,,,1621 Demeter Drive,,61.1362273,-149.9102232,Anchorage,,99515,,Bayshore / Klatt
USA-AK-70-AK-AssistedLiving-output-485,"Opus Memoria II, Llc",Dementia Care;Assisted Living,,677 1919,,,,,hickel@opusmemoria.com,,,4880 Chuck Drive,,61.1761888,-149.8288594,Anchorage,,99507,,Campbell Park
USA-AK-70-AK-AssistedLiving-output-486,"Opus Memoria, Llc",Dementia Care;Assisted Living,,677 1919,,,,,hickel@opusmemoria.com,,,4890 Chuck Drive,,39.4904875,-94.3062731,Anchorage,,99507,,
USA-AK-70-AK-AssistedLiving-output-487,Orchard Assisted Living,Assisted Living,,929 1278,,,,(866) 413 7297,fulton.jessica@yahoo.com,,,1001 Cherry St. Unit A,,61.2130806,-149.7218682,Anchorage,,99504,,Northeast Anchorage
USA-AK-70-AK-AssistedLiving-output-488,Otcheck Alh,Assisted Living,,598 1993,,,,,tanashepard@hotmail.com,,,63540 Skyline Drive,,59.678052,-151.48307,Homer,,99603,,
USA-AK-70-AK-AssistedLiving-output-489,Otter House,Assisted Living,,222 6553,,,,,southernbellak@yahoo.com,,,1503 Otter Street,,61.2079633,-149.7536402,Anchorage,,99504,,Northeast Anchorage
USA-AK-70-AK-AssistedLiving-output-490,Our Family Alh,Dementia Care;Assisted Living,,231 7296,,,,,ourfamilyalh@gmail.com,,,11245 Via Balboa,,61.1190054,-149.8830872,Anchorage,,99515,,Bayshore / Klatt
USA-AK-70-AK-AssistedLiving-output-491,Our Home,Dementia Care;Assisted Living,,,,,,,richelle1660@gmail.com,,,9330 Aphrodite Drive,,61.1358082,-149.9140761,Anchorage,,99515,,Bayshore / Klatt
USA-AK-70-AK-AssistedLiving-output-492,Our House II,Dementia Care;Assisted Living,,776 8684,,,,(907) 262 2332,cquale96@yahoo.com,,,264 Crest Drive,,60.497608,-151.080848,Soldotna,,99669,,
USA-AK-70-AK-AssistedLiving-output-493,Our Lady Of Fatima Llc,Dementia Care;Assisted Living,,529 7495,,,,,olof_assistedlivinghome@yahoo.com,,,4030 Defiance St.,,61.1840547,-149.7703687,Anchorage,,99504,,U-MED District
USA-AK-70-AK-AssistedLiving-output-494,Our Lady Of Lourdes Llc,Dementia Care;Assisted Living,,333 4692,,,,,leocrv69@yahoo.com,,,1931 Greendale Drive,,61.203154,-149.727634,Anchorage,,99504,,Northeast Anchorage
USA-AK-70-AK-AssistedLiving-output-495,Padre Pio Assisted Living Home,Dementia Care;Assisted Living,,350 2375,,,,,bluntbryan2000@yahoo.com,,,8423 Dunlap Circle,,61.223468,-149.7232841,Anchorage,,99504,,Northeast Anchorage
USA-AK-70-AK-AssistedLiving-output-496,Parson Home,Assisted Living,,250 5769,,,,,parson78@hotmail.com,,,9801 Spring Hill Drive,,28.4552975,-82.5588376,Anchorage,,99507,,
USA-AK-70-AK-AssistedLiving-output-497,Pathways Llc,Dementia Care;Assisted Living,,435 3938,,,,776 3613,pathwaysllc@outlook.com,,,45864 Inlet Breeze,,60.644901,-151.3307448,Kenai,,99611,,
USA-AK-70-AK-AssistedLiving-output-498,"Patricia Jane's, Llc.",Dementia Care;Assisted Living,,903 5224,,,,(907) 885 3736,PatriciaJanesllc@gmail.com,,,8501 Gordon Circle,,45.936467,-94.3415736,Anchorage,,99507,,
USA-AK-70-AK-AssistedLiving-output-499,Peace & Harmony Alh,Assisted Living,,230 0502,,,,,somar@ak.net,,,107 Matthew Paul Way,,61.2231664,-149.7625619,Anchorage,,99504,,Northeast Anchorage
USA-AK-70-AK-AssistedLiving-output-500,Peace And Harmony Alh #2,Assisted Living,,310 6434,,,,,somar@ak.net,,,840 Jay Circle,,43.0973203,-75.2122565,Anchorage,,99504,,
USA-AK-70-AK-AssistedLiving-output-501,Perpetual Help Care Center,Dementia Care;Assisted Living,,677 1901,,,,677 1411,perpetualcare.ak@gci.net,,,2531 Trisha Avenue,,61.1134248,-149.8344462,Anchorage,,99516,,Huffman / O' Malley
USA-AK-70-AK-AssistedLiving-output-502,Pine Creek,Dementia Care;Assisted Living,,646 0797,,,,,erinterry91@yahoo.com,,,341 N. Bunn,,61.2268123,-149.7984691,Anchorage,,99508,,Mountain View
USA-AK-70-AK-AssistedLiving-output-503,Pioneers' Home-anchorage,Dementia Care;Assisted Living,,276 3414,,,,,richard.saville@alaska.gov,,,923 W. 11th Avenue,,61.2122182,-149.900551,Anchorage,,99501,,
USA-AK-70-AK-AssistedLiving-output-504,Pioneers' Home-fairbanks,Dementia Care;Assisted Living,,456 4372,,,,,angie.howard@alaska.gov,,,2221 Eagan Avenue,,64.8338047,-147.7726615,Fairbanks,,99701,,
USA-AK-70-AK-AssistedLiving-output-505,Pioneers' Home-juneau,Dementia Care;Assisted Living,,,,,,,gina.delrosario@alaska.gov,,,4675 Glacier Highway,,58.3445661,-134.4966961,Juneau,,99801,,Salmon Creek
USA-AK-70-AK-AssistedLiving-output-506,Pioneers' Home-ketchikan,Dementia Care;Assisted Living,,225 4111,,,,,julie.sande@alaska.gov,,,141 Bryant Street,,55.3562454,-131.6917426,Ketchikan,,99901,,
USA-AK-70-AK-AssistedLiving-output-507,Pioneers' Home-sitka,Dementia Care;Assisted Living,,747 3213,,,,,dayna.arnold@alaska.gov,,,120 Katlian Street,,57.0503043,-135.3395552,Sitka,,99835,,
USA-AK-70-AK-AssistedLiving-output-508,Potala Alh,Assisted Living,,522 2157,,,,,karma@GCI.net,,,2115 Mistybrook Circle,,61.1478612,-149.9203801,Anchorage,,99502,,Sand Lake
USA-AK-70-AK-AssistedLiving-output-509,Powell's Home Care,Assisted Living,,,,,,,dennis.powell@johnstonesupply.com,,,6069 Doncaster Drive,,61.1979154,-149.7671473,Anchorage,,99504,,Northeast Anchorage
USA-AK-70-AK-AssistedLiving-output-510,"Precious Care Assisted Living Facility, Llc",Dementia Care;Assisted Living,,227 5421,,,,868 3721,preciouscare@gci.net,,,3773 Scenic View Drive,,61.185852,-149.7344968,Anchorage,,99504,,Scenic Foothills
USA-AK-70-AK-AssistedLiving-output-511,Pribbenow Place,Assisted Living,,,,,,,gpribbenow@gmail.com,,,1803 Miranda Ct.,,60.575317,-151.28639,Kenai,,99611,,
USA-AK-70-AK-AssistedLiving-output-512,Primrose Alh,Dementia Care;Assisted Living,,373 5500,,,,,tnorman@primroseretirement.com,,,889 N. Elkhorn Drive,,61.589069,-149.4524177,Wasilla,,99654,,
USA-AK-70-AK-AssistedLiving-output-513,Providence Forest VIEW Assisted Living Care Center,Dementia Care;Assisted Living,,212 4700,,,,,theresa.gleason@providence.org,,,3831 Piper Street Ste. S333,,61.1858359,-149.8213587,Anchorage,,99508,,U-MED District
USA-AK-70-AK-AssistedLiving-output-514,Providence Horizon House,Dementia Care;Assisted Living,,261 4140,,,,,theresa.gleason@providence.org,,,4140 Folker Street,,61.1831343,-149.8322572,Anchorage,,99508,,U-MED District
USA-AK-70-AK-AssistedLiving-output-515,Providence Horizon House-cottages,Dementia Care;Assisted Living,,261 4140,,,,,theresa.gleason@providence.org,,,4140 Folker Street,,61.1831343,-149.8322572,Anchorage,,99508,,U-MED District
USA-AK-70-AK-AssistedLiving-output-516,Quality And Quantity Care Services,Assisted Living,,229 2056,,,,,Ousmanfattyhydara@yahoo.com,,,848 Elaine Drive,,61.214542,-149.720019,Anchorage,,99504,,Northeast Anchorage
USA-AK-70-AK-AssistedLiving-output-517,Quality Care Center Of Delta,Dementia Care;Assisted Living,,388 3327,,,,,qualitycarecenter@hotmail.com,,,2730 Alaska Highway,,63.9832085,-145.5426059,Delta Junction,,99737,,
USA-AK-70-AK-AssistedLiving-output-518,Queen VICTORIA,Assisted Living,,441 2105,,,,770 1301,houghtonhill@hotmail.com,,,20176 Constitution Dr.,,61.3154393,-149.5053446,Eagle River,,99577,,Eagle River
USA-AK-70-AK-AssistedLiving-output-519,Rabe Assisted Living Home,Dementia Care;Assisted Living,,727 4723,,,,,balgenorth5@aol.com,,,4941 Alpha Circle,,61.1138415,-149.7898696,Anchorage,,99516,,Huffman / O' Malley
USA-AK-70-AK-AssistedLiving-output-520,Ramona's Home,Assisted Living,,357 6906,,,,,monag@gci.net,,,6921 Werner,,61.495732,-149.623006,Wasilla,,99687,,
USA-AK-70-AK-AssistedLiving-output-521,Randel Home Care I,Dementia Care;Assisted Living,,743 0818,,,,743 6912,randelhomecare@yahoo.com,,,9290 Aphrodite Drive,,61.1366715,-149.9140767,Anchorage,,99515,,Bayshore / Klatt
USA-AK-70-AK-AssistedLiving-output-522,Randel Home Care II,Dementia Care;Assisted Living,,743 0818,,,,868 1957,randelhomecare@yahoo.com,,,7637 Winchester St.,,61.1515927,-149.8112073,Anchorage,,99507,,Abbott Loop
USA-AK-70-AK-AssistedLiving-output-523,Randel Home Care III,Dementia Care;Assisted Living,,743 0818,,,,522 0302,randelhomecare@yahoo.com,,,7655 Winchester St.,,61.151423,-149.8112006,Anchorage,,99507,,Abbott Loop
USA-AK-70-AK-AssistedLiving-output-524,Raven,Assisted Living,,631 3078,,,,631 3518,jeanne.owen@genacta.com,,,5545 S Irwin Drive #4,,61.519493,-149.618257,Wasilla,,99654,,
USA-AK-70-AK-AssistedLiving-output-525,Raven's VIEW,Assisted Living,,715 8773,,,,,sibonz@hotmail.com,,,1051 Rainbow Park Drive,,61.590546,-149.633261,Wasilla,,99654,,
USA-AK-70-AK-AssistedLiving-output-526,Reach - Glacier Woods,Assisted Living,,796 7235,,,,,rdriscoll@reachak.org,,,3514 Mendenhall Loop Road,,58.3845376,-134.5740552,Juneau,,99801,,Mendenhall Valley
USA-AK-70-AK-AssistedLiving-output-527,Reach - Mark Alan Home,Assisted Living,,796 7235,,,,,rdriscoll@reachak.org,,,1814 Mark Alan Street,,58.3630841,-134.4967538,Juneau,,99801,,
USA-AK-70-AK-AssistedLiving-output-528,Reach - Mendenhall Woods,Assisted Living,,796 7235,,,,,rdriscoll@reachak.org,,,3510 Mendenhall Loop Road,,58.3845009,-134.5747619,Juneau,,99801,,Mendenhall Valley
USA-AK-70-AK-AssistedLiving-output-529,Reflective Assisted Living Home,Assisted Living,,332 2203,,,,,susant@gci.net,,,9113 Jewel Terrace St,,61.1381774,-149.9580691,Anchorage,,99502,,Sand Lake
USA-AK-70-AK-AssistedLiving-output-530,Riverside Assisted Living Soldotna,Dementia Care;Assisted Living,,262 9600,,,,262 6400,dpederson@riversideassistedliving.com,,,390 Lovers Lane,,60.4788355,-151.0727702,Soldotna,,99669,,
USA-AK-70-AK-AssistedLiving-output-531,Rjp Home Care Services,Dementia Care;Assisted Living,,646 1131,,,,677 9756,reedpetrie@hotmail.com,,,973 Shakespeare Circle,,61.1742021,-149.9012478,Anchorage,,99503,,Spenard
USA-AK-70-AK-AssistedLiving-output-532,"Robert, Diana Alh",Assisted Living,,,,,,,dianalioness@yahoo.com,,,6610 Round Tree Drive,,61.1285738,-149.758224,Anchorage,,99507,,Mid-Hillside
USA-AK-70-AK-AssistedLiving-output-533,Robin's Nest Alh,Assisted Living,,715 7284,,,,,rcazer@mtaonline.net,,,7750 W. Golden Drive,,61.586101,-149.6437819,Wasilla,,99623,,
USA-AK-70-AK-AssistedLiving-output-534,Rocking Years One,Dementia Care;Assisted Living,,451 0806,,,,452 6951,rockingyears@hotmail.com,,,1913 Jack Street,,64.8622833,-147.7666896,Fairbanks,,99709,,
USA-AK-70-AK-AssistedLiving-output-535,Rocking Years Two,Dementia Care;Assisted Living,,388 4605,,,,452 6951,rockingyears@hotmail.com,,,3291 Jefferson Drive,,64.8319767,-147.7986888,Fairbanks,,99709,,
USA-AK-70-AK-AssistedLiving-output-536,Romana 2 Assisted Living Home,Assisted Living,,229 7240,,,,,trunx_xx@yahoo.com,,,1023 E. 28th Avenue,,41.5673763,-87.2705948,Anchorage,,99508,,
USA-AK-70-AK-AssistedLiving-output-537,Roses Care Alh,Dementia Care;Assisted Living,,,,,,,rdmissig@gci.net,,,7500 Wade Circle,,61.1528222,-149.9066346,Anchorage,,99518,,Taku / Campbell
USA-AK-70-AK-AssistedLiving-output-538,Rosewood Assisted Living,Dementia Care;Assisted Living,,258 1141,,,,258 1527,sk@anchor-house.biz,,,3722 Parsons Avenue,,61.2294227,-149.8107946,Anchorage,,99508,,Mountain View
USA-AK-70-AK-AssistedLiving-output-539,Ruth Mingo Manor,Assisted Living,,376 0389,,,,,rcazer@mtaonline.net,,,602 North Moriah Circle,,61.585778,-149.648188,Wasilla,,99654,,
USA-AK-70-AK-AssistedLiving-output-540,Sacred Heart Care Center,Dementia Care;Assisted Living,,561 6542,,,,,sacredheartcare@yahoo.com,,,8232 Blackberry St.,,61.1459685,-149.9449404,Anchorage,,99502,,Sand Lake
USA-AK-70-AK-AssistedLiving-output-541,Saint Catherine Home Care,Assisted Living,,,,,,,saintcatherinehomecare@yahoo.com,,,7072 Stella Place,,61.1568253,-149.8411511,Anchorage,,99507,,Abbott Loop
USA-AK-70-AK-AssistedLiving-output-542,Saint Lourdes Home Care,Assisted Living,,562 1243,,,,,stlourdeshome@gmail.com,,,4904 Cambridge Way,,61.1756856,-149.9042647,Anchorage,,99503,,Spenard
USA-AK-70-AK-AssistedLiving-output-543,Saint Pio Assisted Living Home Llc,Dementia Care;Assisted Living,,952 1079,,,,,robinpentecostes@gmail.com,,,7924 Resurrection Drive,,61.1832113,-149.7321151,Anchorage,,99504,,Scenic Foothills
USA-AK-70-AK-AssistedLiving-output-544,Saint Timothy Home I,Dementia Care;Assisted Living,,337 6364,,,,,sttimothyhome@gmail.com,,,12363 Division Street,,61.1090193,-149.8704148,Anchorage,,99515,,Old Seward / Oceanview
USA-AK-70-AK-AssistedLiving-output-545,Saint Timothy Home II,Dementia Care;Assisted Living,,337 6364,,,,,sttimothyhome@gmail.com,,,12371 Division Street,,61.1090269,-149.8700684,Anchorage,,99515,,Old Seward / Oceanview
USA-AK-70-AK-AssistedLiving-output-546,Saint Timothy Home III,Dementia Care;Assisted Living,,337 6364,,,,,sttimothyhome@gmail.com,,,11621 Nix Court,,61.1151277,-149.8793281,Anchorage,,99515,,Old Seward / Oceanview
USA-AK-70-AK-AssistedLiving-output-547,Sally Marie's Alh,Assisted Living,,222 1743,,,,,,,,"1545 Hoyt, Space 44",,61.2071993,-149.7964552,Anchorage,,99508,,Russian Jack Park
USA-AK-70-AK-AssistedLiving-output-548,Sanctuary Alh,Assisted Living,,764 8331,,,,,christian_lass@yahoo.com,,,6700 Rockridge Drive,,61.1162549,-149.7573341,Anchorage,,99516,,Mid-Hillside
USA-AK-70-AK-AssistedLiving-output-549,Sanctuary II Alh,Assisted Living,,764 8331,,,,,CHRISTIAN_LASS@YAHOO.COM,,,"8901 Lakehurst Drive, Unit A",,61.1401032,-149.9525446,Anchorage,,99502,,Sand Lake
USA-AK-70-AK-AssistedLiving-output-550,Sandra Boatner Alh,Assisted Living,,488 0913,,,,,sandral@gci.net,,,1960 Persinger Drive,,64.8308456,-147.4461304,North Pole,,99705,,
USA-AK-70-AK-AssistedLiving-output-551,Sankofa,Assisted Living,,570 1654,,,,,nanampong@aol.com,,,5500 Alora Loop,,61.2182414,-149.7763129,Anchorage,,99504,,Northeast Anchorage
USA-AK-70-AK-AssistedLiving-output-552,Santo Nino Alh,Dementia Care;Assisted Living,,646 1341,,,,,imeldasipin@yahoo.com,,,2900 E. 18th. Avenue,,47.6391246,-117.3684143,Anchorage,,99508,,Lincoln Heights
USA-AK-70-AK-AssistedLiving-output-553,Sauda's Helping Hands Alh,Assisted Living,,332 0263,,,,,sauda3.sah@gmail.com,,,1735 Katrina Cir.,,61.2048714,-149.805048,Anchorage,,99508,,Russian Jack Park
USA-AK-70-AK-AssistedLiving-output-554,Scenic Manor,Dementia Care;Assisted Living,,770 5777,,,,,rmrrwn@yahoo.com,,,4009 Scenic View Drive,,61.183856,-149.736093,Anchorage,,99504,,Scenic Foothills
USA-AK-70-AK-AssistedLiving-output-555,"Sck Caring Hearts Alh, Llc",Dementia Care;Assisted Living,,(201) 218 6205,,,,,maricar_jordana@yahoo.com;sckcaringhearts@yahoo,,,1741 Flatwater Circle,,61.1624692,-149.8496041,Anchorage,,99507,,Abbott Loop
USA-AK-70-AK-AssistedLiving-output-556,Seaview Community Services Alh,Assisted Living,,224 5257,,,,,jhancock@seaviewseward.org,,,1400 Chamberlain Rd.,,60.1181466,-149.443664,Seward,,99664,,
USA-AK-70-AK-AssistedLiving-output-557,Second Chances,Assisted Living,,727 4352,,,,,robinsonfamilyzoo@gmail.com,,,21342 Torkelson Circle,,61.416697,-149.485077,Chugiak,,99567,,Chugiak
USA-AK-70-AK-AssistedLiving-output-558,Serene Grace Assisted Living Home II,Dementia Care;Assisted Living,,272 4073,,,,522 1626,serenegracealh@gmail.com,,,2937 Bass St.,,61.1545184,-149.8281204,Ancorage,,99507,,Abbott Loop
USA-AK-70-AK-AssistedLiving-output-559,Serene Grace Asssited Living Home,Dementia Care;Assisted Living,,272 4073,,,,522 1626,serenegracealh@gmail.com,,,3639 E. 74th Ave,,61.1540446,-149.8143479,Anchorage,,99507,,Abbott Loop
USA-AK-70-AK-AssistedLiving-output-560,Serenity Circle Assisted Living,Dementia Care;Assisted Living,,334 3968,,,,868 3595,lorifrey_234@msn.com,,,13050 Badger Lane,,61.1024825,-149.7837616,Anchorage,,99516,,Huffman / O' Malley
USA-AK-70-AK-AssistedLiving-output-561,Serenity Suites,Assisted Living,,,,,,770 1329,serenitysuitesak@yahoo.com,,,1540 E. 17th Avenue,,61.2048413,-149.8546707,Anchorage,,99501,,Fairview
USA-AK-70-AK-AssistedLiving-output-562,Severson Alh,Assisted Living,,222 1153,,,,,mail@toddseverson.net,,,8531 Little Dipper,,61.1917181,-149.7208881,Anchorage,,99504,,Scenic Foothills
USA-AK-70-AK-AssistedLiving-output-563,Shaligo Homes,Assisted Living,,,,,,,shaligo4@yahoo.com,,,4434 E. 5th Ave,,61.21765,-149.7975845,Anchorage,,99508,,Russian Jack Park
USA-AK-70-AK-AssistedLiving-output-564,Shambala Alh,Assisted Living,,854 3414,,,,,kw_tsangba@yahoo.com,,,8848 Gloralee St.,,61.140036,-149.9598391,Anchorage,,99502,,Sand Lake
USA-AK-70-AK-AssistedLiving-output-565,Sharon's Assisted Living,Assisted Living,,333 0082,,,,,jhnsn_clyd@yahoo.com,,,1142 E. 13th Avenue,,61.2095313,-149.861216,Anchorage,,99501,,Fairview
USA-AK-70-AK-AssistedLiving-output-566,Shepherd's Home Care,Dementia Care;Assisted Living,,332 0627,,,,,ptyrell2@msn.com,,,245 Fireoved Dr.,,61.2215553,-149.7832505,Anchorage,,99508,,Russian Jack Park
USA-AK-70-AK-AssistedLiving-output-567,Shepherd's Home Care 2,Dementia Care;Assisted Living,,268 8148,,,,,ptryell2@msn.com,,,321 Ray St.,,61.2200537,-149.7994045,Anchorage,,99508,,Russian Jack Park
USA-AK-70-AK-AssistedLiving-output-568,Sheyla's Place,Dementia Care;Assisted Living,,727 4504,,,,,sheylarook@aol.com,,,3724 E. 16th Avenue,,61.2058609,-149.8115466,Anchorage,,99508,,Airport Heights Community Council
USA-AK-70-AK-AssistedLiving-output-569,Simply Blue,Dementia Care;Assisted Living,,770 1179,,,,,,,,7451 Tyone Ct.,,61.1984573,-149.7412319,Anchorage,,99504,,Northeast Anchorage
USA-AK-70-AK-AssistedLiving-output-570,Sims Foster Assisted Living Home,Assisted Living,,789 3211,,,,,sims.wife1@gmail.com,,,8311 Aspen Ave,,58.3911165,-134.5778914,Juneau,,99801,,Mendenhall Valley
USA-AK-70-AK-AssistedLiving-output-571,Smith Alh,Assisted Living,,376 1096,,,,,jls907ak@gmail.com,,,2375 E. Vision View Drive,,61.5470334,-149.3906336,Wasilla,,99654,,
USA-AK-70-AK-AssistedLiving-output-572,"Snow Circle Alh, Llc",Dementia Care;Assisted Living,,677 8562,,,,,snowcirclealh@yahoo.com,,,"2634 Carroll Place, Unit 1",,61.1837478,-149.9380002,Anchorage,,99508,,Turnagain
USA-AK-70-AK-AssistedLiving-output-573,Snowshoes,Assisted Living,,,,,,,matt_wilson907@yahoo.com,,,530 Mumford St. #4,,61.2284637,-149.8145702,Anchorage,,99508,,Mountain View
USA-AK-70-AK-AssistedLiving-output-574,Solano House,Assisted Living,,746 1082,,,,746 1082,yvonneasolano@gmail.com,,,158 S. Drover Cr.,,32.0418632,-102.0829221,Palmer,,99645,,
USA-AK-70-AK-AssistedLiving-output-575,Soundview Assisted Living Home,Dementia Care;Assisted Living,,235 6149,,,,,lnghenry@ptialaska.net,,,980 Soundview Avenue,,59.6443924,-151.5676205,Homer,,99603,,
USA-AK-70-AK-AssistedLiving-output-576,"Southern Living Assisted Living Home, Ltd",Dementia Care;Assisted Living,,,,,,,nursemate43@yahoo.com,,,9639 Musket Ball Circle,,61.1335077,-149.8431381,Anchorage,,99507,,Abbott Loop
USA-AK-70-AK-AssistedLiving-output-577,St. Anne Alh. INC,Dementia Care;Assisted Living,,336 4010,,,,,stannealh@yahoo.com,,,9140 Shady Bay Circle,,38.8275038,-76.5123539,Anchorage,,99507,,
USA-AK-70-AK-AssistedLiving-output-578,St. Anne II Alh. INC,Dementia Care;Assisted Living,,336 4010,,,,,stannealh@yahoo.com,,,7452 Nathan Drive,,61.1526061,-149.8735538,Anchorage,,99518,,Taku / Campbell
USA-AK-70-AK-AssistedLiving-output-579,St. Catherine's Assisted Living Home,Dementia Care;Assisted Living,,,,,,,st.catherinesalh@gmail.com,,,7940 Ladasa Place,,61.1485239,-149.8160035,Anchorage,,99507,,Abbott Loop
USA-AK-70-AK-AssistedLiving-output-580,St. Lawrence Assisted Living Home I,Dementia Care;Assisted Living,,244 9267,,,,,tessergio_alh88@hotmail.com,,,9221 Aphrodite Drive,,61.1367242,-149.9117801,Anchorage,,99515,,Bayshore / Klatt
USA-AK-70-AK-AssistedLiving-output-581,St. Lawrence Assisted Living Home II,Dementia Care;Assisted Living,,244 9267,,,,,tessergio_alh88@hotmail.com,,,9310 Aphrodite Drive,,61.1362469,-149.9140947,Anchorage,,99515,,Bayshore / Klatt
USA-AK-70-AK-AssistedLiving-output-582,St. Lawrence Assisted Living Home III,Dementia Care;Assisted Living,,244 9267,,,,,tessergio_alh88@hotmail.com,,,600 E. 120th Avenue,,61.1119287,-149.8707442,Anchorage,,99515,,Old Seward / Oceanview
USA-AK-70-AK-AssistedLiving-output-583,St. Mary's Alh #2,Dementia Care;Assisted Living,,929 1588,,,,,tgauthier1014@aol.com,,,4001 E. 3rd Avenue,,61.2207044,-149.8059883,Anchorage,,99508,,Russian Jack Park
USA-AK-70-AK-AssistedLiving-output-584,St. Mary's Assisted Living Home,Dementia Care;Assisted Living,,349 0446,,,,,tgauthier1014@aol.com,,,441 Bonnie Jean Ct,,61.1109871,-149.888429,Anchorage,,99515,,Old Seward / Oceanview
USA-AK-70-AK-AssistedLiving-output-585,St. Paul Home Care Services Alh,Dementia Care;Assisted Living,,,,,,,eribaljennie10@yahoo.com,,,3505 E. 18th Avenue,,61.204861,-149.8159285,Anchorage,,99508,,Airport Heights Community Council
USA-AK-70-AK-AssistedLiving-output-586,St. Thomas II Alh,Dementia Care;Assisted Living,,727 1965,,,,,fledz1966@yahoo.com,,,6885 Town and Country Place,,61.1584832,-149.9525345,Anchorage,,99502,,Sand Lake
USA-AK-70-AK-AssistedLiving-output-587,Stearns Assisted Living,Assisted Living,,333 6903,,,,,whenpoetsfly@hotmail.com,,,3802 Deborah Lane,,61.1862902,-149.7413255,Anchorage,,99504,,Scenic Foothills
USA-AK-70-AK-AssistedLiving-output-588,Sterling Care Group Home,Assisted Living,,262 9400,,,,357 5628,ahalsey@rescare.com,,,48390 Moose Run Ave,,60.469064,-151.1651819,Soldotna,,99669,,
USA-AK-70-AK-AssistedLiving-output-589,Strong Care Castle,Assisted Living,,223 6377,,,,,strongs95@yahoo.com,,,1533 Latouche Street,,61.2070119,-149.860232,Anchorage,,99501,,Fairview
USA-AK-70-AK-AssistedLiving-output-590,Sue's Sourdough Alh,Dementia Care;Assisted Living,,334 6448,,,,345 1966,grecress@yahoo.com,,,11931 Hilltop Drive,,61.1123259,-149.8989461,Anchorage,,99515,,Bayshore / Klatt
USA-AK-70-AK-AssistedLiving-output-591,Sunrise Assisted Living Home,Dementia Care;Assisted Living,,868 1229,,,,,sunrisealh@yahoo.com,,,8421 Greenhill Way,,61.1449293,-149.918075,Anchorage,,99502,,Sand Lake
USA-AK-70-AK-AssistedLiving-output-592,Sunrise Assisted Living Home II,Dementia Care;Assisted Living,,868 1229,,,,,sunrisealh@yahoo.com,,,6261 Collins Way,,61.163541,-149.9390637,Anchorage,,99502,,Sand Lake
USA-AK-70-AK-AssistedLiving-output-593,Sunrise Manor Alh,Dementia Care;Assisted Living,,746 7230,,,,,sunrisemanor@icloud.com,,,3201 Sparrow Ct,,61.6164,-149.197784,Palmer,,99654,,
USA-AK-70-AK-AssistedLiving-output-594,Sunset Haven,Dementia Care;Assisted Living,,230 1065,,,,,sunsethaven_alh@hotmail.com,,,4210 Galactica Drive,,61.1911605,-149.9645652,Anchorage,,99517,,Turnagain
USA-AK-70-AK-AssistedLiving-output-595,"Sunshine Haven Assisted Living Home, Llc.",Assisted Living,,887 4416,,,,,sunshinehavenalh@gmail.com,,,324 Dewey Circle,,61.2200518,-149.8012922,Anchorage,,99508,,Russian Jack Park
USA-AK-70-AK-AssistedLiving-output-596,Supreme Home,Dementia Care;Assisted Living,,830 6959,,,,,olohima@yahoo.com,,,1735 Minerva Way,,61.1340567,-149.9104667,Anchorage,,99515,,Bayshore / Klatt
USA-AK-70-AK-AssistedLiving-output-597,Supreme Home - Bryant Circle,Assisted Living,,830 6959,,,,,olohima@yahoo.com,,,2600 Bryant Circle Unit A,,61.14543,-149.8336334,Anchorage,,99507,,Abbott Loop
USA-AK-70-AK-AssistedLiving-output-598,Susan's Alh,Assisted Living,,229 0496,,,,,sdweaverak@gmail.com,,,1506 Turpin Street,,61.2077532,-149.7563969,,,99504,,Northeast Anchorage
USA-AK-70-AK-AssistedLiving-output-599,Sweet Success,Assisted Living,,444 8558,,,,,alaskahottie@hotmail.com,,,409 Mumford Street,,61.2270684,-149.8134252,Anchorage,,99508,,Mountain View
USA-AK-70-AK-AssistedLiving-output-600,Tanana Native Council,Dementia Care;Assisted Living,,,,,,,elders@tananatribe.org,,,100 Front Street,,44.2088185,-72.5171174,Tanana,,99777,,
USA-AK-70-AK-AssistedLiving-output-601,Tender Loving Care Assisted Living Home,Dementia Care;Assisted Living,,339 7997,,,,644 8350,minie.ong@live.com,,,7121 Travis Circle,,61.1560624,-149.8103839,Anchorage,,99507,,Abbott Loop
USA-AK-70-AK-AssistedLiving-output-602,"Tendo Assisted Living Home, Llc",Dementia Care;Assisted Living,,,,,,,carolpr907@gmail.com,,,3500 Upland Drive,,61.1886906,-149.7433834,Anchorage,,99504,,Scenic Foothills
USA-AK-70-AK-AssistedLiving-output-603,The Anchor Alh,Dementia Care;Assisted Living,,929 1337,,,,,theanchoralh@gmail.com,,,2401 Oak Drive,,34.1849277,-86.1058996,Anchorage,,99508,,
USA-AK-70-AK-AssistedLiving-output-604,The Ark Of Emmanuel,Dementia Care;Assisted Living,,677 9289,,,,,randyvous75@yahoo.com,,,5454 Emmanuel Ave,,61.189457,-149.7797097,Anchorage,,99508,,U-MED District
USA-AK-70-AK-AssistedLiving-output-605,The Ark Of Emmanuel II,Dementia Care;Assisted Living,,830 5074,,,,,randyvous75@yahoo.com,,,8231 Majestic Drive,,61.1834609,-149.727864,Anchorage,,99504,,Scenic Foothills
USA-AK-70-AK-AssistedLiving-output-606,The Manor,Dementia Care;Assisted Living,,247 8748,,,,,the_manor@gci.net,,,250 Heckman Street,,55.3573349,-131.6914224,Ketchikan,,99901,,
USA-AK-70-AK-AssistedLiving-output-607,The Marietta House,Dementia Care;Assisted Living,,,,,,,themariettahouse@gmail.com,,,3832 Young Street,,61.185626,-149.8407639,Anchorage,,99508,,Tudor Area
USA-AK-70-AK-AssistedLiving-output-608,The New Creation,Assisted Living,,744 2759,,,,,sdimapiles@yahoo.com,,,4101 Northwood Drive Unit B,,61.1829335,-149.9274563,Anchorage,,99517,,Spenard
USA-AK-70-AK-AssistedLiving-output-609,The Phillips Home,Assisted Living,,745 8867,,,,745 8867,akblkbear@aol.com,,,13289 E. Jensen Avenue,,61.665431,-149.113302,Palmer,,99645,,
USA-AK-70-AK-AssistedLiving-output-610,The Terrace,Dementia Care;Assisted Living,,235 7655,51,,,,keren@homerseniors.com,,,250 Herndon Avenue,,59.6482783,-151.5365315,Homer,,99603,,
USA-AK-70-AK-AssistedLiving-output-611,Timberberry Alh,Assisted Living,,696 8818,,,,,gershelc@yahoo.com,,,17141 Baronoff Avenue,,61.3145591,-149.5618605,Eagle River,,99577,,Eagle River
USA-AK-70-AK-AssistedLiving-output-612,Titus Assisted Living Home,Assisted Living,,,,,,,tedtitus@acsalaska.net,,,49840 Eider Drive,,60.5145517,-151.2285182,Kenai,,99611,,
USA-AK-70-AK-AssistedLiving-output-613,Tlc Assisted Living Home,Dementia Care;Assisted Living,,317 3768,,,,,Frugalicious68@yahoo.com,,,1023 State St. Unit A,,41.0989482,-112.0107997,Anchorage,,99504,,
USA-AK-70-AK-AssistedLiving-output-614,Tranquil Home Llc,Assisted Living,,333 6220,,,,,jollyrancher1@juno.com,,,4261 Chelsea Way,,61.181907,-149.7554574,Anchorage,,99504,,Scenic Foothills
USA-AK-70-AK-AssistedLiving-output-615,Tranquility Manor Estates,Dementia Care;Assisted Living,,746 4220,,,,746 4207,bckorman@mtaonline.net,,,1950 Hemmer Road,,61.60144,-149.1485075,Palmer,,99645,,
USA-AK-70-AK-AssistedLiving-output-616,True Love Assisted Living Home,Dementia Care;Assisted Living,,306 2522,,,,929 3009,truelove@gci.net,,,8340 Northwood Street,,61.1449905,-149.9225975,Anchorage,,99502,,Sand Lake
USA-AK-70-AK-AssistedLiving-output-617,True Love Too Alh,Dementia Care;Assisted Living,,306 2522,,,,929 3009,truelove@gci.net,,,2729 Beluga Bay Circle,,61.138828,-149.8306208,Anchorage,,99507,,Abbott Loop
USA-AK-70-AK-AssistedLiving-output-618,Twin Hearts Assisted Living For The Elderly,Dementia Care;Assisted Living,,339 9328,,,,770 6019,ip_flores@yahoo.com,,,1111 Boston Street,,61.2120491,-149.7289174,Anchorage,,99504,,Northeast Anchorage
USA-AK-70-AK-AssistedLiving-output-619,"Two Sisters Too Alh, Llc",Dementia Care;Assisted Living,,376 2273,,,,,bigred907@gmail.com,,,413 N. Tiffany Loop,,61.5827424,-149.2760924,Palmer,,99645,,Lakes
USA-AK-70-AK-AssistedLiving-output-620,Ur Precious Assisted Living Home,Assisted Living,,770 6268,,,,,estherpjrv@yahoo.com,,,1925 Colony Place,,42.7051828,-88.0519843,Anchorage,,99507,,
USA-AK-70-AK-AssistedLiving-output-621,Utopia Alh,Assisted Living,,(907) 841 6779,,,,(907) 373 3620,whudzinski@gmail.com,,,6651 N Grouse Loop,,61.658047,-149.293234,Wasilla,,99654,,
USA-AK-70-AK-AssistedLiving-output-622,VALLEYWOOD Alh,Dementia Care;Assisted Living,,743 9045,,,,743 0316,pandesal61@gmail.com,,,2203 Roosevelt Drive,,61.1821388,-149.9228776,Anchorage,,99517,,Spenard
USA-AK-70-AK-AssistedLiving-output-623,VICTORY Assisted Living Home,Assisted Living,,677 7950,,,,,lisaa823@yahoo.com,,,9321 Aphrodite Dr.,,61.1360822,-149.9131237,Anchorage,,99515,,Bayshore / Klatt
USA-AK-70-AK-AssistedLiving-output-624,VIVIAN'S House Alh,Assisted Living,,244 6580,,,,,vivianasanteoatman@gmail.com,,,8450 Golden Street #1,,61.0941246,-149.7742359,Anchorage,,99502,,Rabbit Creek
USA-AK-70-AK-AssistedLiving-output-625,VIVIAN'S House Alh II,Assisted Living,,868 4722,,,,,vivianasanteoatman@gmail.com,,,9900 Buddy Werner Drive.,,61.1307003,-149.7318437,Anchorage,,99507,,Hillside East
USA-AK-70-AK-AssistedLiving-output-626,Wanamingo,Assisted Living,,262 9400,,,,,ahalsey@rescare.com,,,2930 Wanamingo,,61.6144752,-149.3767953,Wasilla,,99654,,
USA-AK-70-AK-AssistedLiving-output-627,"Wasilla Group Home, Llc",Assisted Living,,357 0103,,,,,renne@gci.net,,,3660 W. Lynn Drive,,61.531319,-149.542395,Wasilla,,99654,,
USA-AK-70-AK-AssistedLiving-output-628,Wendy's Assisted Living Home,Assisted Living,,738 6577,,,,,wengoss1952@yahoo.com,,,108 Donna Drive,,57.0683739,-135.3646225,Sitka,,99835,,
USA-AK-70-AK-AssistedLiving-output-629,"Wickersham House, Llc",Dementia Care;Assisted Living,,357 8342,,,,,execdir@mtaonline.net;wickershamhouse@gmail.com,,,3950 Wickersham Way,,61.575719,-149.34986,Wasilla,,99654,,Lakes
USA-AK-70-AK-AssistedLiving-output-630,Wild IRIS Comfort Care,Dementia Care;Assisted Living,,452 2345,,,,374 3973,candace_carroll@yahoo.com,,,1221 3rd Avenue,,64.845656,-147.735665,Fairbanks,,99701,,
USA-AK-70-AK-AssistedLiving-output-631,Wild Rose Gardens # A,Assisted Living,,746 4777,,,,,,,,13900 Rose Garden Circle,,61.5815693,-149.1006339,Palmer,,99645,,
USA-AK-70-AK-AssistedLiving-output-632,Williams Assisted Living Home,Assisted Living,,235 4763,,,,,havenwc@gmail.com,,,62100 Quinalt Ave,,59.6764311,-151.5129843,Homer,,99603,,
USA-AK-70-AK-AssistedLiving-output-633,Williams-reid Alh,Assisted Living,,301 3355,,,,,franwilliams1011@yahoo.com,,,1830 Twining Drive,,61.2039467,-149.7771314,Anchorage,,99504,,Northeast Anchorage
USA-AK-70-AK-AssistedLiving-output-634,Windy Ridge Alh,Assisted Living,,357 7000,,,,,windyridge@mtaonline.net,,,7781 Dean Drive,,61.6140886,-149.64644,Wasilla,,99654,,
USA-AK-70-AK-AssistedLiving-output-635,Wolf Assisted Living,Assisted Living,,(907) 631 3078,,,,(907) 631 3518,jeanne.owen@genacta.com,,,5545 S. Irwin Drive #2,,61.519493,-149.618257,Wasilla,,99654,,
USA-AK-70-AK-AssistedLiving-output-636,Yael Hickok,Assisted Living,,277 4130,,,,,jerhickok@hotmail.com,,,19619 Crabtree Street,,61.397728,-149.490683,Chugiak,,99567,,Chugiak
USA-AK-70-AK-AssistedLiving-output-637,Yancey Alh,Assisted Living,,357 4674,,,,,y_ronda@yahoo.com,,,2200 W. Glacier Ave.,,61.5968805,-149.5065354,Wasilla,,99654,,
USA-AK-70-AK-AssistedLiving-output-638,Ykhc - Bautista House,Assisted Living,,543 2242,,,,,Richard_Robb@ykhc.org,,,381 4th Avenue,,60.7951505,-161.7654652,Bethel,,99559,,
USA-AK-70-AK-AssistedLiving-output-639,Ykhc - Malone Home,Assisted Living,,543 6335,,,,,Richard_Robb@ykhc.org,,,841 Chief Eddie Hoffman Hwy,,60.7875199,-161.7840747,Bethel,,99559,,
USA-AK-70-AK-AssistedLiving-output-640,Yosef Family Alh,Dementia Care;Assisted Living,,,,,,868 8034,yoseffamilyhome@yahoo.com,,,922 Cherry St,,61.213712,-149.7227159,Anchorage,,99508,,Northeast Anchorage
USA-AK-70-AK-AssistedLiving-output-641,Your Home Now Alh,Dementia Care;Assisted Living,,929 2535,,,,,nanhette322004@yahoo.com,,,540 Carin Place,,61.2171166,-149.7351161,Anchorage,,99504,,Northeast Anchorage
USA-AK-70-AK-AssistedLiving-output-642,Yukon Koyukuk Elder Assisted Living Facility,Dementia Care;Assisted Living,,656 2574,,,,,a.m.sweetsir@gmail.com,,,2 Mile Campion Road,,64.7412187,-156.8748972,Galena,,99741,,
